{"type": "FeatureCollection", "features": [{"type": "Feature", "properties": {"OBJECTID_1": 516, "OBJECTID": 185, "PROVINCE": "Punjab", "DISTRICT": "Gujranwala", "TEHSIL": "Gujranwala", "NA": "NA-98", "PA": "PP-91"}, "geometry": {"type": "Polygon", "coordinates": [[[74.1815875585192, 32.153903937816665], [74.18456188452353, 32.16639610829395], [74.18337215430165, 32.17115503098006], [74.17682863673235, 32.174129356984395], [74.16681890986496, 32.17458255414175], [74.16860350564741, 32.1829106674935], [74.17693161899916, 32.198377163975124], [74.19715703726763, 32.197782299313815], [74.19180324992021, 32.1829106674935], [74.20013136417128, 32.18172093727162], [74.19953649861071, 32.1650647096688], [74.2007262288326, 32.15257254009083], [74.20251082461505, 32.141864965395996], [74.19036195504037, 32.136081740080385], [74.18396701986222, 32.14855015136857], [74.1815875585192, 32.153903937816665]]]}}, {"type": "Feature", "properties": {"OBJECTID_1": 541, "OBJECTID": 185, "PROVINCE": "Punjab", "DISTRICT": "Gujranwala", "TEHSIL": "Gujranwala", "NA": "NA-98", "PA": "PP-92"}, "geometry": {"type": "Polygon", "coordinates": [[[74.19036195504037, 32.136081740080385], [74.18203384168862, 32.129538222511144], [74.17311086277624, 32.14084066186723], [74.16636712014667, 32.147627656491295], [74.17682863673235, 32.153903937816665], [74.1815875585192, 32.153903937816665], [74.18396701986222, 32.14855015136857], [74.19036195504037, 32.136081740080385]]]}}, {"type": "Feature", "properties": {"OBJECTID_1": 515, "OBJECTID": 185, "PROVINCE": "Punjab", "DISTRICT": "Gujranwala", "TEHSIL": "Gujranwala", "NA": "NA-98", "PA": "PP-93"}, "geometry": {"type": "Polygon", "coordinates": [[[74.15968052673509, 32.15435713587328], [74.17311086277624, 32.14084066186723], [74.18203384168862, 32.129538222511144], [74.18084411056742, 32.11407172602952], [74.1766800543412, 32.11347686046889], [74.16478274852517, 32.11109740002513], [74.15823923095593, 32.12418443516373], [74.15110084782606, 32.13429714429793], [74.14151102521379, 32.15435713587328], [74.15968052673509, 32.15435713587328]]]}}, {"type": "Feature", "properties": {"OBJECTID_1": 542, "OBJECTID": 185, "PROVINCE": "Punjab", "DISTRICT": "Gujranwala", "TEHSIL": "Gujranwala", "NA": "NA-98", "PA": "PP-94"}, "geometry": {"type": "Polygon", "coordinates": [[[74.1815875585192, 32.153903937816665], [74.17682863673235, 32.153903937816665], [74.16636712014667, 32.147627656491295], [74.15968052673509, 32.15435713587328], [74.16027539229572, 32.16565957522937], [74.16146512251754, 32.17220309279867], [74.16681890986496, 32.17458255414175], [74.17682863673235, 32.174129356984395], [74.18337215430165, 32.17115503098006], [74.18456188452353, 32.16639610829395], [74.1815875585192, 32.153903937816665]]]}}, {"type": "Feature", "properties": {"OBJECTID_1": 385, "OBJECTID": 526, "PROVINCE": "Punjab", "DISTRICT": "Gujranwala", "TEHSIL": "Gujranwala", "NA": "NA-97", "PA": "PP-95"}, "geometry": {"type": "Polygon", "coordinates": [[[74.16146512251754, 32.17220309279867], [74.14812652182172, 32.17593771195601], [74.14693679159984, 32.18367096064651], [74.1475316562611, 32.19794772600693], [74.1409881386918, 32.21103476204479], [74.13860867824809, 32.22352693252208], [74.1409881386918, 32.237208833221246], [74.14158300425242, 32.24137288944746], [74.13860867824809, 32.24970100279921], [74.13180863805837, 32.25828563877138], [74.13834699981436, 32.26482399962805], [74.15371699993977, 32.281125000418626], [74.1597720003777, 32.28485199962023], [74.16629249979917, 32.28531700037945], [74.17281350014309, 32.290906500035135], [74.18259449973652, 32.29649599969082], [74.18958099996337, 32.30487899956637], [74.19703300007308, 32.306742000043414], [74.20448500018279, 32.312331999722176], [74.21053999972139, 32.32257800007483], [74.2161295002764, 32.32630500017581], [74.2235815003861, 32.32630500017581], [74.23569150036263, 32.32956500032469], [74.23585885700084, 32.329603125284166], [74.24035599962986, 32.31082000014305], [74.2429040002196, 32.28934449994887], [74.24654399990584, 32.27806100031506], [74.26110400044945, 32.26095300008103], [74.27275149978203, 32.25185300041579], [74.29095150001189, 32.25148899981764], [74.31570300019348, 32.24894100012722], [74.32844300044428, 32.24420900044515], [74.33135499983354, 32.20526150031816], [74.31721470659363, 32.20533000617502], [74.31150399990986, 32.193908593706794], [74.30293794033383, 32.187246103025416], [74.29342009586088, 32.19486037770446], [74.26677013313531, 32.20152286928516], [74.25725228866236, 32.19866751549358], [74.24773444508872, 32.19010145591761], [74.24107195440735, 32.181535396341644], [74.22013269746617, 32.17201755276801], [74.22298805035842, 32.15678900161129], [74.2144219907824, 32.14441580514546], [74.20251082461505, 32.141864965395996], [74.2007262288326, 32.15257254009083], [74.19953649861071, 32.1650647096688], [74.20013136417128, 32.18172093727162], [74.19180324992021, 32.1829106674935], [74.19715703726763, 32.197782299313815], [74.17693161899916, 32.198377163975124], [74.16860350564741, 32.1829106674935], [74.16681890986496, 32.17458255414175], [74.16146512251754, 32.17220309279867]]]}}, {"type": "Feature", "properties": {"OBJECTID_1": 514, "OBJECTID": 526, "PROVINCE": "Punjab", "DISTRICT": "Gujranwala", "TEHSIL": "Gujranwala", "NA": "NA-97", "PA": "PP-96"}, "geometry": {"type": "Polygon", "coordinates": [[[74.16146512251754, 32.17220309279867], [74.16027539229572, 32.16565957522937], [74.15968052673509, 32.15435713587328], [74.13291158999806, 32.15435713587328], [74.12993726399372, 32.16328011388629], [74.11506563307267, 32.16803903657245], [74.11090157594714, 32.18529012883653], [74.10435805837784, 32.19480797241016], [74.10257346259539, 32.20967960423053], [74.10554778859972, 32.219792313364735], [74.10852211550338, 32.227525561155915], [74.11226400028357, 32.23501500004238], [74.1164560002444, 32.24060399967499], [74.12111350008814, 32.2499190002618], [74.12996299989271, 32.2564399997064], [74.13180863805837, 32.25828563877138], [74.13860867824809, 32.24970100279921], [74.14158300425242, 32.24137288944746], [74.1409881386918, 32.237208833221246], [74.13860867824809, 32.22352693252208], [74.1409881386918, 32.21103476204479], [74.1475316562611, 32.19794772600693], [74.14693679159984, 32.18367096064651], [74.14812652182172, 32.17593771195601], [74.16146512251754, 32.17220309279867]]]}}, {"type": "Feature", "properties": {"OBJECTID_1": 409, "OBJECTID": 185, "PROVINCE": "Punjab", "DISTRICT": "Gujranwala", "TEHSIL": "Gujranwala", "NA": "NA-98", "PA": "PP-97"}, "geometry": {"type": "Polygon", "coordinates": [[[74.14151102521379, 32.15435713587328], [74.13651415720278, 32.13266020460492], [74.12437890606185, 32.12552182147505], [74.11152981624821, 32.13194636683153], [74.10153608022608, 32.13979858773479], [74.08940082908515, 32.14265394062704], [74.07655173927151, 32.13765707261598], [74.08083476950918, 32.13051869038543], [74.08654547619295, 32.11766960057179], [74.09439769709621, 32.11053121744192], [74.08440396107409, 32.105534349430854], [74.07726557794422, 32.105534349430854], [74.07919449962662, 32.08131299959541], [74.07500299968888, 32.07386100038502], [74.06848250026735, 32.07013500033014], [74.05450949981372, 32.0696690004242], [74.04426250031429, 32.072462999767765], [74.03820749987636, 32.07292899967376], [74.03075549976666, 32.073394999579705], [74.02330349965695, 32.07199799990792], [74.00394480390975, 32.07988000635737], [73.99799615100176, 32.089397849931004], [74.00156534256666, 32.104864346412626], [73.99918588212296, 32.11557192110746], [73.99489149974306, 32.12882099968954], [73.9976865000321, 32.13441000022152], [73.99209700037642, 32.14419099981495], [73.98883650020451, 32.15117700001872], [73.98278149976659, 32.157698000362586], [73.97719250013392, 32.16189000032341], [73.97067199981313, 32.167944999862016], [73.96415150039161, 32.17073950012798], [73.95902799974255, 32.17306799958868], [73.96182250000857, 32.17865700012061], [73.9587350446867, 32.20837089999719], [73.9587350446867, 32.22026820581323], [73.97896046295517, 32.239303893859756], [73.9944269594368, 32.25001146765527], [74.00989345681774, 32.261908773471305], [74.02773941374312, 32.27142661704488], [74.04201618000286, 32.27142661704488], [74.05748267648448, 32.254770390341434], [74.06343132939253, 32.26428823391501], [74.05391348491958, 32.282134191739715], [74.05986213782757, 32.29522122687831], [74.08484647788282, 32.29403149665643], [74.09912324414256, 32.283323921961596], [74.11072311627896, 32.286000816084936], [74.12024096075191, 32.286000816084936], [74.12886650688398, 32.28629824796593], [74.1428458403634, 32.28629824796593], [74.15801490406471, 32.288082843748384], [74.1597720003777, 32.28485199962023], [74.15371699993977, 32.281125000418626], [74.13834699981436, 32.26482399962805], [74.12996299989271, 32.2564399997064], [74.12111350008814, 32.2499190002618], [74.1164560002444, 32.24060399967499], [74.11226400028357, 32.23501500004238], [74.10852211550338, 32.227525561155915], [74.10554778859972, 32.219792313364735], [74.10257346259539, 32.20967960423053], [74.10435805837784, 32.19480797241016], [74.11090157594714, 32.18529012883653], [74.11506563307267, 32.16803903657245], [74.12993726399372, 32.16328011388629], [74.13291158999806, 32.15435713587328], [74.14151102521379, 32.15435713587328]]]}}, {"type": "Feature", "properties": {"OBJECTID_1": 335, "OBJECTID": 185, "PROVINCE": "Punjab", "DISTRICT": "Gujranwala", "TEHSIL": "Gujranwala", "NA": "NA-98", "PA": "PP-98"}, "geometry": {"type": "Polygon", "coordinates": [[[74.20251082461505, 32.141864965395996], [74.2144219907824, 32.14441580514546], [74.23440946282659, 32.13584974467017], [74.23726481661816, 32.12157297930969], [74.24012016951036, 32.11110335083913], [74.26962548602751, 32.10539264415536], [74.2867576051795, 32.10348907526077], [74.3046250001438, 32.117176999619005], [74.30835100019868, 32.10879299969736], [74.3153370004024, 32.105066999642474], [74.32046100017521, 32.10180700039291], [74.321857999847, 32.09621699981483], [74.321857999847, 32.08969700041638], [74.32232399975294, 32.08038099978347], [74.32092600003506, 32.07292899967376], [74.31813199979212, 32.065476999564055], [74.31347399992535, 32.058025000353666], [74.3106799996824, 32.0487089997207], [74.31161100034757, 32.04218900032225], [74.31021399977647, 32.031941999923504], [74.31254300015951, 32.024489999813795], [74.31766599988617, 32.016571999798145], [74.32698099957366, 32.012379999837265], [74.32651499966767, 32.007257000110656], [74.321391999941, 32.001667000431894], [74.31626900021433, 31.99840700028301], [74.3106799996824, 32.002133000337835], [74.30089800004282, 32.004461999821615], [74.29484399965105, 32.004461999821615], [74.29298000002717, 31.99794100037701], [74.29298000002717, 31.987693999978262], [74.29298000002717, 31.978379000290772], [74.2878570003005, 31.975585000047886], [74.28133599995658, 31.97604999990773], [74.27202100026909, 31.973255999664843], [74.26549999992523, 31.974187000329948], [74.26037700019856, 31.97791300038483], [74.2538559998547, 31.982571000251653], [74.25059599970581, 31.987693999978262], [74.2440750002612, 31.992351999845084], [74.23895199963522, 31.992351999845084], [74.23569200038565, 31.996077999899967], [74.2352259995804, 32.00399599991562], [74.23382899990861, 32.00865399978244], [74.22963699994779, 32.01331099960311], [74.2198560003543, 32.01284599974326], [74.21240300019849, 32.016571999798145], [74.19610200030723, 32.01331099960311], [74.19051299977531, 32.013777000408425], [74.1821289998536, 32.014243000314366], [74.1735113200915, 32.01424281325541], [74.1751419996038, 32.01703799970409], [74.17979950034686, 32.02029799985297], [74.17141550042516, 32.036599999790326], [74.16768950037033, 32.041256999610994], [74.1634975004095, 32.045915000377136], [74.15558000041688, 32.04870949974378], [74.1425384997521, 32.04544899957182], [74.13275750015868, 32.043120000088095], [74.12856550019785, 32.04824399986086], [74.12344249957187, 32.05429900029878], [74.11971650041636, 32.05988799993139], [74.11179850040065, 32.065943000369316], [74.1010855000959, 32.07199799990792], [74.08757850044759, 32.076189999868745], [74.08385250039277, 32.08131299959541], [74.07919449962662, 32.08131299959541], [74.07726557794422, 32.105534349430854], [74.08440396107409, 32.105534349430854], [74.09439769709621, 32.11053121744192], [74.08654547619295, 32.11766960057179], [74.08083476950918, 32.13051869038543], [74.07655173927151, 32.13765707261598], [74.08940082908515, 32.14265394062704], [74.10153608022608, 32.13979858773479], [74.11152981624821, 32.13194636683153], [74.12437890606185, 32.12552182147505], [74.13651415720278, 32.13266020460492], [74.14151102521379, 32.15435713587328], [74.15110084782606, 32.13429714429793], [74.15823923095593, 32.12418443516373], [74.16478274852517, 32.11109740002513], [74.1766800543412, 32.11347686046889], [74.18084411056742, 32.11407172602952], [74.18203384168862, 32.129538222511144], [74.19036195504037, 32.136081740080385], [74.20251082461505, 32.141864965395996]]]}}], "name": "rugpundit_pa_2002_gujranwala", "description": "PP-91..PP-98 (Gujranwala tehsil) extracted verbatim from rugpundit/PakistanConstituencies2013 \"Provincial Assemblies Constituencies/Pakistan_PA.shp\" (commit c0138f0, GPL-3.0). Attributes as upstream; note the upstream NA field is wrong for PP-91..PP-94 (tagged NA-98; the 28 Jun 2002 gazette puts them in NA-95/NA-96)."}