{"type": "FeatureCollection", "features": [{"type": "Feature", "properties": {"na": "NA-75", "src": "tehsil-composition (final delim 2023): https://en.wikipedia.org/wiki/NA-75_Narowal-I", "approx": true, "tehsils": "Zafarwal; Shakargarh (part)"}, "geometry": {"type": "Polygon", "coordinates": [[[75.24188133102608, 32.111337053425345], [75.24179268170585, 32.11134989727975], [75.24170567002044, 32.11137117245726], [75.24162109594951, 32.11140068335531], [75.24153973706147, 32.111438158652675], [75.22908385483395, 32.11791663474597], [75.22898255897387, 32.1179777647844], [75.22436031170051, 32.12118322417145], [75.2119570167711, 32.127634348885906], [75.21193487850333, 32.127646244343865], [75.20422068417965, 32.13192598710033], [75.2012302264251, 32.13296290597486], [75.1780278370551, 32.13832640936832], [75.17502043597224, 32.13832640936832], [75.17491455322386, 32.13833242922564], [75.17481003507633, 32.138350411214624], [75.17013907924101, 32.13943015723017], [75.17004666210235, 32.13945659637437], [75.16995745108625, 32.13949239233044], [75.16547302475092, 32.141565647414964], [75.16256455374472, 32.141565647414964], [75.16245867099633, 32.14157166727229], [75.1623541528488, 32.14158964926127], [75.15768319701348, 32.14266939527682], [75.15759077987482, 32.14269583442102], [75.15750156885872, 32.142731630377085], [75.1530171425234, 32.14480488546161], [75.15010867151719, 32.14480488546161], [75.1500027887688, 32.144810905318934], [75.14989827062128, 32.144828887307916], [75.14522731478596, 32.145908633323465], [75.14515207790119, 32.14592937101829], [75.14507883447457, 32.145956316171386], [75.13746618935963, 32.149123869523805], [75.13453881873278, 32.149123869523805], [75.1344468797781, 32.14912840464413], [75.13435583347632, 32.14914196597276], [75.13426656381337, 32.14916442184017], [75.13417993752549, 32.14919555421803], [75.12656729241054, 32.15236310757045], [75.12363992178369, 32.15236310757045], [75.12355193645463, 32.152367260179986], [75.12346473333959, 32.152379681090736], [75.1233790876985, 32.15240025987736], [75.1232957609449, 32.15242881358873], [75.1125626722303, 32.156682091632646], [75.10962705427772, 32.156682091632646], [75.10954369987881, 32.15668581776501], [75.10946101041773, 32.15669696643785], [75.10937964552794, 32.156715448715566], [75.10930025427648, 32.156741117160635], [75.08921751516019, 32.16424031374149], [75.08627227510111, 32.16424031374149], [75.08616855442423, 32.16424608950701], [75.08606611628208, 32.16426334538467], [75.08596622735051, 32.16429186800077], [75.07662431567987, 32.16753110604741], [75.07654549478853, 32.167562514862915], [75.07646984878268, 32.16760094568908], [75.07639800168666, 32.16764608149964], [75.07338930453568, 32.16973256799745], [75.07054505624046, 32.17071878983478], [75.04426961085194, 32.17071878983478], [75.01627970789322, 32.168562058802934], [75.01620793757127, 32.16855929780368], [74.98818220255933, 32.16855929780368], [74.98807848188245, 32.168565073569205], [74.9879760437403, 32.16858232944686], [74.98787615480873, 32.16861085206296], [74.98476218425185, 32.16969059807851], [74.98468336336052, 32.16972200689401], [74.98460771735466, 32.16976043772018], [74.98453587025864, 32.16980557353074], [74.98155199512063, 32.17187484633362], [74.9739196252474, 32.17399202009857], [74.97382065050766, 32.17402554020127], [74.9737260385927, 32.17406990439789], [74.97363697330955, 32.17412455759293], [74.97062827615858, 32.17621104409074], [74.96467005730648, 32.17827701194362], [74.96023684895253, 32.17827701194362], [74.95408810777633, 32.17721099692126], [74.9539956889254, 32.177199683337015], [74.95390260290468, 32.177197625682474], [74.95380977439966, 32.1772048443977], [74.95371812553772, 32.17722126777438], [74.9490471697024, 32.17830101378993], [74.94896060785418, 32.178325468237695], [74.94887679916461, 32.17835813438432], [74.94879652062885, 32.17839870938007], [74.94872051651383, 32.17844681705183], [74.94864949145806, 32.17850201139062], [74.94858410393888, 32.17856378068655], [74.94562560136659, 32.18164129664832], [74.93649564062018, 32.18480704229619], [74.93640730929086, 32.18484281541449], [74.93632308218062, 32.184887401663865], [74.93624383582306, 32.18494033704472], [74.93617039491815, 32.185001070669834], [74.93610352374975, 32.185068970497284], [74.93604391823185, 32.185143329908044], [74.9344869329534, 32.18730282193914], [74.93443800387087, 32.18737805606583], [74.9343965197779, 32.187457638092496], [74.93436286352929, 32.18754083356033], [74.93433734573698, 32.18762687466221], [74.9343202019035, 32.187714967328816], [74.93431159024847, 32.18780429855703], [74.93431159024847, 32.18789404391311], [74.9343202019035, 32.18798337514133], [74.93433734573698, 32.18807146780794], [74.93436286352929, 32.18815750890982], [74.9343965197779, 32.18824070437765], [74.93443800387087, 32.18832028640431], [74.9344869329534, 32.188395520531], [74.93737518954528, 32.19240144607204], [74.93600525979967, 32.200951678270144], [74.93073111333325, 32.200951678270144], [74.92804483823755, 32.200020232458996], [74.92666056156062, 32.19810028209463], [74.92660055327566, 32.19802546995279], [74.926533191017, 32.197957204464146], [74.92645918474074, 32.19789620510428], [74.92637931442675, 32.19784311476828], [74.92629442185822, 32.197798492995126], [74.92620540174974, 32.197762810070394], [74.9261131923176, 32.197736442069804], [74.92161689165995, 32.1966970696392], [74.91553625621641, 32.19248023985726], [74.9154614526315, 32.19243343604784], [74.91538256680377, 32.1923938987354], [74.91530030253688, 32.19236198066397], [74.91521539377624, 32.19233796660022], [74.91512859806092, 32.192322070792855], [74.915040689765, 32.19231443506111], [74.91495245318879, 32.19231512752945], [74.91486467556149, 32.192324142019814], [74.9147781400176, 32.19234139810672], [74.91469361861002, 32.19236674183479], [74.91461186542193, 32.192399947092326], [74.91012743908661, 32.19447320217685], [74.90566198280196, 32.19447320217685], [74.90558189730841, 32.19447664125536], [74.90550240145926, 32.19448693317004], [74.8992744603455, 32.19556667918559], [74.89922364079229, 32.195576950038706], [74.88990699633685, 32.197730601257796], [74.88370460756109, 32.198805917232235], [74.88365378800788, 32.19881618808535], [74.87431187633723, 32.20097568011645], [74.87422667124265, 32.20099968083707], [74.87414412034397, 32.201031638494314], [74.87406496485163, 32.201071266145824], [74.87398991548933, 32.20111820798165], [74.87121577863947, 32.20304203041704], [74.86227679590152, 32.20097568011645], [74.862172277754, 32.20095769812747], [74.86206639500561, 32.200951678270144], [74.8464965422212, 32.200951678270144], [74.84641239532556, 32.20095547573744], [74.8463289325406, 32.200966837266066], [74.84624683241525, 32.200985670487285], [74.83858444729874, 32.20311117030124], [74.83404065999368, 32.20311117030124], [74.83394909324696, 32.20311566868705], [74.83385840833807, 32.20312912052256], [74.83376947861225, 32.20315139625925], [74.83368316051138, 32.2031822813696], [74.83360028532594, 32.203221478413106], [74.8335216511893, 32.20326860990081], [74.83344801539117, 32.203323221930724], [74.83338008708452, 32.20338478855915], [74.83331852045609, 32.20345271686579], [74.83326390842618, 32.203526352663935], [74.83321677693847, 32.20360498680058], [74.83317757989496, 32.203687861986005], [74.83314669478463, 32.203774180086874], [74.83312441904793, 32.203863109812694], [74.83311096721242, 32.203953794721585], [74.83310646882661, 32.2040453614683], [74.83310646882661, 32.211603583577144], [74.83311055744788, 32.21169088988233], [74.83312278752281, 32.21177743197044], [74.83314305199806, 32.21186245231384], [74.8347000372765, 32.21726118239158], [74.83472558142951, 32.21733730289507], [74.83475756762091, 32.21741094879356], [74.83479575956493, 32.21748157605611], [74.83483987513318, 32.21754866295082], [74.83713190533129, 32.220727640309434], [74.83397990991368, 32.2214562608773], [74.82323386184444, 32.220391657492215], [74.82314527501568, 32.22038711315144], [74.82305665652339, 32.220390991306985], [74.82296880534133, 32.220403256993855], [74.82288251352523, 32.22042379962609], [74.8227985590718, 32.22045243399377], [74.82271769890434, 32.220488901932875], [74.82264066204844, 32.220532874652804], [74.8225681430592, 32.220583955700796], [74.82250079575914, 32.22064168453622], [74.82243922734347, 32.22070554068279], [74.82238399290566, 32.22077494842115], [74.81936374435054, 32.22496394286897], [74.81492974831448, 32.22803885283708], [74.8122428660955, 32.228970509163695], [74.80955598387652, 32.22803885283708], [74.8069491161488, 32.226231029037436], [74.8069491161488, 32.219161805685985], [74.806944617763, 32.21907023893927], [74.80693116592748, 32.218979554030376], [74.80690889019078, 32.21889062430456], [74.80687800508045, 32.21880430620369], [74.80683880803694, 32.21872143101826], [74.80679167654924, 32.21864279688162], [74.80673706451933, 32.21856916108347], [74.8066754978909, 32.21850123277683], [74.80660756958424, 32.218439666148406], [74.80653393378611, 32.21838505411849], [74.80645529964947, 32.21833792263079], [74.80637242446403, 32.21829872558728], [74.80628610636316, 32.21826784047693], [74.80619717663734, 32.21824556474024], [74.80610649172846, 32.21823211290473], [74.80601492498174, 32.21822761451892], [74.79822999858953, 32.21822761451892], [74.79813843184282, 32.21823211290473], [74.79804774693393, 32.21824556474024], [74.79795881720811, 32.21826784047693], [74.79787249910724, 32.21829872558728], [74.7977896239218, 32.21833792263079], [74.79771098978516, 32.21838505411849], [74.79763735398703, 32.218439666148406], [74.79756942568038, 32.21850123277683], [74.79750785905195, 32.21856916108347], [74.79745324702203, 32.21864279688162], [74.79740611553433, 32.21872143101826], [74.79736691849082, 32.21880430620369], [74.79733603338049, 32.21889062430456], [74.79731375764379, 32.218979554030376], [74.79730030580828, 32.21907023893927], [74.79729580742247, 32.219161805685985], [74.79729580742247, 32.22456053576373], [74.79730086595315, 32.22465762170829], [74.79731598676256, 32.22475365623587], [74.797341006096, 32.22484759931607], [74.79737565300027, 32.22493843356836], [74.79741955225788, 32.225025175280045], [74.7974722284506, 32.22510688505966], [74.80053782530315, 32.2293587762402], [74.80160515588638, 32.231579309652695], [74.79948093611738, 32.232315866980336], [74.79940211522604, 32.23234727579584], [74.79932646922019, 32.232385706622004], [74.79925462212417, 32.232430842432564], [74.76538431840372, 32.25591939174255], [74.765419696, 32.257027107], [74.765261552, 32.259828442], [74.765232454, 32.26034423], [74.765116988, 32.262390938], [74.764670629, 32.264618222], [74.76459911657521, 32.26497506187898], [74.76459911657521, 32.26669705781172], [74.764932519, 32.267772673], [74.76633992, 32.268904893], [74.767743768, 32.269546615], [74.768708645, 32.269980714], [74.770255043, 32.27082782], [74.770660211, 32.271049769], [74.771696487, 32.272499785], [74.77176212572122, 32.2736679304568], [74.77223565669632, 32.27432470376183], [74.77098409053967, 32.276928531022534], [74.77078880687537, 32.27713167047544], [74.77032987, 32.278088518], [74.77012812000001, 32.278508642], [74.769763416, 32.278970338], [74.769186691, 32.279700441], [74.768659979, 32.280367554], [74.767109165, 32.282424538], [74.766755132, 32.283879032], [74.766643249, 32.284330408], [74.766767644, 32.284807396], [74.767203564, 32.286510855], [74.768141188, 32.28780238], [74.768899015, 32.28885137], [74.76973996400001, 32.290345844], [74.770361436, 32.291450276], [74.770813794, 32.292262972], [74.771191428, 32.292941423], [74.77208727065754, 32.293947472355725], [74.7729007689915, 32.29451162128951], [74.773961283, 32.294899552], [74.77466914300001, 32.294830844], [74.776113272, 32.29468992], [74.77713005003274, 32.29567821794146], [74.78110316052668, 32.29567821794146], [74.78120023808059, 32.29567281210334], [74.781936744, 32.295184675], [74.782979803, 32.294761864], [74.784642553, 32.294139954], [74.785071556, 32.294073004], [74.78785854, 32.293638059], [74.78865968985524, 32.29359615733921], [74.78899465639292, 32.29351872591036], [74.79014016048173, 32.29351872591036], [74.791461583, 32.293449613], [74.792256623, 32.293408031], [74.793159691, 32.293360798], [74.793898111, 32.293224316], [74.795007913, 32.293019195], [74.79644773000001, 32.292503366], [74.796929212, 32.292330869], [74.7980434997275, 32.29169122325181], [74.80084191235063, 32.289750565930554], [74.801084255, 32.289532857], [74.802080963, 32.288639754], [74.80443712200001, 32.28743766], [74.805843124, 32.287377896], [74.807250392, 32.28732579], [74.808016949, 32.28759293], [74.808623333, 32.287806121], [74.809620023, 32.288156964], [74.810541061, 32.288802684], [74.811896368, 32.289763898], [74.81320971400001, 32.291320422], [74.813500654, 32.291655119], [74.814094493, 32.292338443], [74.814397036, 32.292684269], [74.814783106, 32.292954019], [74.8149303348257, 32.29305663605538], [74.81735311649943, 32.29417674463743], [74.818807389, 32.294103282], [74.820159895, 32.293213033], [74.820662516, 32.292813326], [74.82116878100001, 32.292410866], [74.821920449, 32.292250349], [74.82271939600001, 32.292080256], [74.824690028, 32.293130047], [74.82462581, 32.29478457], [74.824544317, 32.296884143], [74.824526058, 32.29736525], [74.824123258, 32.299280124], [74.82363071600001, 32.300640014], [74.8231354, 32.301280522], [74.82277355, 32.301748746], [74.822509828, 32.302089867], [74.82240085348141, 32.30300164570253], [74.8234812545656, 32.305998613707324], [74.824064956, 32.306605121], [74.82661319086392, 32.30755542411249], [74.82672564541873, 32.30755542411249], [74.829137528, 32.30655108], [74.829637176, 32.306218185], [74.831116352, 32.305235411], [74.833420763, 32.305113768], [74.83447967900001, 32.305316825], [74.835774954, 32.305578185], [74.838472984, 32.305232947], [74.84059633800001, 32.304768745], [74.84228259000001, 32.304400659], [74.845413356, 32.303602446], [74.84860559900001, 32.303089547], [74.850559959, 32.30305102], [74.852242512, 32.304194918], [74.852483024, 32.305184969], [74.85268163646847, 32.30599966741466], [74.85334727744635, 32.30692289154991], [74.85334727744635, 32.30733745713497], [74.853662361, 32.307763599], [74.85414726, 32.308417629], [74.854422288, 32.310161858], [74.85416707200001, 32.312058771], [74.853286842, 32.313716661], [74.85233528, 32.314484087], [74.850978692, 32.315485945], [74.84956228300001, 32.317138385], [74.84867632161102, 32.31900189686209], [74.84867632161102, 32.31905860554888], [74.849396902, 32.320380158], [74.84960178300001, 32.320755539], [74.849832711, 32.321241647], [74.850436687, 32.322522537], [74.851715649, 32.32347971], [74.85313366795086, 32.3239850851135], [74.85579265394686, 32.32429241295343], [74.85689180700001, 32.323952564], [74.85888885300001, 32.323586007], [74.85985834968317, 32.32476232948942], [74.85989054461346, 32.32476605060656], [74.8599313025008, 32.32485084556332], [74.860073057, 32.325022841], [74.86014853782284, 32.32530279390859], [74.86113220383855, 32.32734926694044], [74.86113220383855, 32.32899043421184], [74.86155901100001, 32.330596207], [74.862579183, 32.333300613], [74.863091144, 32.334655352], [74.86338303662083, 32.33560779646126], [74.8643142875383, 32.33722231793674], [74.86583392760258, 32.3424915562757], [74.86738600897453, 32.348949627653916], [74.86739672812377, 32.348990196288526], [74.86891713023076, 32.35426207695364], [74.86891713023076, 32.35614085754934], [74.869242353, 32.357296238], [74.869407392, 32.357882552], [74.868903774, 32.358381054], [74.867436442, 32.359836355], [74.86664114700001, 32.360699755], [74.86580315967387, 32.36161685316115], [74.86580315967387, 32.363843909300066], [74.867210137, 32.364600594], [74.869309251, 32.364990146], [74.871390594, 32.365130707], [74.8738993, 32.36499957], [74.874840164, 32.364953407], [74.876549402, 32.365377053], [74.877141941, 32.366920262], [74.87724428, 32.367439818], [74.87734544830937, 32.36795523907442], [74.8782590419014, 32.37048949307024], [74.8782590419014, 32.372609714312055], [74.878408565, 32.373371488], [74.878543846, 32.374037467], [74.878550017, 32.376122545], [74.877094102, 32.377226331], [74.875623488, 32.378618955], [74.87514507134452, 32.37997938274276], [74.87514507134452, 32.38193340235526], [74.875471457, 32.383040714], [74.875855012, 32.383540595], [74.876897533, 32.384899299], [74.877474723, 32.385659096], [74.877883347, 32.386187669], [74.87837340083992, 32.38648806682205], [74.88248296815608, 32.38705805152219], [74.88275949, 32.386922396], [74.884224161, 32.386719224], [74.88665661200001, 32.386385616], [74.888028316, 32.386312765], [74.89003979, 32.386205934], [74.890887206, 32.386160927], [74.891715101, 32.386201415], [74.892541545, 32.386241832], [74.893158232, 32.386271991], [74.89434377285362, 32.386431566993146], [74.8946585133437, 32.38639518902233], [74.89504713273273, 32.386529939890785], [74.895452212, 32.386589551], [74.896290041, 32.386900982], [74.898278243, 32.387639806], [74.898798053, 32.387833248], [74.899329226, 32.388146317], [74.900370099, 32.388759661], [74.90140710300001, 32.38941877], [74.902121226, 32.390092015], [74.902846745, 32.390776688], [74.903286091, 32.391191716], [74.903624813, 32.391614265], [74.905349876, 32.393760361], [74.905732673, 32.394261185], [74.90736700300785, 32.39639991259639], [74.90811190522167, 32.396916491146285], [74.90939874747022, 32.39870130287155], [74.90939874747022, 32.39925231136542], [74.91005572200001, 32.400304912], [74.910850273, 32.401578519], [74.913152377, 32.403378787], [74.913908823, 32.403798493], [74.91479747400001, 32.404291553], [74.91655781, 32.405234034], [74.918432085, 32.406237332], [74.919797929, 32.407396262], [74.92082146300001, 32.40826474], [74.921950591, 32.409222818], [74.924278625, 32.411345952], [74.925595652, 32.412551195], [74.9260680816941, 32.413416389976284], [74.92668261838377, 32.41405564798784], [74.9312680850766, 32.42359550580072], [74.93275352664683, 32.42771603189432], [74.93275352664683, 32.42800528314714], [74.933166903, 32.428913797], [74.933250076, 32.430675589], [74.933436445, 32.434623312], [74.933459658, 32.435091953], [74.933457431, 32.435542832], [74.93344826, 32.436400893], [74.933406996, 32.440261619], [74.933387937, 32.442058236], [74.93336859, 32.443855037], [74.933722013, 32.446050407], [74.933792522, 32.44649017], [74.93454125383083, 32.4511595526484], [74.93588828166946, 32.45583027099667], [74.93734324594861, 32.46491123479533], [74.93680606168876, 32.46528376404928], [74.936819684, 32.465368718], [74.93363198, 32.467567056], [74.93349994493813, 32.46757650659338], [74.93339549060683, 32.46764894411068], [74.93248790838808, 32.46764894411068], [74.931765626, 32.467700642], [74.92411721, 32.468248085], [74.91721044577017, 32.46764894411068], [74.91663244043444, 32.46764894411068], [74.91588808761999, 32.46753423354409], [74.89965907700001, 32.466126416], [74.890998869, 32.470058708], [74.89050777700001, 32.470769703], [74.885229762, 32.478411143], [74.882872351, 32.481819566], [74.876654682, 32.485640535], [74.87204912788923, 32.48680760691399], [74.87125094060002, 32.487084372390555], [74.8709569429407, 32.487084372390555], [74.868864739, 32.487614548], [74.861511594, 32.489477875], [74.85642351700001, 32.492666927], [74.84556254419257, 32.49449310822785], [74.84556235105414, 32.49449703965091], [74.84556684943995, 32.49458860639763], [74.84558030127546, 32.49467929130652], [74.84560257701216, 32.49476822103234], [74.84563346212249, 32.49485453913321], [74.845672659166, 32.494937414318635], [74.8457197906537, 32.49501604845528], [74.84577440268362, 32.49508968425342], [74.84583596931205, 32.495157612560064], [74.84584435025893, 32.495165208607546], [74.86457152515584, 32.495165208607546], [74.88583315757421, 32.48520196589806], [74.90096575028633, 32.481784925733386], [74.91199649338975, 32.47923504058474], [74.91225808855499, 32.47923504058474], [74.91230923458357, 32.47922349147103], [74.92363161640606, 32.47922349147103], [74.95198045963059, 32.465272171873266], [74.95260832220661, 32.46518388021383], [74.9526374793026, 32.465170400207036], [74.95750867580753, 32.4644947798155], [74.98032930375444, 32.4612856840871], [75.00631574397647, 32.47324461954361], [75.00727275999748, 32.47432102972264], [75.00768791518884, 32.47460893364178], [75.00787525949349, 32.4749986950659], [75.01228002641697, 32.47995298616306], [75.01248505800262, 32.48009517250274], [75.0154307792549, 32.483159392982955], [75.01578384410901, 32.48389392857827], [75.01979092604623, 32.48840092082373], [75.02341551606558, 32.4909145198189], [75.04386766559423, 32.50298945292681], [75.04491958963732, 32.50298945292681], [75.07597352320776, 32.49737718642401], [75.07962530113751, 32.49484473301941], [75.09608708235305, 32.47922349147103], [75.09866492794218, 32.47596121390456], [75.09943269604011, 32.4746301246578], [75.1000611256841, 32.47419431809395], [75.11026150396532, 32.4612856840871], [75.11523220128011, 32.45219727465642], [75.11523220128011, 32.451683408630295], [75.11588417512101, 32.451005207461634], [75.11834617183699, 32.44650369937236], [75.11834617183699, 32.4461213286508], [75.11974612426474, 32.44320879040765], [75.12067896875216, 32.44223841984696], [75.12301712767231, 32.437963336446266], [75.12301712767231, 32.43775949958422], [75.12319673351105, 32.43763494561994], [75.12443592557759, 32.43536921022093], [75.13443204060606, 32.43513485503236], [75.13614196585064, 32.43496545394724], [75.14165762303537, 32.43496545394724], [75.20948245704983, 32.43337532601055], [75.29925379542635, 32.37752868869808], [75.32287783174661, 32.35557948770327], [75.32505705462862, 32.35294936408838], [75.3252261186928, 32.35259763388478], [75.32551376651895, 32.35239815441733], [75.33103429053887, 32.34573538453216], [75.33142350252781, 32.34506060279195], [75.33182285733487, 32.34478365620313], [75.3394146572607, 32.33562104487538], [75.34099506665405, 32.328944004822674], [75.34099506665405, 32.327438065845335], [75.34152571738879, 32.326702069141405], [75.34177706116247, 32.32564017185649], [75.38902513380293, 32.291696976234505], [75.39548955139948, 32.268013542824896], [75.39548955139948, 32.26485403483448], [75.392026852775, 32.25997350943966], [75.38926161028571, 32.256617614363414], [75.38926161028571, 32.25607601859353], [75.38193792299683, 32.245753595052406], [75.37513322008999, 32.240819593700344], [75.33232744645454, 32.20978168537653], [75.33211675341808, 32.20931362433456], [75.33146024452363, 32.20882989028625], [75.33002462599676, 32.205843150323375], [75.32848382239303, 32.20156905325925], [75.32844696989393, 32.20148116153807], [75.3238682285912, 32.19195529559769], [75.3238682285912, 32.19098927346851], [75.3176224247649, 32.177114028724105], [75.31342821793794, 32.16779646963141], [75.28744177771591, 32.14979687792362], [75.28698171138885, 32.14882297202016], [75.28630148673177, 32.14835124638902], [75.28338661135173, 32.142286978882446], [75.28338661135173, 32.1412125712068], [75.27799216300798, 32.12979316322395], [75.2763124412299, 32.1289349067879], [75.2606219853393, 32.12091784412404], [75.24433150916519, 32.1113327589796], [75.2419708029452, 32.1113327589796], [75.24188133102608, 32.111337053425345]], [[75.24301905695758, 32.15192136847957], [75.2438333730822, 32.15752209837024], [75.24260563495685, 32.158136702393], [75.24301905695758, 32.15192136847957]], [[75.23910636361357, 32.123651200753514], [75.24019070304189, 32.12315980280883], [75.23910636361357, 32.12563795193423], [75.23910636361357, 32.123651200753514]], [[75.22708183545964, 32.16089564382979], [75.22833435395347, 32.16004260736162], [75.2275660483838, 32.161817561362916], [75.22708183545964, 32.16089564382979]], [[75.15550694908904, 32.230902210919226], [75.15358635381278, 32.23185450082673], [75.15234810419919, 32.231862934011865], [75.15550694908904, 32.230902210919226]], [[75.1025962910714, 32.26764694764696], [75.10305741650053, 32.270416181611765], [75.10174556880241, 32.274860429769674], [75.1025962910714, 32.26764694764696]], [[75.06389181051345, 32.334042723049635], [75.06393849461197, 32.333994992048694], [75.06409914670141, 32.33514355742491], [75.06389181051345, 32.334042723049635]], [[75.03918789347769, 32.34059004076093], [75.03812496446932, 32.33985317156876], [75.03800942311574, 32.33675006724499], [75.03918789347769, 32.34059004076093]], [[75.01293358046715, 32.315098135698946], [75.01110441809013, 32.31608821504179], [75.01036730488721, 32.316093062280615], [75.01293358046715, 32.315098135698946]], [[74.95954736089334, 32.28825023113256], [74.95738884686436, 32.28720710018435], [74.95724772767377, 32.28506212690677], [74.95954736089334, 32.28825023113256]], [[74.89537130712408, 32.19962338432607], [74.89728786025137, 32.198318102432964], [74.89480751032818, 32.20101230056248], [74.89537130712408, 32.19962338432607]], [[74.8815467335239, 32.20960846381175], [74.88146254052097, 32.210111777015264], [74.87921266684043, 32.21164406919917], [74.8815467335239, 32.20960846381175]], [[74.85485371090718, 32.21998775260802], [74.85662872467287, 32.22108969071424], [74.85137341934876, 32.22048896635313], [74.85485371090718, 32.21998775260802]], [[74.77173157947237, 32.28277800817133], [74.77350940175238, 32.283976899124035], [74.77438274854772, 32.28551338097595], [74.77173157947237, 32.28277800817133]]]}}, {"type": "Feature", "properties": {"na": "NA-76", "src": "tehsil-composition (final delim 2023): https://en.wikipedia.org/wiki/NA-76_Narowal-II", "approx": true, "tehsils": "Narowal; Shakargarh (part: Bara Manga, Kanjroor, Dudhu Chak areas)"}, "geometry": {"type": "MultiPolygon", "coordinates": [[[[74.68647378643612, 31.95036093670791], [74.67575110713112, 31.9468614838009], [74.675611713, 31.947282371], [74.675438774, 31.947675571], [74.67501189500001, 31.948646144], [74.674412804, 31.950008265], [74.673631131, 31.950941283], [74.672985622, 31.951711815], [74.672098139, 31.95277109], [74.671399697, 31.953293194], [74.669290692, 31.954869792], [74.66880409800001, 31.955223502], [74.66842346700001, 31.955439475], [74.666332987, 31.956627005], [74.665799874, 31.956929792], [74.66406452000001, 31.958491912], [74.663651248, 31.95899279], [74.661545906, 31.960830016], [74.661118853, 31.961228731], [74.660811082, 31.962152959], [74.660538873, 31.96297039], [74.660595426, 31.963981344], [74.660677539, 31.965449214], [74.660369469, 31.966465085], [74.65995015300001, 31.967847793], [74.659747917, 31.96841637], [74.659452838, 31.969218086], [74.6591854, 31.969946616], [74.65696662500001, 31.970610163], [74.656184802, 31.97076918], [74.654525265, 31.970532673], [74.65388973200001, 31.970442102], [74.653290374, 31.970354723], [74.651914735, 31.970126715], [74.650599628, 31.969922352], [74.650001985, 31.969828026], [74.64955252, 31.969753998], [74.648880441, 31.969643728], [74.648310878, 31.969551388], [74.64743021800001, 31.969409045], [74.646829014, 31.969393659], [74.646230187, 31.969378334], [74.64563823600001, 31.969362151], [74.645045007, 31.96934559], [74.644513071, 31.969330889], [74.643434911, 31.969559922], [74.642757474, 31.969703831], [74.642298539, 31.969801322], [74.641860324, 31.970377608], [74.641468618, 31.970892733], [74.641222884, 31.97135139], [74.64106534000001, 31.972336109], [74.640912471, 31.973291675], [74.640753369, 31.973863726], [74.639950017, 31.976720048], [74.639561581, 31.978122921], [74.639190426, 31.979305087], [74.63851084400001, 31.980621641], [74.63786017000001, 31.981029948], [74.637208527, 31.981438863], [74.636606907, 31.981840797], [74.63569322, 31.982451217], [74.63421910000001, 31.983022645], [74.63349958, 31.983301559], [74.632572646, 31.984020825], [74.632210529, 31.984302231], [74.631858182, 31.98458373], [74.63061071, 31.985660056], [74.629877601, 31.986881605], [74.62954970700001, 31.987682642], [74.628335876, 31.990648693], [74.627300018, 31.993335915], [74.627048523, 31.993990643], [74.626718321, 31.994838428], [74.626330006, 31.996391941], [74.626038628, 31.997557638], [74.625845822, 31.998328982], [74.625610189, 31.999271672], [74.625353324, 32.00082026], [74.625099606, 32.002349883], [74.624990634, 32.00304928], [74.62476042, 32.00447493], [74.623940363, 32.005640757], [74.62243963200001, 32.006242477], [74.621299883, 32.006701238], [74.619560137, 32.007722403], [74.618828985, 32.008197296], [74.618464119, 32.00843428], [74.617661751, 32.008954408], [74.61726001800001, 32.009214592], [74.616748856, 32.009544507], [74.616169568, 32.010862715], [74.615810026, 32.011690046], [74.615390332, 32.012401694], [74.615147694, 32.012817096], [74.61491327200001, 32.013496655], [74.614517098, 32.014691282], [74.61415932700001, 32.015768096], [74.613941286, 32.016779085], [74.613627643, 32.018232355], [74.613383568, 32.018652446], [74.612177501, 32.020619244], [74.611735374, 32.021123054], [74.611450388, 32.021447801], [74.610604843, 32.022410842], [74.61029755700001, 32.022761751], [74.609622528, 32.023331983], [74.608966038, 32.023877829], [74.608338711, 32.024399425], [74.607081428, 32.024884637], [74.606140075, 32.025247855], [74.604667976, 32.025597243], [74.603261941, 32.02593112], [74.601875804, 32.026591117], [74.601364229, 32.026834699], [74.600198428, 32.027389784], [74.599334051, 32.028263738], [74.598474259, 32.029133024], [74.597782617, 32.029828217], [74.597099178, 32.031252318], [74.596326432, 32.033082066], [74.59615345600001, 32.033581913], [74.595600589, 32.035405172], [74.594849222, 32.037883507], [74.59472323, 32.038299803], [74.594540517, 32.039068039], [74.59417362900001, 32.040610659], [74.59408315, 32.041430261], [74.594036031, 32.041855993], [74.593847449, 32.043559894], [74.593611671, 32.045690226], [74.59324225, 32.049028241], [74.59315019200001, 32.049860063], [74.593002287, 32.050951809], [74.592564576, 32.052121741], [74.591794027, 32.054230062], [74.591469418, 32.055112401], [74.590916754, 32.055962427], [74.590604199, 32.056443153], [74.590317036, 32.056884869], [74.589853113, 32.057597829], [74.589174623, 32.058525278], [74.588036986, 32.060245997], [74.588888395, 32.060470112], [74.591197015, 32.061056718], [74.59375936100001, 32.060950974], [74.594993173, 32.060900627], [74.596086585, 32.06114358], [74.596520143, 32.061239915], [74.597755355, 32.061510119], [74.599670534, 32.061942474], [74.600630867, 32.06216218], [74.602305329, 32.063203568], [74.602991865, 32.063630539], [74.603575208, 32.064415264], [74.604188451, 32.065241409], [74.605648207, 32.068414427], [74.606804283, 32.070755354], [74.608868652, 32.070570168], [74.609756497, 32.06969632], [74.610247173, 32.06921234], [74.611489098, 32.068427624], [74.612960229, 32.068399618], [74.613979172, 32.069391192], [74.61521957, 32.070311275], [74.61635629, 32.070310049], [74.616989583, 32.070309367], [74.617489468, 32.070145397], [74.61881129400001, 32.069711818], [74.619586039, 32.069131358], [74.62051816200001, 32.068435821], [74.62259972400001, 32.068271043], [74.623487068, 32.070553913], [74.623544531, 32.071331158], [74.623616854, 32.07234553], [74.623697695, 32.073479373], [74.62326256, 32.075010531], [74.623038267, 32.075799774], [74.622589562, 32.077378677], [74.62192963400001, 32.079421221], [74.621270018, 32.081460047], [74.62252100500001, 32.083557186], [74.623041021, 32.084359909], [74.624622171, 32.086800429], [74.625279206, 32.088291833], [74.624908828, 32.090459079], [74.62454652000001, 32.091320533], [74.623877395, 32.092829798], [74.624799282, 32.094785458], [74.625538053, 32.095503029], [74.626278538, 32.096219469], [74.627118429, 32.096476736], [74.627682785, 32.096649603], [74.63065958, 32.097401699], [74.631991784, 32.097738176], [74.634639416, 32.099126098], [74.635308101, 32.099484794], [74.635737325, 32.099750677], [74.636687491, 32.100365011], [74.638337562, 32.101429071], [74.641968003, 32.105011061], [74.642421899, 32.105458887], [74.643005009, 32.106067145], [74.64351519, 32.106702701], [74.645560025, 32.109250052], [74.646469633, 32.11038106], [74.647496259, 32.111715745], [74.648200568, 32.112631394], [74.649278078, 32.113701821], [74.650623404, 32.115038302], [74.651298579, 32.115700667], [74.653633675, 32.117878721], [74.654730824, 32.118902083], [74.655359105, 32.11965696], [74.65577666300001, 32.120158654], [74.656926944, 32.1215408], [74.657331213, 32.122033491], [74.658573339, 32.123590042], [74.660519944, 32.12518025], [74.661475841, 32.125962338], [74.663161124, 32.126917515], [74.664189195, 32.127415228], [74.665502236, 32.128050905], [74.666397121, 32.128648052], [74.66699140300001, 32.129044609], [74.667585891, 32.129441304], [74.668181194, 32.129838541], [74.66874275, 32.130282854], [74.67107108200001, 32.132114979], [74.67184186300001, 32.1327182], [74.672662755, 32.13353954], [74.673177835, 32.134053746], [74.673727325, 32.134454299], [74.674698953, 32.135161195], [74.676018893, 32.135762559], [74.677611162, 32.136100406], [74.6790824, 32.136022262], [74.68094966000001, 32.135539199], [74.681882396, 32.135297894], [74.683168041, 32.135047532], [74.684619423, 32.134764958], [74.68547783400001, 32.134644937], [74.686143039, 32.134561592], [74.687037316, 32.134449464], [74.68902795400001, 32.13476784], [74.689811753, 32.135092392], [74.690483291, 32.135370288], [74.691356114, 32.135730918], [74.691924629, 32.136212039], [74.69308804, 32.137194339], [74.695001865, 32.138872228], [74.695863283, 32.139653103], [74.696344058, 32.139977126], [74.697352419, 32.140481306], [74.697809704, 32.140711048], [74.69827444900001, 32.140714832], [74.699771421, 32.140732903], [74.70241402900001, 32.140253603], [74.70316347900001, 32.140151018], [74.704540018, 32.140151472], [74.70503954, 32.140151684], [74.706221274, 32.140152852], [74.707180021, 32.140306974], [74.707811924, 32.140408548], [74.708901976, 32.140962685], [74.709449899, 32.141241519], [74.710683067, 32.142485746], [74.711402888, 32.143206958], [74.712804199, 32.144126052], [74.714471107, 32.144167734], [74.715456119, 32.144191838], [74.718079316, 32.145060766], [74.71986839, 32.146728806], [74.72043582500001, 32.14726989], [74.722048399, 32.148812537], [74.723320016, 32.149641493], [74.725050951, 32.150552416], [74.726699758, 32.151122678], [74.72944544100001, 32.150902651], [74.732027599, 32.150723896], [74.73415189, 32.151578525], [74.734941386, 32.15212521], [74.73549827, 32.152510822], [74.73674887700001, 32.153530079], [74.737614838, 32.154739518], [74.73885644500001, 32.15622347], [74.741032742, 32.157072007], [74.742711973, 32.15715207], [74.744568883, 32.156972419], [74.745848254, 32.156590472], [74.74658984, 32.156369153], [74.748014092, 32.156134902], [74.748827549, 32.156001109], [74.750612698, 32.156244205], [74.752380464, 32.157499546], [74.752751114, 32.158168987], [74.75353624600001, 32.15958429], [74.753950087, 32.160330751], [74.754245697, 32.161757929], [74.75444270700001, 32.162710201], [74.754753577, 32.164195064], [74.754975739, 32.165258593], [74.755218485, 32.166381192], [74.755548847, 32.167745823], [74.756400543, 32.171240963], [74.756646423, 32.172269356], [74.756931847, 32.173462869], [74.757248973, 32.174789736], [74.757322801, 32.176331369], [74.757371631, 32.177535534], [74.757284159, 32.18122993], [74.75718814800001, 32.181878334], [74.756989341, 32.183235302], [74.758487215, 32.184912051], [74.759300543, 32.185771888], [74.760234253, 32.186786625], [74.76088858, 32.188218608], [74.760707202, 32.189811265], [74.760416687, 32.190583121], [74.759976463, 32.191752739], [74.759764233, 32.192316387], [74.759277107, 32.193110311], [74.75758182300001, 32.195659846], [74.75558317, 32.198376385], [74.754825976, 32.199405553], [74.753812355, 32.200783254], [74.753342659, 32.201484753], [74.752567215, 32.20264289], [74.751456526, 32.20430172], [74.750959985, 32.205038988], [74.74944909, 32.206510018], [74.748887014, 32.207057048], [74.747630045, 32.208605322], [74.746918812, 32.209482074], [74.74624902, 32.210233936], [74.743963594, 32.212799999], [74.743049904, 32.213836812], [74.742408438, 32.214733311], [74.740611439, 32.217246267], [74.739987822, 32.219030049], [74.739687544, 32.219888413], [74.739592549, 32.220410928], [74.739153082, 32.222828155], [74.739142156, 32.223522279], [74.73921696, 32.225273988], [74.739258914, 32.226260532], [74.739847583, 32.227649864], [74.740978731, 32.228477257], [74.741989396, 32.229231191], [74.743859178, 32.231172261], [74.744989575, 32.232706422], [74.745482058, 32.233374814], [74.746472618, 32.234719185], [74.747042507, 32.235921264], [74.747996656, 32.237923288], [74.749769008, 32.240902372], [74.750435435, 32.242022656], [74.750812373, 32.24305509], [74.751484418, 32.244904545], [74.75215494000001, 32.246749921], [74.751891141, 32.248885392], [74.751730346, 32.249418693], [74.751350213, 32.250679469], [74.751662509, 32.252185809], [74.752819545, 32.253806058], [74.754500034, 32.254415307], [74.755855914, 32.254082911], [74.757239841, 32.253742486], [74.759730355, 32.252891322], [74.76028722800001, 32.252698519], [74.760981437, 32.252624379], [74.761730829, 32.252544161], [74.762381024, 32.252578697], [74.763182695, 32.252649848], [74.76363181, 32.252689707], [74.76531753200001, 32.253835038], [74.765367811, 32.255402525], [74.76538431840372, 32.25591939174255], [74.79925462212417, 32.232430842432564], [74.79932646922019, 32.232385706622004], [74.79940211522604, 32.23234727579584], [74.79948093611738, 32.232315866980336], [74.80160515588638, 32.231579309652695], [74.80053782530315, 32.2293587762402], [74.7974722284506, 32.22510688505966], [74.79741955225788, 32.225025175280045], [74.79737565300027, 32.22493843356836], [74.797341006096, 32.22484759931607], [74.79731598676256, 32.22475365623587], [74.79730086595315, 32.22465762170829], [74.79729580742247, 32.22456053576373], [74.79729580742247, 32.219161805685985], [74.79730030580828, 32.21907023893927], [74.79731375764379, 32.218979554030376], [74.79733603338049, 32.21889062430456], [74.79736691849082, 32.21880430620369], [74.79740611553433, 32.21872143101826], [74.79745324702203, 32.21864279688162], [74.79750785905195, 32.21856916108347], [74.79756942568038, 32.21850123277683], [74.79763735398703, 32.218439666148406], [74.79771098978516, 32.21838505411849], [74.7977896239218, 32.21833792263079], [74.79787249910724, 32.21829872558728], [74.79795881720811, 32.21826784047693], [74.79804774693393, 32.21824556474024], [74.79813843184282, 32.21823211290473], [74.79822999858953, 32.21822761451892], [74.80601492498174, 32.21822761451892], [74.80610649172846, 32.21823211290473], [74.80619717663734, 32.21824556474024], [74.80628610636316, 32.21826784047693], [74.80637242446403, 32.21829872558728], [74.80645529964947, 32.21833792263079], [74.80653393378611, 32.21838505411849], [74.80660756958424, 32.218439666148406], [74.8066754978909, 32.21850123277683], [74.80673706451933, 32.21856916108347], [74.80679167654924, 32.21864279688162], [74.80683880803694, 32.21872143101826], [74.80687800508045, 32.21880430620369], [74.80690889019078, 32.21889062430456], [74.80693116592748, 32.218979554030376], [74.806944617763, 32.21907023893927], [74.8069491161488, 32.219161805685985], [74.8069491161488, 32.226231029037436], [74.80955598387652, 32.22803885283708], [74.8122428660955, 32.228970509163695], [74.81492974831448, 32.22803885283708], [74.81936374435054, 32.22496394286897], [74.82238399290566, 32.22077494842115], [74.82243922734347, 32.22070554068279], [74.82250079575914, 32.22064168453622], [74.8225681430592, 32.220583955700796], [74.82264066204844, 32.220532874652804], [74.82271769890434, 32.220488901932875], [74.8227985590718, 32.22045243399377], [74.82288251352523, 32.22042379962609], [74.82296880534133, 32.220403256993855], [74.82305665652339, 32.220390991306985], [74.82314527501568, 32.22038711315144], [74.82323386184444, 32.220391657492215], [74.83397990991368, 32.2214562608773], [74.83713190533129, 32.220727640309434], [74.83483987513318, 32.21754866295082], [74.83479575956493, 32.21748157605611], [74.83475756762091, 32.21741094879356], [74.83472558142951, 32.21733730289507], [74.8347000372765, 32.21726118239158], [74.83314305199806, 32.21186245231384], [74.83312278752281, 32.21177743197044], [74.83311055744788, 32.21169088988233], [74.83310646882661, 32.211603583577144], [74.83310646882661, 32.2040453614683], [74.83311096721242, 32.203953794721585], [74.83312441904793, 32.203863109812694], [74.83314669478463, 32.203774180086874], [74.83317757989496, 32.203687861986005], [74.83321677693847, 32.20360498680058], [74.83326390842618, 32.203526352663935], [74.83331852045609, 32.20345271686579], [74.83338008708452, 32.20338478855915], [74.83344801539117, 32.203323221930724], [74.8335216511893, 32.20326860990081], [74.83360028532594, 32.203221478413106], [74.83368316051138, 32.2031822813696], [74.83376947861225, 32.20315139625925], [74.83385840833807, 32.20312912052256], [74.83394909324696, 32.20311566868705], [74.83404065999368, 32.20311117030124], [74.83858444729874, 32.20311117030124], [74.84624683241525, 32.200985670487285], [74.8463289325406, 32.200966837266066], [74.84641239532556, 32.20095547573744], [74.8464965422212, 32.200951678270144], [74.86206639500561, 32.200951678270144], [74.862172277754, 32.20095769812747], [74.86227679590152, 32.20097568011645], [74.87121577863947, 32.20304203041704], [74.87398991548933, 32.20111820798165], [74.87406496485163, 32.201071266145824], [74.87414412034397, 32.201031638494314], [74.87422667124265, 32.20099968083707], [74.87431187633723, 32.20097568011645], [74.88365378800788, 32.19881618808535], [74.88370460756109, 32.198805917232235], [74.88990699633685, 32.197730601257796], [74.89922364079229, 32.195576950038706], [74.8992744603455, 32.19556667918559], [74.90550240145926, 32.19448693317004], [74.90558189730841, 32.19447664125536], [74.90566198280196, 32.19447320217685], [74.91012743908661, 32.19447320217685], [74.91461186542193, 32.192399947092326], [74.91469361861002, 32.19236674183479], [74.9147781400176, 32.19234139810672], [74.91486467556149, 32.192324142019814], [74.91495245318879, 32.19231512752945], [74.915040689765, 32.19231443506111], [74.91512859806092, 32.192322070792855], [74.91521539377624, 32.19233796660022], [74.91530030253688, 32.19236198066397], [74.91538256680377, 32.1923938987354], [74.9154614526315, 32.19243343604784], [74.91553625621641, 32.19248023985726], [74.92161689165995, 32.1966970696392], [74.9261131923176, 32.197736442069804], [74.92620540174974, 32.197762810070394], [74.92629442185822, 32.197798492995126], [74.92637931442675, 32.19784311476828], [74.92645918474074, 32.19789620510428], [74.926533191017, 32.197957204464146], [74.92660055327566, 32.19802546995279], [74.92666056156062, 32.19810028209463], [74.92804483823755, 32.200020232458996], [74.93073111333325, 32.200951678270144], [74.93600525979967, 32.200951678270144], [74.93737518954528, 32.19240144607204], [74.9344869329534, 32.188395520531], [74.93443800387087, 32.18832028640431], [74.9343965197779, 32.18824070437765], [74.93436286352929, 32.18815750890982], [74.93433734573698, 32.18807146780794], [74.9343202019035, 32.18798337514133], [74.93431159024847, 32.18789404391311], [74.93431159024847, 32.18780429855703], [74.9343202019035, 32.187714967328816], [74.93433734573698, 32.18762687466221], [74.93436286352929, 32.18754083356033], [74.9343965197779, 32.187457638092496], [74.93443800387087, 32.18737805606583], [74.9344869329534, 32.18730282193914], [74.93604391823185, 32.185143329908044], [74.93610352374975, 32.185068970497284], [74.93617039491815, 32.185001070669834], [74.93624383582306, 32.18494033704472], [74.93632308218062, 32.184887401663865], [74.93640730929086, 32.18484281541449], [74.93649564062018, 32.18480704229619], [74.94562560136659, 32.18164129664832], [74.94858410393888, 32.17856378068655], [74.94864949145806, 32.17850201139062], [74.94872051651383, 32.17844681705183], [74.94879652062885, 32.17839870938007], [74.94887679916461, 32.17835813438432], [74.94896060785418, 32.178325468237695], [74.9490471697024, 32.17830101378993], [74.95371812553772, 32.17722126777438], [74.95380977439966, 32.1772048443977], [74.95390260290468, 32.177197625682474], [74.9539956889254, 32.177199683337015], [74.95408810777633, 32.17721099692126], [74.96023684895253, 32.17827701194362], [74.96467005730648, 32.17827701194362], [74.97062827615858, 32.17621104409074], [74.97363697330955, 32.17412455759293], [74.9737260385927, 32.17406990439789], [74.97382065050766, 32.17402554020127], [74.9739196252474, 32.17399202009857], [74.98155199512063, 32.17187484633362], [74.98453587025864, 32.16980557353074], [74.98460771735466, 32.16976043772018], [74.98468336336052, 32.16972200689401], [74.98476218425185, 32.16969059807851], [74.98787615480873, 32.16861085206296], [74.9879760437403, 32.16858232944686], [74.98807848188245, 32.168565073569205], [74.98818220255933, 32.16855929780368], [75.01620793757127, 32.16855929780368], [75.01627970789322, 32.168562058802934], [75.04426961085194, 32.17071878983478], [75.07054505624046, 32.17071878983478], [75.07338930453568, 32.16973256799745], [75.07639800168666, 32.16764608149964], [75.07646984878268, 32.16760094568908], [75.07654549478853, 32.167562514862915], [75.07662431567987, 32.16753110604741], [75.08596622735051, 32.16429186800077], [75.08606611628208, 32.16426334538467], [75.08616855442423, 32.16424608950701], [75.08627227510111, 32.16424031374149], [75.08921751516019, 32.16424031374149], [75.10930025427648, 32.156741117160635], [75.10937964552794, 32.156715448715566], [75.10946101041773, 32.15669696643785], [75.10954369987881, 32.15668581776501], [75.10962705427772, 32.156682091632646], [75.1125626722303, 32.156682091632646], [75.1232957609449, 32.15242881358873], [75.1233790876985, 32.15240025987736], [75.12346473333959, 32.152379681090736], [75.12355193645463, 32.152367260179986], [75.12363992178369, 32.15236310757045], [75.12656729241054, 32.15236310757045], [75.13417993752549, 32.14919555421803], [75.13426656381337, 32.14916442184017], [75.13435583347632, 32.14914196597276], [75.1344468797781, 32.14912840464413], [75.13453881873278, 32.149123869523805], [75.13746618935963, 32.149123869523805], [75.14507883447457, 32.145956316171386], [75.14515207790119, 32.14592937101829], [75.14522731478596, 32.145908633323465], [75.14989827062128, 32.144828887307916], [75.1500027887688, 32.144810905318934], [75.15010867151719, 32.14480488546161], [75.1530171425234, 32.14480488546161], [75.15750156885872, 32.142731630377085], [75.15759077987482, 32.14269583442102], [75.15768319701348, 32.14266939527682], [75.1623541528488, 32.14158964926127], [75.16245867099633, 32.14157166727229], [75.16256455374472, 32.141565647414964], [75.16547302475092, 32.141565647414964], [75.16995745108625, 32.13949239233044], [75.17004666210235, 32.13945659637437], [75.17013907924101, 32.13943015723017], [75.17481003507633, 32.138350411214624], [75.17491455322386, 32.13833242922564], [75.17502043597224, 32.13832640936832], [75.1780278370551, 32.13832640936832], [75.2012302264251, 32.13296290597486], [75.20422068417965, 32.13192598710033], [75.21193487850333, 32.127646244343865], [75.2119570167711, 32.127634348885906], [75.22436031170051, 32.12118322417145], [75.22898255897387, 32.1179777647844], [75.22908385483395, 32.11791663474597], [75.24153973706147, 32.111438158652675], [75.24162109594951, 32.11140068335531], [75.24170567002044, 32.11137117245726], [75.24179268170585, 32.11134989727975], [75.24188133102608, 32.111337053425345], [75.2419708029452, 32.1113327589796], [75.24433150916519, 32.1113327589796], [75.22431723585919, 32.099556644414754], [75.22129447565959, 32.097778095183], [75.20124576671122, 32.096519985114966], [75.15750957660572, 32.09377542229794], [75.11262390786709, 32.087771084268184], [75.05356381661687, 32.05774347568092], [74.99214132146489, 32.04973444808638], [74.94961805572876, 32.065751801804254], [74.93780603801832, 32.07776297707977], [74.89764517618397, 32.07776297707977], [74.87165873596194, 32.05974562286224], [74.85039710264425, 32.03571696356704], [74.80551143390562, 32.003668939869726], [74.78424980058787, 31.97561772637704], [74.78046995542417, 31.955575893912453], [74.7456953734428, 31.94659573430573], [74.72513345795682, 31.94485093357535], [74.70700022230614, 31.943312220762866], [74.70033722338422, 31.942746825705512], [74.68647378643612, 31.95036093670791]], [[74.77686121630258, 32.24738062762615], [74.77681673523477, 32.247531175869995], [74.77670982786891, 32.24769273799537], [74.77686121630258, 32.24738062762615]]], [[[74.764389528, 32.266020888], [74.76459911657521, 32.26669705781172], [74.76459911657521, 32.26497506187898], [74.764389528, 32.266020888]]], [[[74.77179756400001, 32.274298611], [74.77151090000001, 32.275287736], [74.771278986, 32.27604578], [74.771040276, 32.276607377], [74.77078880687537, 32.27713167047544], [74.77098409053967, 32.276928531022534], [74.77223565669632, 32.27432470376183], [74.77176212572122, 32.2736679304568], [74.77179756400001, 32.274298611]]], [[[74.772439313, 32.294342823], [74.7729007689915, 32.29451162128951], [74.77208727065754, 32.293947472355725], [74.772439313, 32.294342823]]], [[[74.77725136, 32.29579613], [74.777587114, 32.296123011], [74.779280066, 32.297005863], [74.780491911, 32.296142273], [74.78120023808059, 32.29567281210334], [74.78110316052668, 32.29567821794146], [74.77713005003274, 32.29567821794146], [74.77725136, 32.29579613]]], [[[74.79014016048173, 32.29351872591036], [74.78899465639292, 32.29351872591036], [74.78865968985524, 32.29359615733921], [74.79014016048173, 32.29351872591036]]], [[[74.79981124800001, 32.290676465], [74.80084191235063, 32.289750565930554], [74.7980434997275, 32.29169122325181], [74.79981124800001, 32.290676465]]], [[[74.815526356, 32.293472057], [74.816592524, 32.294215166], [74.81735311649943, 32.29417674463743], [74.8149303348257, 32.29305663605538], [74.815526356, 32.293472057]]], [[[74.822323959, 32.303645014], [74.82283885800001, 32.305331118], [74.8234812545656, 32.305998613707324], [74.82240085348141, 32.30300164570253], [74.822323959, 32.303645014]]], [[[74.826672516, 32.307577548], [74.82672564541873, 32.30755542411249], [74.82661319086392, 32.30755542411249], [74.826672516, 32.307577548]]], [[[74.852840768, 32.306652417], [74.85334727744635, 32.30733745713497], [74.85334727744635, 32.30692289154991], [74.85268163646847, 32.30599966741466], [74.852840768, 32.306652417]]], [[[74.848661919, 32.319032191], [74.84867632161102, 32.31905860554888], [74.84867632161102, 32.31900189686209], [74.848661919, 32.319032191]]], [[[74.85370991, 32.324190455], [74.855309274, 32.32444187], [74.85579265394686, 32.32429241295343], [74.85313366795086, 32.3239850851135], [74.85370991, 32.324190455]]], [[[74.8599313025008, 32.32485084556332], [74.85989054461346, 32.32476605060656], [74.85985834968317, 32.32476232948942], [74.8599313025008, 32.32485084556332]]], [[[74.860395853, 32.326220068], [74.86113220383855, 32.32899043421184], [74.86113220383855, 32.32734926694044], [74.86014853782284, 32.32530279390859], [74.860395853, 32.326220068]]], [[[74.86338442600001, 32.33561233], [74.863506778, 32.33603085], [74.863769749, 32.336930286], [74.864860273, 32.340660072], [74.866911433, 32.348577823], [74.868351149, 32.354130163], [74.86891713023076, 32.35614085754934], [74.86891713023076, 32.35426207695364], [74.86739672812377, 32.348990196288526], [74.86738600897453, 32.348949627653916], [74.86583392760258, 32.3424915562757], [74.8643142875383, 32.33722231793674], [74.86338303662083, 32.33560779646126], [74.86338442600001, 32.33561233]]], [[[74.865701215, 32.361728422], [74.865704188, 32.362158334], [74.86572105, 32.36379975], [74.86580315967387, 32.363843909300066], [74.86580315967387, 32.36161685316115], [74.865701215, 32.361728422]]], [[[74.8782590419014, 32.372609714312055], [74.8782590419014, 32.37048949307024], [74.87734544830937, 32.36795523907442], [74.8782590419014, 32.372609714312055]]], [[[74.874831739, 32.380870376], [74.87514507134452, 32.38193340235526], [74.87514507134452, 32.37997938274276], [74.874831739, 32.380870376]]], [[[74.879624979, 32.387255271], [74.881545004, 32.387513031], [74.882210352, 32.387191791], [74.88248296815608, 32.38705805152219], [74.87837340083992, 32.38648806682205], [74.879624979, 32.387255271]]], [[[74.894752534, 32.386486587], [74.89504713273273, 32.386529939890785], [74.8946585133437, 32.38639518902233], [74.89434377285362, 32.386431566993146], [74.894752534, 32.386486587]]], [[[74.908310977, 32.397635222], [74.908745772, 32.398206118], [74.90939874747022, 32.39925231136542], [74.90939874747022, 32.39870130287155], [74.90811190522167, 32.396916491146285], [74.90736700300785, 32.39639991259639], [74.908310977, 32.397635222]]], [[[74.926443713, 32.414104311], [74.927460022, 32.415966537], [74.928959133, 32.419517275], [74.92983665, 32.421593568], [74.93242853400001, 32.427291018], [74.93275352664683, 32.42800528314714], [74.93275352664683, 32.42771603189432], [74.9312680850766, 32.42359550580072], [74.92668261838377, 32.41405564798784], [74.9260680816941, 32.413416389976284], [74.926443713, 32.414104311]]], [[[74.934918875, 32.453514545], [74.93680606168876, 32.46528376404928], [74.93734324594861, 32.46491123479533], [74.93588828166946, 32.45583027099667], [74.93454125383083, 32.4511595526484], [74.934918875, 32.453514545]]], [[[74.93310383100001, 32.467604859], [74.93248790838808, 32.46764894411068], [74.93339549060683, 32.46764894411068], [74.93349994493813, 32.46757650659338], [74.93310383100001, 32.467604859]]], [[[74.91588808761999, 32.46753423354409], [74.91663244043444, 32.46764894411068], [74.91721044577017, 32.46764894411068], [74.91588808761999, 32.46753423354409]]], [[[74.8709569429407, 32.487084372390555], [74.87125094060002, 32.487084372390555], [74.87204912788923, 32.48680760691399], [74.8709569429407, 32.487084372390555]]], [[[74.844603348, 32.494654389], [74.84156531752933, 32.495165208607546], [74.84584435025893, 32.495165208607546], [74.84583596931205, 32.495157612560064], [74.84577440268362, 32.49508968425342], [74.8457197906537, 32.49501604845528], [74.845672659166, 32.494937414318635], [74.84563346212249, 32.49485453913321], [74.84560257701216, 32.49476822103234], [74.84558030127546, 32.49467929130652], [74.84556684943995, 32.49458860639763], [74.84556235105414, 32.49449703965091], [74.84556254419257, 32.49449310822785], [74.844603348, 32.494654389]]], [[[74.91225808855499, 32.47923504058474], [74.91199649338975, 32.47923504058474], [74.90096575028633, 32.481784925733386], [74.91225808855499, 32.47923504058474]]], [[[74.95750867580753, 32.4644947798155], [74.9526374793026, 32.465170400207036], [74.95260832220661, 32.46518388021383], [74.95750867580753, 32.4644947798155]]], [[[75.00787525949349, 32.4749986950659], [75.00768791518884, 32.47460893364178], [75.00727275999748, 32.47432102972264], [75.00787525949349, 32.4749986950659]]], [[[75.01578384410901, 32.48389392857827], [75.0154307792549, 32.483159392982955], [75.01248505800262, 32.48009517250274], [75.01228002641697, 32.47995298616306], [75.01578384410901, 32.48389392857827]]], [[[75.02049016558874, 32.48918739518217], [75.02341551606558, 32.4909145198189], [75.01979092604623, 32.48840092082373], [75.02049016558874, 32.48918739518217]]], [[[75.04411420190894, 32.50313500777446], [75.04491958963732, 32.50298945292681], [75.04386766559423, 32.50298945292681], [75.04411420190894, 32.50313500777446]]], [[[75.07718785293713, 32.49715772494909], [75.07962530113751, 32.49484473301941], [75.07597352320776, 32.49737718642401], [75.07718785293713, 32.49715772494909]]], [[[75.1000611256841, 32.47419431809395], [75.09943269604011, 32.4746301246578], [75.09866492794218, 32.47596121390456], [75.1000611256841, 32.47419431809395]]], [[[75.11588417512101, 32.451005207461634], [75.11523220128011, 32.451683408630295], [75.11523220128011, 32.45219727465642], [75.11588417512101, 32.451005207461634]]], [[[75.12067896875216, 32.44223841984696], [75.11974612426474, 32.44320879040765], [75.11834617183699, 32.4461213286508], [75.11834617183699, 32.44650369937236], [75.12067896875216, 32.44223841984696]]], [[[75.12319673351105, 32.43763494561994], [75.12301712767231, 32.43775949958422], [75.12301712767231, 32.437963336446266], [75.12319673351105, 32.43763494561994]]], [[[75.14165762303537, 32.43496545394724], [75.13614196585064, 32.43496545394724], [75.13443204060606, 32.43513485503236], [75.14165762303537, 32.43496545394724]]], [[[75.32551376651895, 32.35239815441733], [75.3252261186928, 32.35259763388478], [75.32505705462862, 32.35294936408838], [75.32551376651895, 32.35239815441733]]], [[[75.33182285733487, 32.34478365620313], [75.33142350252781, 32.34506060279195], [75.33103429053887, 32.34573538453216], [75.33182285733487, 32.34478365620313]]], [[[75.34152571738879, 32.326702069141405], [75.34099506665405, 32.327438065845335], [75.34099506665405, 32.328944004822674], [75.34152571738879, 32.326702069141405]]], [[[75.39611234550841, 32.26573183645513], [75.39548955139948, 32.26485403483448], [75.39548955139948, 32.268013542824896], [75.39611234550841, 32.26573183645513]]], [[[75.38926161028571, 32.25607601859353], [75.38926161028571, 32.256617614363414], [75.392026852775, 32.25997350943966], [75.38926161028571, 32.25607601859353]]], [[[75.32949268835316, 32.203484183318835], [75.3238682285912, 32.19098927346851], [75.3238682285912, 32.19195529559769], [75.32844696989393, 32.20148116153807], [75.32848382239303, 32.20156905325925], [75.33002462599676, 32.205843150323375], [75.33146024452363, 32.20882989028625], [75.33211675341808, 32.20931362433456], [75.32949268835316, 32.203484183318835]]], [[[75.28400438191679, 32.14252031829652], [75.28338661135173, 32.1412125712068], [75.28338661135173, 32.142286978882446], [75.28630148673177, 32.14835124638902], [75.28698171138885, 32.14882297202016], [75.28400438191679, 32.14252031829652]]]]}}]}