{"type": "FeatureCollection", "features": [{"type": "Feature", "properties": {"na": "NA-111", "src": "sheet-split: nankana_na111_112.jpg, outline-fit", "approx": false, "rms_km": 1.965}, "geometry": {"type": "Polygon", "coordinates": [[[74.019661, 31.393948], [74.019583, 31.393919], [74.019502, 31.393897], [74.01942, 31.393884], [74.019337, 31.393878], [74.019253, 31.393879], [74.01917, 31.393889], [74.019089, 31.393907], [74.019009, 31.393932], [74.018932, 31.393965], [74.018859, 31.394004], [74.01879, 31.394051], [74.018725, 31.394104], [74.018666, 31.394163], [74.016242, 31.396809], [74.012661, 31.396809], [74.001978, 31.395351], [74.001885, 31.395343], [74.001792, 31.395346], [74.0017, 31.395358], [74.001609, 31.395379], [74.001522, 31.39541], [74.001438, 31.395451], [73.996067, 31.398382], [73.995985, 31.398433], [73.995909, 31.398493], [73.99584, 31.39856], [73.992073, 31.402672], [73.988432, 31.402672], [73.988341, 31.402677], [73.988251, 31.402691], [73.988163, 31.402714], [73.988077, 31.402746], [73.987996, 31.402787], [73.987919, 31.402837], [73.987848, 31.402893], [73.987783, 31.402957], [73.985098, 31.405889], [73.985039, 31.40596], [73.984989, 31.406036], [73.984947, 31.406117], [73.983604, 31.409048], [73.983569, 31.409136], [73.983544, 31.409227], [73.983529, 31.40932], [73.983524, 31.409415], [73.983524, 31.412154], [73.98094, 31.417796], [73.978326, 31.422076], [73.97596, 31.424659], [73.971411, 31.424659], [73.964961, 31.41621], [73.964904, 31.416142], [73.964841, 31.416081], [73.964771, 31.416026], [73.964697, 31.415979], [73.964618, 31.415939], [73.964535, 31.415907], [73.96445, 31.415884], [73.957736, 31.414419], [73.957648, 31.414404], [73.957558, 31.414398], [73.957468, 31.414402], [73.95738, 31.414415], [73.957292, 31.414436], [73.957208, 31.414467], [73.957127, 31.414506], [73.954442, 31.415972], [73.95436, 31.416022], [73.954284, 31.416082], [73.954215, 31.416149], [73.951675, 31.418922], [73.947849, 31.420314], [73.947773, 31.420346], [73.9477, 31.420385], [73.947632, 31.42043], [73.94365, 31.423328], [73.941014, 31.424766], [73.940944, 31.424809], [73.940878, 31.424858], [73.940816, 31.424914], [73.940761, 31.424975], [73.940711, 31.42504], [73.936768, 31.430779], [73.932962, 31.433549], [73.92905, 31.434972], [73.928972, 31.435005], [73.928898, 31.435045], [73.928828, 31.435092], [73.928762, 31.435145], [73.928703, 31.435205], [73.924773, 31.439494], [73.922413, 31.440782], [73.914581, 31.440782], [73.914487, 31.440788], [73.914393, 31.440803], [73.90768, 31.442268], [73.907599, 31.44229], [73.907521, 31.442319], [73.907446, 31.442356], [73.90476, 31.443822], [73.904687, 31.443866], [73.904619, 31.443918], [73.904556, 31.443976], [73.904499, 31.444039], [73.904448, 31.444108], [73.904404, 31.444182], [73.904368, 31.44426], [73.904339, 31.44434], [73.904319, 31.444423], [73.904306, 31.444508], [73.904302, 31.444593], [73.904302, 31.451922], [73.904306, 31.452004], [73.904317, 31.452085], [73.904336, 31.452164], [73.904362, 31.452241], [73.904395, 31.452316], [73.904435, 31.452387], [73.904481, 31.452454], [73.904533, 31.452516], [73.909811, 31.458278], [73.911016, 31.460909], [73.911016, 31.463307], [73.907219, 31.467452], [73.90716, 31.467523], [73.90711, 31.467599], [73.907068, 31.46768], [73.901697, 31.479406], [73.901662, 31.479494], [73.901637, 31.479585], [73.901622, 31.479678], [73.901617, 31.479772], [73.901617, 31.491499], [73.90162, 31.491579], [73.902928, 31.505849], [73.900538, 31.508458], [73.893861, 31.514289], [73.893801, 31.514347], [73.893747, 31.51441], [73.893699, 31.514478], [73.893657, 31.51455], [73.893623, 31.514626], [73.893596, 31.514705], [73.893576, 31.514786], [73.893564, 31.514868], [73.89356, 31.514951], [73.89356, 31.517883], [73.893564, 31.517968], [73.893577, 31.518053], [73.893598, 31.518136], [73.893626, 31.518217], [73.893662, 31.518294], [73.893706, 31.518368], [73.893757, 31.518437], [73.893814, 31.518501], [73.893877, 31.518559], [73.893945, 31.51861], [73.894018, 31.518655], [73.896447, 31.519981], [73.897426, 31.522116], [73.89389, 31.525976], [73.891391, 31.52734], [73.883543, 31.530195], [73.878406, 31.530195], [73.870428, 31.528744], [73.870349, 31.528733], [73.87027, 31.52873], [73.870191, 31.528733], [73.870113, 31.528744], [73.862057, 31.53021], [73.861982, 31.530226], [73.856611, 31.531692], [73.856542, 31.531714], [73.852548, 31.533168], [73.847212, 31.534624], [73.847134, 31.534649], [73.847059, 31.534681], [73.846987, 31.534721], [73.846919, 31.534766], [73.846856, 31.534818], [73.846797, 31.534876], [73.846745, 31.534939], [73.840109, 31.543631], [73.836955, 31.545926], [73.834767, 31.542343], [73.834719, 31.542273], [73.834665, 31.542208], [73.834605, 31.542148], [73.83454, 31.542095], [73.83447, 31.542048], [73.834395, 31.542007], [73.834317, 31.541975], [73.830491, 31.540583], [73.826608, 31.536344], [73.826544, 31.53628], [73.826472, 31.536223], [73.826396, 31.536174], [73.826314, 31.536133], [73.826229, 31.536101], [73.826141, 31.536077], [73.826051, 31.536063], [73.82596, 31.536059], [73.820976, 31.536059], [73.811973, 31.52623], [73.810727, 31.522149], [73.810727, 31.514951], [73.810723, 31.514869], [73.810711, 31.514787], [73.810692, 31.514706], [73.810665, 31.514628], [73.810631, 31.514552], [73.81059, 31.51448], [73.810542, 31.514413], [73.810489, 31.51435], [73.810429, 31.514292], [73.810365, 31.51424], [73.806336, 31.511309], [73.806268, 31.511263], [73.806195, 31.511225], [73.80612, 31.511193], [73.802294, 31.509801], [73.799985, 31.50728], [73.799985, 31.501759], [73.79998, 31.501673], [73.799968, 31.501587], [73.799947, 31.501504], [73.799918, 31.501422], [73.799881, 31.501344], [73.799836, 31.50127], [73.799784, 31.501201], [73.799726, 31.501137], [73.799662, 31.501079], [73.789153, 31.492475], [73.787878, 31.486905], [73.787854, 31.48682], [73.787821, 31.486737], [73.78778, 31.486659], [73.787732, 31.486584], [73.787676, 31.486516], [73.787614, 31.486453], [73.787546, 31.486396], [73.787472, 31.486347], [73.787394, 31.486305], [73.787312, 31.486272], [73.787227, 31.486247], [73.78714, 31.48623], [73.787052, 31.486222], [73.786963, 31.486224], [73.786875, 31.486234], [73.786789, 31.486253], [73.781418, 31.487719], [73.781338, 31.487745], [73.78126, 31.487778], [73.781187, 31.487819], [73.781117, 31.487867], [73.781052, 31.487921], [73.780993, 31.487982], [73.78094, 31.488047], [73.775833, 31.495017], [73.766879, 31.495017], [73.766787, 31.495021], [73.766696, 31.495036], [73.766607, 31.49506], [73.766521, 31.495093], [73.766439, 31.495135], [73.766362, 31.495185], [73.762565, 31.497948], [73.756137, 31.497948], [73.756046, 31.497953], [73.755956, 31.497967], [73.755868, 31.49799], [73.755783, 31.498023], [73.755702, 31.498064], [73.755625, 31.498113], [73.755554, 31.49817], [73.755489, 31.498234], [73.753065, 31.50088], [73.749424, 31.50088], [73.749333, 31.500884], [73.749243, 31.500899], [73.749155, 31.500922], [73.749069, 31.500954], [73.748988, 31.500995], [73.748911, 31.501044], [73.74884, 31.501101], [73.748775, 31.501165], [73.743447, 31.506982], [73.738439, 31.511082], [73.730783, 31.509689], [73.730691, 31.509677], [73.730598, 31.509675], [73.730505, 31.509683], [73.730414, 31.5097], [73.730325, 31.509727], [73.726597, 31.511084], [73.723072, 31.509801], [73.720532, 31.507028], [73.720467, 31.506964], [73.720396, 31.506908], [73.720319, 31.506858], [73.720238, 31.506817], [73.720153, 31.506785], [73.720064, 31.506762], [73.719974, 31.506748], [73.719883, 31.506743], [73.717198, 31.506743], [73.717119, 31.506746], [73.717041, 31.506757], [73.709142, 31.508194], [73.70128, 31.506764], [73.696101, 31.505351], [73.692441, 31.502687], [73.691184, 31.498571], [73.691158, 31.498497], [73.691125, 31.498426], [73.691087, 31.498358], [73.691042, 31.498294], [73.690992, 31.498234], [73.688537, 31.495554], [73.688537, 31.492964], [73.688533, 31.492876], [73.68852, 31.492789], [73.688498, 31.492704], [73.688467, 31.492621], [73.688429, 31.492542], [73.688383, 31.492466], [73.684368, 31.486623], [73.681695, 31.482246], [73.681643, 31.48217], [73.681583, 31.4821], [73.681516, 31.482036], [73.681444, 31.48198], [73.681365, 31.481932], [73.675994, 31.479], [73.675915, 31.478962], [73.675833, 31.478932], [73.675748, 31.47891], [73.675661, 31.478897], [73.675573, 31.478893], [73.671663, 31.478893], [73.666539, 31.477495], [73.659942, 31.473174], [73.659869, 31.47313], [73.659792, 31.473095], [73.659712, 31.473066], [73.659629, 31.473046], [73.659545, 31.473034], [73.65946, 31.47303], [73.656775, 31.47303], [73.656684, 31.473034], [73.656594, 31.473049], [73.656506, 31.473072], [73.65642, 31.473104], [73.656339, 31.473145], [73.656262, 31.473194], [73.656191, 31.473251], [73.656126, 31.473315], [73.653586, 31.476088], [73.645732, 31.478946], [73.645654, 31.478979], [73.645579, 31.479019], [73.645509, 31.479066], [73.645443, 31.47912], [73.645383, 31.47918], [73.645329, 31.479245], [73.645281, 31.479315], [73.645241, 31.47939], [73.645208, 31.479468], [73.645182, 31.479549], [73.645165, 31.479632], [73.645155, 31.479716], [73.645154, 31.479801], [73.645161, 31.479885], [73.645175, 31.479969], [73.646369, 31.485183], [73.644466, 31.486222], [73.635386, 31.486222], [73.622051, 31.483311], [73.621958, 31.483295], [73.621863, 31.48329], [73.608436, 31.48329], [73.608359, 31.483294], [73.608283, 31.483304], [73.608208, 31.48332], [73.608135, 31.483343], [73.604659, 31.484608], [73.602371, 31.48211], [73.602306, 31.482046], [73.602235, 31.481989], [73.602158, 31.48194], [73.602077, 31.481899], [73.601991, 31.481867], [73.601903, 31.481843], [73.601813, 31.481829], [73.601722, 31.481824], [73.596576, 31.481824], [73.594294, 31.480579], [73.591731, 31.476382], [73.591679, 31.476307], [73.591619, 31.476237], [73.591553, 31.476173], [73.59148, 31.476117], [73.591402, 31.476069], [73.588716, 31.474603], [73.588637, 31.474565], [73.588555, 31.474535], [73.588469, 31.474513], [73.588383, 31.4745], [73.588295, 31.474496], [73.585896, 31.474496], [73.582099, 31.471732], [73.582021, 31.471682], [73.581939, 31.47164], [73.581853, 31.471607], [73.581764, 31.471583], [73.581673, 31.471569], [73.581581, 31.471564], [73.578896, 31.471564], [73.578819, 31.471567], [73.578743, 31.471577], [73.578668, 31.471594], [73.578595, 31.471617], [73.574601, 31.47307], [73.569265, 31.474527], [73.569189, 31.474551], [73.569116, 31.474582], [73.569045, 31.47462], [73.568979, 31.474664], [73.565182, 31.477427], [73.56144, 31.477427], [73.561348, 31.477432], [73.561257, 31.477446], [73.561168, 31.47747], [73.561082, 31.477503], [73.561, 31.477545], [73.560923, 31.477596], [73.557025, 31.480432], [73.551809, 31.481856], [73.55174, 31.481878], [73.547858, 31.48329], [73.538613, 31.48329], [73.538534, 31.483294], [73.538456, 31.483304], [73.530478, 31.484756], [73.522725, 31.484756], [73.517551, 31.481932], [73.517472, 31.481894], [73.517389, 31.481864], [73.517304, 31.481842], [73.517217, 31.481829], [73.51713, 31.481824], [73.514444, 31.481824], [73.514365, 31.481828], [73.514287, 31.481839], [73.50623, 31.483304], [73.506156, 31.483321], [73.500785, 31.484787], [73.500707, 31.484813], [73.500631, 31.484845], [73.500559, 31.484885], [73.50049, 31.484931], [73.500427, 31.484983], [73.500368, 31.485041], [73.497757, 31.487892], [73.491252, 31.492153], [73.486129, 31.493551], [73.485175, 31.493551], [73.485611, 31.494697], [73.485657, 31.495631], [73.485692, 31.496702], [73.485345, 31.497771], [73.484983, 31.498882], [73.484417, 31.500621], [73.48421, 31.50327], [73.484008, 31.50518], [73.482625, 31.507609], [73.482144, 31.508143], [73.481144, 31.509244], [73.481321, 31.509864], [73.48175, 31.51128], [73.482058, 31.512295], [73.482288, 31.51305], [73.482417, 31.513672], [73.483144, 31.517213], [73.483433, 31.51862], [73.483066, 31.521342], [73.482871, 31.52279], [73.482672, 31.52497], [73.482844, 31.526475], [73.482992, 31.527772], [73.483102, 31.528762], [73.48322, 31.529765], [73.483785, 31.531612], [73.484563, 31.533495], [73.485027, 31.534624], [73.48522, 31.535489], [73.485347, 31.536081], [73.485555, 31.53705], [73.485656, 31.537525], [73.485615, 31.538137], [73.485571, 31.53873], [73.485201, 31.539828], [73.485034, 31.540281], [73.484594, 31.541196], [73.484018, 31.542179], [73.483632, 31.542839], [73.481941, 31.544281], [73.480942, 31.544563], [73.476507, 31.545822], [73.475561, 31.546086], [73.474343, 31.54611], [73.472427, 31.546111], [73.469332, 31.54606], [73.468902, 31.546082], [73.468063, 31.546126], [73.467547, 31.546158], [73.466232, 31.546282], [73.46554, 31.546362], [73.46378, 31.54675], [73.463331, 31.54685], [73.462632, 31.547344], [73.462203, 31.547706], [73.461886, 31.548192], [73.461716, 31.548822], [73.46151, 31.549544], [73.461734, 31.550179], [73.462422, 31.551656], [73.462686, 31.552218], [73.46302, 31.552927], [73.46396, 31.554426], [73.465089, 31.555089], [73.465848, 31.555636], [73.466491, 31.5561], [73.467486, 31.557187], [73.467579, 31.558606], [73.467607, 31.55917], [73.467536, 31.559676], [73.46733, 31.561113], [73.466041, 31.561801], [73.465385, 31.5619], [73.464314, 31.56206], [73.461836, 31.562411], [73.459135, 31.562809], [73.458589, 31.562875], [73.455115, 31.563469], [73.454493, 31.563585], [73.454104, 31.563786], [73.452534, 31.564603], [73.451841, 31.564986], [73.451537, 31.56553], [73.45092, 31.566637], [73.450574, 31.567255], [73.450629, 31.568166], [73.450654, 31.568604], [73.450715, 31.569131], [73.450921, 31.569731], [73.451149, 31.570395], [73.451289, 31.570979], [73.451595, 31.572501], [73.452417, 31.575364], [73.452814, 31.576818], [73.452974, 31.577396], [73.453244, 31.578369], [73.453762, 31.579617], [73.453984, 31.580155], [73.45438, 31.581477], [73.454771, 31.582781], [73.454864, 31.583796], [73.454988, 31.585162], [73.455246, 31.586729], [73.455342, 31.587313], [73.455611, 31.589655], [73.45568, 31.590281], [73.455727, 31.592455], [73.455753, 31.593643], [73.455807, 31.594893], [73.455911, 31.596734], [73.456214, 31.598459], [73.456588, 31.60014], [73.456723, 31.60072], [73.45682, 31.60114], [73.456965, 31.601811], [73.457202, 31.603219], [73.457276, 31.603664], [73.457304, 31.604955], [73.457353, 31.607105], [73.457359, 31.607564], [73.457353, 31.608007], [73.457327, 31.609652], [73.457296, 31.611557], [73.45728, 31.61206], [73.456982, 31.615864], [73.456945, 31.616321], [73.456856, 31.616851], [73.45665, 31.61806], [73.455762, 31.619681], [73.455144, 31.620393], [73.452625, 31.623305], [73.452251, 31.62376], [73.451117, 31.625137], [73.450539, 31.625839], [73.450131, 31.626295], [73.449796, 31.62667], [73.448658, 31.627926], [73.447863, 31.628845], [73.447523, 31.62923], [73.446857, 31.629984], [73.446043, 31.630903], [73.445518, 31.631589], [73.445065, 31.631839], [73.443831, 31.632851], [73.44245, 31.633549], [73.442039, 31.633757], [73.439212, 31.63519], [73.438444, 31.635579], [73.437708, 31.635885], [73.436504, 31.636385], [73.435726, 31.636708], [73.434117, 31.637192], [73.428883, 31.638772], [73.427204, 31.639425], [73.426097, 31.639857], [73.421652, 31.641488], [73.416066, 31.643536], [73.414754, 31.644021], [73.413383, 31.644705], [73.412183, 31.645315], [73.40818, 31.64735], [73.406856, 31.648017], [73.4047, 31.648957], [73.396052, 31.652724], [73.394041, 31.6536], [73.391896, 31.654182], [73.388032, 31.655229], [73.386378, 31.655776], [73.383068, 31.656871], [73.380559, 31.65756], [73.374291, 31.659282], [73.383211, 31.668952], [73.38439, 31.670231], [73.382813, 31.67076], [73.378864, 31.67209], [73.378442, 31.67223], [73.377666, 31.67239], [73.376785, 31.672573], [73.375936, 31.672749], [73.374462, 31.673022], [73.372742, 31.673066], [73.37236, 31.673342], [73.370328, 31.67481], [73.370232, 31.675319], [73.370102, 31.675992], [73.369832, 31.6774], [73.370058, 31.678797], [73.373273, 31.683343], [73.374, 31.684371], [73.374168, 31.685717], [73.374222, 31.686148], [73.374331, 31.687025], [73.374395, 31.687679], [73.374191, 31.688166], [73.373318, 31.690187], [73.372808, 31.690881], [73.371019, 31.693242], [73.370008, 31.694581], [73.368483, 31.696595], [73.367822, 31.697917], [73.365893, 31.701766], [73.365267, 31.703011], [73.364988, 31.704324], [73.364523, 31.706496], [73.364237, 31.707881], [73.364362, 31.709606], [73.364455, 31.710836], [73.364564, 31.712307], [73.364297, 31.71406], [73.36412, 31.714803], [73.363978, 31.71531], [73.364118, 31.716405], [73.364215, 31.717136], [73.364314, 31.717821], [73.364454, 31.718754], [73.36424, 31.719927], [73.364128, 31.72055], [73.363726, 31.721059], [73.36338, 31.7215], [73.36222, 31.722202], [73.360351, 31.722841], [73.3599, 31.722849], [73.359422, 31.722855], [73.354713, 31.722931], [73.348666, 31.723268], [73.346828, 31.72337], [73.346345, 31.723294], [73.345459, 31.723154], [73.341657, 31.722557], [73.341039, 31.722459], [73.340265, 31.722259], [73.339491, 31.722059], [73.338719, 31.721859], [73.337552, 31.721558], [73.337112, 31.721333], [73.336336, 31.720932], [73.332046, 31.718713], [73.330339, 31.717869], [73.329119, 31.717266], [73.328526, 31.717364], [73.327104, 31.717598], [73.326497, 31.717696], [73.325998, 31.718149], [73.324471, 31.719523], [73.323979, 31.719993], [73.323591, 31.720522], [73.323171, 31.721097], [73.322106, 31.722563], [73.321461, 31.723451], [73.318768, 31.726722], [73.318447, 31.727115], [73.318093, 31.727531], [73.317627, 31.727904], [73.31543, 31.729626], [73.314807, 31.73004], [73.31323, 31.731087], [73.311781, 31.731739], [73.311137, 31.732024], [73.31052, 31.732302], [73.309316, 31.732824], [73.307634, 31.733551], [73.305907, 31.734125], [73.303494, 31.734924], [73.302288, 31.735325], [73.300841, 31.735772], [73.30016, 31.73601], [73.299105, 31.73638], [73.293171, 31.737956], [73.292575, 31.738115], [73.291978, 31.738274], [73.290914, 31.738534], [73.289584, 31.738937], [73.288787, 31.739708], [73.288009, 31.740433], [73.287756, 31.740881], [73.287521, 31.741311], [73.287924, 31.742495], [73.288069, 31.743094], [73.288291, 31.743573], [73.289927, 31.74523], [73.290819, 31.745695], [73.291942, 31.746282], [73.293181, 31.74745], [73.294103, 31.74832], [73.295338, 31.749484], [73.295821, 31.751397], [73.29605, 31.752989], [73.296238, 31.754306], [73.296389, 31.755366], [73.296583, 31.75672], [73.295917, 31.757979], [73.294805, 31.760082], [73.291951, 31.765306], [73.29378, 31.765361], [73.29499, 31.76541], [73.300093, 31.765621], [73.300979, 31.765657], [73.302806, 31.765743], [73.305618, 31.766373], [73.309105, 31.767149], [73.31087, 31.767249], [73.312106, 31.767306], [73.313417, 31.767492], [73.314287, 31.767616], [73.316703, 31.767958], [73.317537, 31.76808], [73.31806, 31.768216], [73.322091, 31.769265], [73.322879, 31.76947], [73.324922, 31.770778], [73.325085, 31.77216], [73.32528, 31.773809], [73.325609, 31.774938], [73.32573, 31.775383], [73.325749, 31.776341], [73.325786, 31.778388], [73.325745, 31.781084], [73.32557, 31.784847], [73.325541, 31.785535], [73.325713, 31.786803], [73.325839, 31.787725], [73.325959, 31.788612], [73.326404, 31.789431], [73.326602, 31.790081], [73.326929, 31.7904], [73.328462, 31.791623], [73.329661, 31.792197], [73.330732, 31.792709], [73.332611, 31.79402], [73.3334, 31.795179], [73.334, 31.796058], [73.334215, 31.796773], [73.334771, 31.798627], [73.334809, 31.79922], [73.335357, 31.800364], [73.335812, 31.800355], [73.336402, 31.800178], [73.337072, 31.799969], [73.337714, 31.799342], [73.33807, 31.798993], [73.338708, 31.798369], [73.341569, 31.797188], [73.343252, 31.796559], [73.344515, 31.796086], [73.345572, 31.79569], [73.347113, 31.794698], [73.347671, 31.794339], [73.34877, 31.793813], [73.349493, 31.793467], [73.3499, 31.793288], [73.351111, 31.792758], [73.352036, 31.792628], [73.353291, 31.792453], [73.35394, 31.79246], [73.355247, 31.792473], [73.356138, 31.792482], [73.35698, 31.79266], [73.358249, 31.792928], [73.358824, 31.793049], [73.359624, 31.793316], [73.360283, 31.793555], [73.361354, 31.793942], [73.362649, 31.79441], [73.363704, 31.795093], [73.365227, 31.796082], [73.365634, 31.79636], [73.366999, 31.797291], [73.368472, 31.798253], [73.370451, 31.798772], [73.371612, 31.798714], [73.372561, 31.798667], [73.373109, 31.79864], [73.374021, 31.79869], [73.375459, 31.79877], [73.37644, 31.798915], [73.377276, 31.799038], [73.378891, 31.799276], [73.380189, 31.799468], [73.381186, 31.799469], [73.383307, 31.800199], [73.386975, 31.80106], [73.387633, 31.801238], [73.391978, 31.802633], [73.392466, 31.802789], [73.392907, 31.80297], [73.394721, 31.803898], [73.395038, 31.804893], [73.39489, 31.806401], [73.394771, 31.807602], [73.394449, 31.8102], [73.394665, 31.81137], [73.394824, 31.81223], [73.394903, 31.812661], [73.395063, 31.813521], [73.395206, 31.813932], [73.395772, 31.815559], [73.395918, 31.815978], [73.396249, 31.816929], [73.39706, 31.81771], [73.399092, 31.819707], [73.399814, 31.820625], [73.400273, 31.820995], [73.400969, 31.821137], [73.40245, 31.821439], [73.40398, 31.821174], [73.404741, 31.821043], [73.405269, 31.820927], [73.406819, 31.820426], [73.407773, 31.820118], [73.408492, 31.819606], [73.409198, 31.819104], [73.410392, 31.818254], [73.411028, 31.817801], [73.411972, 31.816738], [73.412378, 31.816279], [73.41276, 31.815801], [73.413533, 31.814832], [73.414602, 31.812822], [73.414755, 31.812058], [73.414948, 31.811244], [73.41578, 31.809842], [73.416403, 31.809362], [73.417021, 31.808888], [73.41783, 31.808424], [73.418582, 31.807997], [73.421505, 31.806687], [73.422081, 31.806429], [73.422751, 31.806228], [73.423456, 31.806016], [73.424368, 31.805763], [73.426961, 31.805273], [73.427762, 31.805121], [73.428766, 31.80505], [73.43004, 31.80496], [73.431618, 31.804849], [73.435678, 31.805186], [73.436167, 31.805229], [73.43686, 31.80529], [73.437681, 31.805488], [73.440536, 31.806175], [73.441039, 31.806296], [73.441525, 31.806428], [73.443729, 31.807216], [73.444888, 31.80763], [73.445757, 31.80831], [73.446925, 31.809224], [73.447609, 31.80976], [73.448138, 31.810476], [73.448931, 31.811552], [73.44947, 31.812282], [73.449776, 31.813052], [73.450554, 31.815009], [73.45131, 31.81691], [73.452233, 31.81888], [73.452436, 31.820002], [73.452642, 31.820565], [73.452988, 31.821516], [73.453231, 31.822182], [73.453504, 31.822826], [73.454279, 31.824651], [73.455161, 31.82673], [73.456197, 31.828286], [73.456858, 31.829272], [73.457524, 31.830134], [73.458627, 31.831558], [73.458651, 31.833712], [73.45862, 31.834574], [73.458719, 31.835925], [73.458798, 31.83697], [73.458861, 31.83782], [73.459014, 31.838571], [73.459307, 31.840008], [73.461278, 31.841688], [73.461949, 31.841792], [73.463458, 31.841822], [73.464616, 31.841439], [73.465242, 31.841232], [73.465684, 31.840997], [73.467092, 31.839271], [73.467982, 31.837369], [73.4696, 31.835287], [73.47038, 31.834811], [73.470863, 31.834515], [73.472, 31.833819], [73.472949, 31.833495], [73.473539, 31.833293], [73.47638, 31.832322], [73.478341, 31.831684], [73.479521, 31.8313], [73.480352, 31.831073], [73.482659, 31.83044], [73.484105, 31.829905], [73.485184, 31.829492], [73.487476, 31.825704], [73.487979, 31.82477], [73.488279, 31.823615], [73.488731, 31.821872], [73.488693, 31.820664], [73.488621, 31.818086], [73.488513, 31.813904], [73.488416, 31.810336], [73.488048, 31.809198], [73.48785, 31.808585], [73.487581, 31.807754], [73.488505, 31.806258], [73.490771, 31.802592], [73.491487, 31.801434], [73.492284, 31.800554], [73.493798, 31.798882], [73.49407, 31.7984], [73.492859, 31.797109], [73.492453, 31.796676], [73.487831, 31.793244], [73.48651, 31.791895], [73.485304, 31.790663], [73.484829, 31.790252], [73.483833, 31.78939], [73.482837, 31.788529], [73.481941, 31.787753], [73.478429, 31.7851], [73.477376, 31.784304], [73.476762, 31.783748], [73.474926, 31.782085], [73.474006, 31.781252], [73.473216, 31.780208], [73.470054, 31.776031], [73.470635, 31.774186], [73.471009, 31.772998], [73.471036, 31.771677], [73.471083, 31.769367], [73.471268, 31.766532], [73.471326, 31.765653], [73.471316, 31.764608], [73.471295, 31.762522], [73.471286, 31.761643], [73.470803, 31.759662], [73.470582, 31.758839], [73.471145, 31.758097], [73.472269, 31.756614], [73.47358, 31.754606], [73.474807, 31.752727], [73.476252, 31.751287], [73.477245, 31.750297], [73.478054, 31.749019], [73.478867, 31.747735], [73.479434, 31.74684], [73.479937, 31.745404], [73.480768, 31.742762], [73.481583, 31.74003], [73.482069, 31.738633], [73.482389, 31.737714], [73.482796, 31.736545], [73.483012, 31.735923], [73.483372, 31.734891], [73.483798, 31.732147], [73.483875, 31.73165], [73.483991, 31.730901], [73.484288, 31.73021], [73.485028, 31.728486], [73.485235, 31.728053], [73.486416, 31.725681], [73.486936, 31.724256], [73.487863, 31.721715], [73.488414, 31.719927], [73.48883, 31.718576], [73.490796, 31.71464], [73.491927, 31.712799], [73.492817, 31.71099], [73.493493, 31.709614], [73.49326, 31.707854], [73.493136, 31.706914], [73.492893, 31.706352], [73.492526, 31.705501], [73.492296, 31.704968], [73.491759, 31.704304], [73.49067, 31.702957], [73.489355, 31.702676], [73.487903, 31.702365], [73.487065, 31.702186], [73.486014, 31.702329], [73.4825, 31.70281], [73.482015, 31.702876], [73.48119, 31.703056], [73.478692, 31.7036], [73.477029, 31.703963], [73.475416, 31.704152], [73.47461, 31.704247], [73.4734, 31.70439], [73.472284, 31.704366], [73.467672, 31.704063], [73.468161, 31.702296], [73.469472, 31.700839], [73.470298, 31.699922], [73.472207, 31.697608], [73.472751, 31.696948], [73.473395, 31.696347], [73.474037, 31.695749], [73.475322, 31.69455], [73.476284, 31.693925], [73.479513, 31.69183], [73.480045, 31.691506], [73.480956, 31.691023], [73.481685, 31.690638], [73.482782, 31.690056], [73.484271, 31.689662], [73.486745, 31.68902], [73.487191, 31.689316], [73.488722, 31.690335], [73.491693, 31.692579], [73.49292, 31.693306], [73.494115, 31.694013], [73.495515, 31.693588], [73.496807, 31.693196], [73.497774, 31.692902], [73.498771, 31.692076], [73.502172, 31.689259], [73.503562, 31.688264], [73.50498, 31.687249], [73.506173, 31.686009], [73.507084, 31.685062], [73.508376, 31.683959], [73.50902, 31.68341], [73.510956, 31.681759], [73.512794, 31.681182], [73.513819, 31.680869], [73.517028, 31.680551], [73.518063, 31.680449], [73.519053, 31.680706], [73.520908, 31.681189], [73.521722, 31.681401], [73.522615, 31.681958], [73.524163, 31.682922], [73.524868, 31.683361], [73.52553, 31.683976], [73.527219, 31.685543], [73.527634, 31.685948], [73.529999, 31.688538], [73.530882, 31.689505], [73.531939, 31.691079], [73.53257, 31.691798], [73.536675, 31.686804], [73.537593, 31.685687], [73.539671, 31.685637], [73.54204, 31.685579], [73.54568, 31.685264], [73.54696, 31.684875], [73.549932, 31.68397], [73.553271, 31.682617], [73.554042, 31.682342], [73.555613, 31.681782], [73.555077, 31.680088], [73.554341, 31.677758], [73.553115, 31.673324], [73.551903, 31.668569], [73.551685, 31.667715], [73.551336, 31.666953], [73.550822, 31.665835], [73.550133, 31.664332], [73.548825, 31.663325], [73.547848, 31.662572], [73.547511, 31.662313], [73.547137, 31.662089], [73.544058, 31.660252], [73.541224, 31.658474], [73.539715, 31.657528], [73.537752, 31.656633], [73.53461, 31.655201], [73.533495, 31.654633], [73.531267, 31.653496], [73.530497, 31.653104], [73.529783, 31.652739], [73.529253, 31.652428], [73.525625, 31.650293], [73.525068, 31.649891], [73.523517, 31.648673], [73.522553, 31.647916], [73.521355, 31.645429], [73.521295, 31.644658], [73.521138, 31.64265], [73.520341, 31.639798], [73.523723, 31.639511], [73.52481, 31.639503], [73.52677, 31.639489], [73.530737, 31.639595], [73.531421, 31.639601], [73.533651, 31.639523], [73.534868, 31.63948], [73.536158, 31.639159], [73.538198, 31.638651], [73.539166, 31.63841], [73.539935, 31.638143], [73.543016, 31.637074], [73.544835, 31.636581], [73.546365, 31.636166], [73.547885, 31.635677], [73.549492, 31.635161], [73.551337, 31.63472], [73.55293, 31.63434], [73.55396, 31.636393], [73.554196, 31.637058], [73.554319, 31.641013], [73.554948, 31.643659], [73.555323, 31.645236], [73.556089, 31.646857], [73.556663, 31.64807], [73.557428, 31.649689], [73.558482, 31.651534], [73.559536, 31.653378], [73.559932, 31.655968], [73.560318, 31.658494], [73.561373, 31.660436], [73.566859, 31.670537], [73.567492, 31.671702], [73.568125, 31.672868], [73.568609, 31.674105], [73.569093, 31.675341], [73.571996, 31.682763], [73.572803, 31.684823], [73.573287, 31.68606], [73.57388, 31.687247], [73.574276, 31.688038], [73.57818, 31.695847], [73.579023, 31.697532], [73.580285, 31.698795], [73.582339, 31.700848], [73.58407, 31.702579], [73.585332, 31.703842], [73.585912, 31.705063], [73.586143, 31.704944], [73.585946, 31.705133], [73.586024, 31.705298], [73.589948, 31.71356], [73.59097, 31.712332], [73.592177, 31.710882], [73.594857, 31.710679], [73.596203, 31.710577], [73.597446, 31.710492], [73.599534, 31.710347], [73.601237, 31.709771], [73.603366, 31.70905], [73.60691, 31.707911], [73.608939, 31.707251], [73.610563, 31.706723], [73.610969, 31.706591], [73.612175, 31.706166], [73.616121, 31.704775], [73.618563, 31.704234], [73.620521, 31.7038], [73.623302, 31.704136], [73.624726, 31.704467], [73.626193, 31.704808], [73.627296, 31.703797], [73.627985, 31.703165], [73.628912, 31.702315], [73.62895, 31.700918], [73.629051, 31.697207], [73.629072, 31.696437], [73.628873, 31.695607], [73.628273, 31.693106], [73.62782, 31.690996], [73.627688, 31.690384], [73.626456, 31.688046], [73.624007, 31.687228], [73.62301, 31.687302], [73.620069, 31.687517], [73.618181, 31.687717], [73.61705, 31.687836], [73.612742, 31.688878], [73.611467, 31.689186], [73.610565, 31.689163], [73.608166, 31.689101], [73.606648, 31.689062], [73.605649, 31.688025], [73.603658, 31.685957], [73.601834, 31.683211], [73.601083, 31.682082], [73.60131, 31.680827], [73.601643, 31.678986], [73.601822, 31.678516], [73.602432, 31.677253], [73.602929, 31.676222], [73.60545, 31.674774], [73.607471, 31.675038], [73.609936, 31.67536], [73.612352, 31.675106], [73.614461, 31.673364], [73.614858, 31.672836], [73.61569, 31.671787], [73.617499, 31.670259], [73.620049, 31.668345], [73.621455, 31.667582], [73.623229, 31.66662], [73.624328, 31.665418], [73.62515, 31.66452], [73.626514, 31.663286], [73.627524, 31.662373], [73.628942, 31.660736], [73.630637, 31.658782], [73.632071, 31.657809], [73.633679, 31.656719], [73.636202, 31.653799], [73.636858, 31.652528], [73.637632, 31.651026], [73.637857, 31.65059], [73.63835, 31.649888], [73.640254, 31.647178], [73.642667, 31.644139], [73.643556, 31.643023], [73.64431, 31.642078], [73.647048, 31.639013], [73.647637, 31.638375], [73.649109, 31.636778], [73.649842, 31.635369], [73.650639, 31.633837], [73.652077, 31.63245], [73.653279, 31.631291], [73.654505, 31.629623], [73.655289, 31.628556], [73.657122, 31.626604], [73.658649, 31.624978], [73.659261, 31.624327], [73.659769, 31.623796], [73.660532, 31.623001], [73.662871, 31.62056], [73.664333, 31.619036], [73.665036, 31.61793], [73.66902, 31.611667], [73.667412, 31.610854], [73.665517, 31.609896], [73.664693, 31.60948], [73.6639, 31.609078], [73.663159, 31.608644], [73.662434, 31.608219], [73.661347, 31.607581], [73.660244, 31.606933], [73.659172, 31.606208], [73.658114, 31.605493], [73.656663, 31.604511], [73.652292, 31.601433], [73.651209, 31.600671], [73.650528, 31.600119], [73.649507, 31.599292], [73.648146, 31.598188], [73.647271, 31.597224], [73.643066, 31.592597], [73.641969, 31.591389], [73.640898, 31.589535], [73.639771, 31.587585], [73.638492, 31.585475], [73.637793, 31.584361], [73.635698, 31.581019], [73.634999, 31.579906], [73.634278, 31.578743], [73.633548, 31.577217], [73.632321, 31.574648], [73.632003, 31.573982], [73.631829, 31.573572], [73.631478, 31.572753], [73.629724, 31.568658], [73.629203, 31.567396], [73.628927, 31.566727], [73.628519, 31.565738], [73.628178, 31.56445], [73.627167, 31.560587], [73.626895, 31.560045], [73.626252, 31.556181], [73.626135, 31.555616], [73.625903, 31.554422], [73.625941, 31.553089], [73.626014, 31.550442], [73.626057, 31.549895], [73.626138, 31.549075], [73.62623, 31.548133], [73.626322, 31.54727], [73.626467, 31.546283], [73.627573, 31.538382], [73.627635, 31.537953], [73.627694, 31.537515], [73.627827, 31.536713], [73.628023, 31.535523], [73.62831, 31.533981], [73.62867, 31.532364], [73.629847, 31.530021], [73.630042, 31.529526], [73.63088, 31.528365], [73.632203, 31.526555], [73.632699, 31.525877], [73.633195, 31.525198], [73.633654, 31.524157], [73.634238, 31.522834], [73.634608, 31.521938], [73.634886, 31.520841], [73.635465, 31.519884], [73.635753, 31.5194], [73.636285, 31.518518], [73.636825, 31.51762], [73.637455, 31.516575], [73.637978, 31.515911], [73.640332, 31.512924], [73.640879, 31.51223], [73.641859, 31.511294], [73.643771, 31.509482], [73.644493, 31.508809], [73.645267, 31.508189], [73.645954, 31.507633], [73.650428, 31.504032], [73.651476, 31.50317], [73.652449, 31.501802], [73.653869, 31.499802], [73.653776, 31.4989], [73.653679, 31.497969], [73.654894, 31.495974], [73.655373, 31.495284], [73.659014, 31.49007], [73.660861, 31.49138], [73.662213, 31.492338], [73.662504, 31.495119], [73.662065, 31.498541], [73.661791, 31.500686], [73.662138, 31.501977], [73.662829, 31.504528], [73.663185, 31.505841], [73.664229, 31.507072], [73.671366, 31.515396], [73.671994, 31.516068], [73.67322, 31.517376], [73.674199, 31.518004], [73.677438, 31.520083], [73.67865, 31.52086], [73.680447, 31.52109], [73.68144, 31.521217], [73.681914, 31.521272], [73.68271, 31.521305], [73.685415, 31.521409], [73.686161, 31.521438], [73.689305, 31.52156], [73.6911, 31.521631], [73.692553, 31.52241], [73.694365, 31.523382], [73.69531, 31.523889], [73.696366, 31.524518], [73.698398, 31.52573], [73.700071, 31.526724], [73.700997, 31.527275], [73.70177, 31.527735], [73.702854, 31.528378], [73.704341, 31.529259], [73.706128, 31.530146], [73.708734, 31.53147], [73.711884, 31.533073], [73.712672, 31.533474], [73.713821, 31.534071], [73.718498, 31.536457], [73.71906, 31.536732], [73.720106, 31.537191], [73.722154, 31.53809], [73.723403, 31.53863], [73.724552, 31.538706], [73.727849, 31.538918], [73.72927, 31.539011], [73.730564, 31.538249], [73.732997, 31.536819], [73.733585, 31.536593], [73.73577, 31.535768], [73.73746, 31.534926], [73.739509, 31.534244], [73.740737, 31.533839], [73.741492, 31.533589], [73.74385, 31.533859], [73.744753, 31.534726], [73.745849, 31.535779], [73.746574, 31.536474], [73.746788, 31.537066], [73.747071, 31.537845], [73.747518, 31.538572], [73.748127, 31.540575], [73.748481, 31.541739], [73.747832, 31.543238], [73.747159, 31.544771], [73.745404, 31.544885], [73.738683, 31.545325], [73.737415, 31.545606], [73.735298, 31.546074], [73.73402, 31.546357], [73.732746, 31.546638], [73.731903, 31.547024], [73.72899, 31.548355], [73.72842, 31.548616], [73.72736, 31.5491], [73.726766, 31.54969], [73.72476, 31.551688], [73.723861, 31.552587], [73.723618, 31.553746], [73.72314, 31.556044], [73.7229, 31.5572], [73.72335, 31.558376], [73.724742, 31.562015], [73.72515, 31.563082], [73.726106, 31.563992], [73.727053, 31.564895], [73.7277, 31.565511], [73.728414, 31.565941], [73.733281, 31.568873], [73.734297, 31.569484], [73.735374, 31.570128], [73.738609, 31.572066], [73.740849, 31.573417], [73.741847, 31.57405], [73.746318, 31.576901], [73.747162, 31.577442], [73.7483, 31.578171], [73.74921, 31.578907], [73.750557, 31.580036], [73.752336, 31.581528], [73.753414, 31.58226], [73.755562, 31.583717], [73.756699, 31.584488], [73.75795, 31.585006], [73.759935, 31.585804], [73.760418, 31.585998], [73.761322, 31.58636], [73.764912, 31.587796], [73.767509, 31.588336], [73.768688, 31.588582], [73.769531, 31.58864], [73.771549, 31.588776], [73.772783, 31.588858], [73.774036, 31.588694], [73.778253, 31.588131], [73.779688, 31.587939], [73.781106, 31.587401], [73.783127, 31.586634], [73.785489, 31.585738], [73.786094, 31.585508], [73.787993, 31.584703], [73.790274, 31.583736], [73.793763, 31.582208], [73.79688, 31.580843], [73.798049, 31.580331], [73.799217, 31.57982], [73.800433, 31.579339], [73.801649, 31.578858], [73.805701, 31.577256], [73.811887, 31.574809], [73.814223, 31.573885], [73.815662, 31.57332], [73.816856, 31.572848], [73.818492, 31.572321], [73.820087, 31.571809], [73.820884, 31.571553], [73.827671, 31.569372], [73.829055, 31.568939], [73.83108, 31.568719], [73.831858, 31.568646], [73.832743, 31.568566], [73.833247, 31.568567], [73.834242, 31.568569], [73.837678, 31.568577], [73.838181, 31.568578], [73.83889, 31.568578], [73.839888, 31.568799], [73.843598, 31.569622], [73.845426, 31.57003], [73.851083, 31.571295], [73.852144, 31.571532], [73.853223, 31.571774], [73.853958, 31.571902], [73.855389, 31.572153], [73.861831, 31.57328], [73.865899, 31.573996], [73.86648, 31.574096], [73.867062, 31.574196], [73.867649, 31.574209], [73.868278, 31.574223], [73.871858, 31.574302], [73.872693, 31.574294], [73.878006, 31.574244], [73.878455, 31.57424], [73.879341, 31.574232], [73.880603, 31.574066], [73.881863, 31.573901], [73.883123, 31.573736], [73.885222, 31.573461], [73.887025, 31.572928], [73.888767, 31.572424], [73.89047, 31.572645], [73.893893, 31.573089], [73.894733, 31.573205], [73.895632, 31.57343], [73.900255, 31.574604], [73.901746, 31.574982], [73.902576, 31.575268], [73.90393, 31.575739], [73.905335, 31.576911], [73.905972, 31.577442], [73.906334, 31.57837], [73.907453, 31.581242], [73.907936, 31.583087], [73.908072, 31.583618], [73.908031, 31.584227], [73.908349, 31.584949], [73.908436, 31.585367], [73.908756, 31.5869], [73.909045, 31.587579], [73.909305, 31.588109], [73.909895, 31.589307], [73.910435, 31.590342], [73.910915, 31.590976], [73.911486, 31.591729], [73.912155, 31.592608], [73.913339, 31.594168], [73.913975, 31.594993], [73.914606, 31.595516], [73.915612, 31.596348], [73.917292, 31.597738], [73.918368, 31.598632], [73.919868, 31.598721], [73.921762, 31.598833], [73.92618, 31.598506], [73.92762, 31.598402], [73.928388, 31.597416], [73.929515, 31.595972], [73.930111, 31.595157], [73.930164, 31.593808], [73.930253, 31.591728], [73.93024, 31.590765], [73.930226, 31.588091], [73.930054, 31.587267], [73.92924, 31.583749], [73.928932, 31.582405], [73.929241, 31.581281], [73.930029, 31.578425], [73.930229, 31.5777], [73.931791, 31.575575], [73.933372, 31.574887], [73.934297, 31.574776], [73.937191, 31.574575], [73.937989, 31.574478], [73.941908, 31.574001], [73.943287, 31.573243], [73.944296, 31.570544], [73.94496, 31.568552], [73.946604, 31.56326], [73.946978, 31.56205], [73.947438, 31.561145], [73.947989, 31.56006], [73.948898, 31.558272], [73.949111, 31.557853], [73.949377, 31.557485], [73.950397, 31.556071], [73.951098, 31.555101], [73.952245, 31.554409], [73.952619, 31.554183], [73.953768, 31.553491], [73.954817, 31.553403], [73.956413, 31.553273], [73.95814, 31.553347], [73.959982, 31.553438], [73.96116, 31.553494], [73.962665, 31.554048], [73.966568, 31.555478], [73.969822, 31.55661], [73.973889, 31.558025], [73.975921, 31.558734], [73.976744, 31.558936], [73.977977, 31.559241], [73.97921, 31.559546], [73.980032, 31.55975], [73.980767, 31.55989], [73.98573, 31.560825], [73.987047, 31.561074], [73.988327, 31.561027], [73.993877, 31.560826], [73.995484, 31.560766], [73.993346, 31.558171], [73.993062, 31.557827], [73.992816, 31.557419], [73.991724, 31.555604], [73.991388, 31.555048], [73.991324, 31.554306], [73.991217, 31.553086], [73.991004, 31.550649], [73.990577, 31.54765], [73.990389, 31.546405], [73.990262, 31.545561], [73.990179, 31.543783], [73.990146, 31.543061], [73.990068, 31.541389], [73.990184, 31.54063], [73.990261, 31.539091], [73.990393, 31.536328], [73.990474, 31.534627], [73.990153, 31.532474], [73.990002, 31.531888], [73.989411, 31.52963], [73.989057, 31.528495], [73.988815, 31.527899], [73.987369, 31.524686], [73.986799, 31.523421], [73.985347, 31.522281], [73.984369, 31.521578], [73.982338, 31.520544], [73.981211, 31.519972], [73.979615, 31.51967], [73.978089, 31.519381], [73.977341, 31.519184], [73.975981, 31.518823], [73.972378, 31.517864], [73.971553, 31.517644], [73.970595, 31.517351], [73.969479, 31.516501], [73.967063, 31.514657], [73.965802, 31.513694], [73.964768, 31.512421], [73.964121, 31.511616], [73.962708, 31.510417], [73.96099, 31.508958], [73.95682, 31.508079], [73.954741, 31.507638], [73.953311, 31.506694], [73.952729, 31.506311], [73.951959, 31.505257], [73.951525, 31.504664], [73.950676, 31.503487], [73.950227, 31.502876], [73.949317, 31.501638], [73.947052, 31.498592], [73.946754, 31.498172], [73.945225, 31.495993], [73.94468, 31.49529], [73.942838, 31.492915], [73.942472, 31.492441], [73.942081, 31.491697], [73.941568, 31.490721], [73.94136, 31.489752], [73.941722, 31.488476], [73.941919, 31.487782], [73.942239, 31.48722], [73.94297, 31.485939], [73.943957, 31.482535], [73.943846, 31.480088], [73.943659, 31.479399], [73.942862, 31.476462], [73.942907, 31.475698], [73.942952, 31.474928], [73.943264, 31.474245], [73.943591, 31.473529], [73.944057, 31.472594], [73.944553, 31.472122], [73.945117, 31.471581], [73.947663, 31.469141], [73.948335, 31.468498], [73.948926, 31.468018], [73.949317, 31.467727], [73.949925, 31.467275], [73.950277, 31.467012], [73.950868, 31.466572], [73.953798, 31.466611], [73.955423, 31.468299], [73.955805, 31.468631], [73.956439, 31.469162], [73.958043, 31.470504], [73.959818, 31.470842], [73.960254, 31.470924], [73.960692, 31.471006], [73.961347, 31.471108], [73.966189, 31.471504], [73.96665, 31.471535], [73.973397, 31.472159], [73.974346, 31.472248], [73.975168, 31.47225], [73.978685, 31.472265], [73.97995, 31.472271], [73.981132, 31.471995], [73.983685, 31.471386], [73.984528, 31.471113], [73.9859, 31.470671], [73.986758, 31.470042], [73.989215, 31.468244], [73.990198, 31.467524], [73.990501, 31.467179], [73.992421, 31.464377], [73.99333, 31.463035], [73.99417, 31.461385], [73.994944, 31.459851], [73.996106, 31.457548], [73.997635, 31.453851], [73.99823, 31.452409], [73.999683, 31.451615], [74.000132, 31.451369], [74.001261, 31.451263], [74.002562, 31.451142], [74.00386, 31.451059], [74.007661, 31.450526], [74.009894, 31.4503], [74.01078, 31.450211], [74.011525, 31.450267], [74.012134, 31.450331], [74.013754, 31.451093], [74.014958, 31.452041], [74.016425, 31.453134], [74.0186, 31.453843], [74.019471, 31.453814], [74.020689, 31.453773], [74.021113, 31.453759], [74.02201, 31.453729], [74.022309, 31.45339], [74.023437, 31.452063], [74.023761, 31.451268], [74.024891, 31.448504], [74.026383, 31.445564], [74.02678, 31.444787], [74.028381, 31.441652], [74.028816, 31.440811], [74.029034, 31.440381], [74.030442, 31.437987], [74.030862, 31.437274], [74.031099, 31.436545], [74.031817, 31.434374], [74.032059, 31.433647], [74.032044, 31.432774], [74.031992, 31.429095], [74.031939, 31.427914], [74.031541, 31.425594], [74.031358, 31.424539], [74.030992, 31.423767], [74.03064, 31.423026], [74.029932, 31.421531], [74.028191, 31.4202], [74.026093, 31.418596], [74.024327, 31.417219], [74.02382, 31.416505], [74.022268, 31.414302], [74.021782, 31.413613], [74.021361, 31.412211], [74.021772, 31.410272], [74.022144, 31.409639], [74.022865, 31.408413], [74.023189, 31.407865], [74.023808, 31.407353], [74.024283, 31.407031], [74.02501, 31.406539], [74.025801, 31.406301], [74.026215, 31.406176], [74.0271, 31.405909], [74.027718, 31.405916], [74.029406, 31.405935], [74.032223, 31.405712], [74.034458, 31.404757], [74.035321, 31.404369], [74.035769, 31.403952], [74.036179, 31.403571], [74.037297, 31.402361], [74.038113, 31.401481], [74.038018, 31.401211], [74.037935, 31.401224], [74.037851, 31.401246], [74.03777, 31.401276], [74.037692, 31.401314], [74.035203, 31.402672], [74.032742, 31.402672], [74.032654, 31.402676], [74.032567, 31.402689], [74.032482, 31.402711], [74.0324, 31.402741], [74.032321, 31.402779], [74.03024, 31.403915], [74.022649, 31.395628], [74.02258, 31.395561], [74.022504, 31.395501], [74.022421, 31.395451], [74.019736, 31.393985], [74.019661, 31.393948]], [[73.93322, 31.455724], [73.934315, 31.456652], [73.933572, 31.459388], [73.933331, 31.459204], [73.93322, 31.455724]], [[73.775516, 31.5085], [73.774427, 31.507999], [73.775764, 31.508457], [73.775516, 31.5085]], [[73.715348, 31.508744], [73.712307, 31.509824], [73.713372, 31.508735], [73.715348, 31.508744]], [[73.709678, 31.515059], [73.708117, 31.52255], [73.707796, 31.52179], [73.709678, 31.515059]]]}}, {"type": "Feature", "properties": {"na": "NA-112", "src": "sheet-split: nankana_na111_112.jpg, outline-fit", "approx": false, "rms_km": 1.965}, "geometry": {"type": "Polygon", "coordinates": [[[74.037541, 31.399861], [74.037089, 31.399221], [74.035934, 31.397583], [74.035608, 31.397212], [74.03289, 31.394279], [74.03167, 31.392508], [74.031513, 31.391974], [74.0308, 31.390776], [74.030758, 31.389127], [74.031182, 31.388032], [74.031316, 31.387238], [74.031527, 31.385992], [74.031652, 31.38526], [74.03141, 31.383459], [74.029385, 31.38223], [74.028107, 31.381726], [74.025252, 31.380602], [74.024868, 31.380246], [74.02391, 31.379356], [74.023591, 31.37906], [74.023255, 31.378748], [74.021297, 31.376637], [74.020501, 31.375728], [74.019878, 31.374575], [74.018649, 31.372305], [74.018265, 31.371751], [74.01716, 31.370101], [74.015638, 31.369562], [74.014494, 31.369158], [74.013731, 31.368888], [74.012362, 31.368417], [74.008497, 31.367441], [74.007984, 31.367312], [74.007558, 31.367121], [74.006288, 31.366549], [74.004959, 31.365952], [74.004103, 31.364387], [74.003435, 31.363168], [74.003488, 31.361742], [74.00351, 31.361202], [74.003526, 31.360644], [74.003635, 31.36022], [74.004061, 31.358647], [74.004303, 31.357757], [74.005001, 31.356695], [74.009342, 31.350351], [74.010082, 31.349271], [74.011001, 31.347931], [74.011932, 31.345956], [74.012586, 31.344569], [74.013862, 31.342194], [74.014523, 31.340975], [74.015302, 31.339745], [74.018162, 31.335298], [74.018885, 31.334174], [74.019936, 31.332568], [74.021139, 31.331101], [74.022254, 31.329742], [74.028666, 31.321921], [74.028945, 31.321583], [74.029343, 31.321099], [74.029611, 31.320757], [74.032707, 31.316832], [74.033903, 31.315318], [74.034258, 31.313619], [74.034661, 31.31171], [74.030483, 31.312121], [74.026834, 31.312412], [74.026199, 31.31245], [74.022145, 31.312396], [74.021307, 31.312387], [74.020397, 31.312102], [74.018588, 31.311541], [74.017338, 31.31015], [74.016769, 31.308829], [74.016307, 31.30765], [74.013867, 31.305492], [74.013335, 31.305368], [74.012754, 31.305231], [74.010378, 31.304673], [74.009328, 31.304428], [74.00682, 31.304991], [74.005637, 31.305563], [74.003108, 31.306787], [74.002342, 31.306976], [74.001058, 31.307236], [73.996415, 31.308174], [73.995073, 31.308445], [73.994069, 31.308346], [73.990977, 31.308043], [73.98952, 31.3079], [73.988617, 31.306999], [73.98616, 31.304557], [73.985347, 31.303996], [73.980416, 31.300601], [73.978544, 31.299316], [73.978148, 31.299039], [73.977715, 31.29877], [73.976973, 31.298313], [73.972524, 31.295577], [73.971414, 31.294892], [73.970156, 31.29448], [73.968906, 31.294067], [73.968068, 31.29379], [73.967213, 31.293652], [73.965499, 31.293374], [73.964858, 31.293269], [73.963957, 31.29323], [73.960472, 31.293079], [73.959356, 31.293031], [73.958254, 31.293094], [73.952903, 31.293394], [73.952379, 31.293422], [73.951559, 31.293389], [73.945919, 31.293155], [73.943731, 31.293064], [73.942718, 31.293023], [73.941649, 31.29276], [73.937894, 31.29184], [73.936663, 31.291535], [73.935598, 31.290734], [73.93525, 31.290472], [73.934901, 31.29021], [73.934176, 31.28966], [73.93376, 31.289152], [73.933357, 31.288656], [73.930204, 31.284791], [73.929611, 31.28439], [73.927741, 31.283273], [73.926311, 31.282886], [73.925737, 31.282731], [73.924434, 31.281152], [73.924437, 31.280109], [73.924439, 31.279077], [73.923621, 31.277398], [73.922851, 31.277015], [73.921941, 31.276563], [73.921531, 31.276359], [73.920999, 31.276224], [73.919557, 31.275859], [73.918734, 31.27565], [73.918313, 31.275544], [73.917121, 31.275242], [73.915093, 31.274861], [73.910914, 31.274075], [73.908571, 31.273331], [73.9076, 31.273023], [73.906129, 31.271692], [73.905929, 31.271048], [73.905523, 31.269675], [73.905857, 31.268633], [73.906321, 31.267194], [73.906604, 31.266317], [73.906934, 31.265879], [73.907523, 31.265285], [73.909838, 31.262949], [73.910598, 31.262182], [73.912324, 31.261125], [73.912711, 31.260888], [73.913707, 31.260279], [73.914071, 31.260036], [73.916557, 31.258393], [73.91797, 31.257461], [73.918679, 31.25518], [73.918623, 31.254412], [73.918571, 31.253689], [73.918294, 31.253282], [73.917459, 31.25208], [73.917096, 31.25185], [73.916466, 31.251349], [73.915513, 31.250592], [73.91478, 31.250009], [73.913806, 31.249515], [73.911793, 31.248492], [73.911007, 31.248093], [73.909861, 31.247511], [73.909099, 31.246427], [73.908852, 31.246076], [73.908605, 31.245725], [73.907847, 31.244646], [73.907555, 31.243389], [73.90736, 31.241558], [73.907112, 31.239214], [73.906453, 31.237079], [73.905725, 31.236308], [73.905023, 31.235561], [73.904756, 31.235096], [73.904412, 31.234505], [73.903386, 31.233783], [73.902797, 31.23333], [73.898776, 31.230607], [73.898353, 31.230333], [73.897791, 31.230008], [73.897074, 31.229563], [73.896467, 31.22929], [73.894907, 31.228428], [73.894372, 31.228131], [73.893951, 31.22798], [73.891937, 31.227254], [73.891341, 31.226986], [73.890768, 31.226786], [73.889541, 31.226391], [73.887388, 31.226888], [73.886084, 31.227842], [73.884088, 31.229303], [73.881036, 31.229831], [73.880153, 31.229649], [73.875809, 31.228753], [73.871429, 31.227878], [73.870112, 31.227613], [73.867936, 31.226967], [73.865885, 31.226345], [73.865072, 31.22607], [73.864546, 31.225923], [73.863501, 31.225631], [73.861788, 31.225151], [73.859446, 31.224028], [73.855541, 31.222159], [73.854961, 31.221882], [73.854318, 31.221552], [73.851328, 31.221022], [73.849296, 31.221486], [73.848506, 31.221673], [73.846919, 31.222486], [73.846158, 31.222876], [73.84427, 31.223845], [73.841815, 31.223756], [73.840729, 31.223308], [73.83999, 31.223004], [73.839538, 31.222817], [73.838378, 31.222286], [73.837976, 31.222101], [73.837529, 31.221897], [73.836462, 31.221099], [73.834311, 31.219491], [73.833603, 31.219018], [73.831508, 31.217617], [73.831073, 31.217327], [73.830208, 31.216749], [73.82923, 31.216456], [73.828015, 31.216155], [73.827218, 31.215958], [73.825794, 31.216006], [73.825253, 31.216207], [73.823963, 31.216851], [73.823153, 31.218047], [73.822475, 31.219049], [73.8219, 31.219898], [73.819537, 31.221951], [73.818882, 31.222348], [73.818516, 31.222569], [73.816245, 31.223944], [73.815521, 31.224382], [73.813848, 31.225105], [73.812471, 31.225646], [73.812002, 31.225565], [73.81144, 31.225468], [73.810132, 31.224098], [73.809998, 31.222643], [73.809285, 31.221218], [73.808402, 31.21964], [73.807799, 31.219183], [73.807317, 31.218817], [73.805776, 31.217646], [73.805178, 31.217192], [73.804513, 31.216846], [73.802709, 31.215914], [73.801081, 31.215083], [73.800444, 31.214754], [73.79963, 31.214449], [73.797021, 31.213474], [73.795962, 31.213079], [73.795111, 31.212927], [73.794686, 31.212852], [73.794234, 31.212772], [73.792978, 31.212549], [73.792019, 31.212537], [73.791484, 31.21253], [73.790919, 31.212523], [73.790127, 31.212518], [73.789665, 31.21253], [73.7879, 31.212534], [73.786137, 31.212642], [73.784897, 31.212715], [73.78371, 31.212286], [73.781773, 31.211586], [73.780569, 31.211149], [73.778731, 31.209884], [73.776195, 31.208123], [73.775654, 31.207752], [73.774706, 31.207244], [73.771544, 31.205597], [73.770349, 31.204975], [73.767718, 31.204554], [73.766812, 31.20441], [73.765507, 31.204553], [73.764251, 31.20469], [73.761975, 31.204478], [73.759231, 31.203862], [73.757765, 31.203209], [73.757137, 31.202929], [73.756508, 31.202624], [73.754794, 31.201769], [73.751986, 31.200444], [73.751558, 31.200244], [73.750368, 31.199707], [73.746876, 31.198129], [73.744299, 31.196654], [73.74323, 31.196043], [73.742584, 31.19566], [73.742332, 31.194877], [73.74189, 31.193495], [73.741805, 31.192862], [73.741492, 31.189273], [73.741433, 31.188746], [73.741164, 31.187838], [73.741016, 31.187359], [73.740502, 31.185774], [73.739845, 31.18464], [73.73925, 31.183543], [73.738636, 31.18241], [73.738009, 31.180021], [73.737843, 31.17843], [73.737925, 31.177787], [73.738021, 31.177039], [73.73786, 31.176515], [73.737411, 31.175052], [73.736358, 31.1739], [73.735872, 31.173368], [73.735173, 31.172855], [73.733219, 31.17149], [73.732348, 31.170882], [73.731977, 31.170625], [73.731385, 31.170294], [73.72438, 31.166447], [73.723948, 31.166247], [73.723229, 31.165855], [73.722797, 31.165636], [73.722055, 31.165366], [73.720995, 31.164873], [73.720325, 31.16465], [73.718707, 31.164152], [73.717249, 31.164392], [73.716352, 31.164539], [73.715256, 31.164962], [73.714461, 31.16527], [73.713541, 31.16623], [73.711167, 31.16871], [73.707891, 31.172385], [73.707038, 31.173326], [73.704155, 31.174335], [73.70228, 31.173577], [73.701743, 31.173108], [73.699003, 31.170715], [73.698068, 31.169901], [73.697315, 31.168058], [73.696856, 31.166938], [73.695252, 31.163019], [73.694114, 31.16161], [73.693836, 31.16127], [73.69174, 31.158731], [73.691159, 31.158031], [73.690443, 31.157252], [73.686348, 31.152877], [73.685762, 31.152252], [73.685251, 31.151776], [73.684637, 31.151205], [73.68341, 31.150062], [73.68229, 31.149342], [73.68023, 31.148018], [73.679234, 31.147378], [73.678477, 31.14703], [73.675872, 31.145818], [73.675155, 31.145454], [73.673873, 31.144873], [73.672652, 31.144322], [73.671221, 31.144413], [73.669887, 31.144498], [73.66871, 31.145069], [73.667968, 31.14543], [73.666941, 31.145954], [73.666497, 31.146186], [73.663906, 31.147985], [73.662349, 31.149064], [73.661099, 31.148255], [73.660538, 31.147018], [73.659128, 31.14391], [73.657612, 31.142242], [73.657002, 31.141628], [73.653935, 31.138573], [73.650297, 31.139236], [73.649384, 31.1394], [73.64866, 31.139443], [73.644698, 31.139674], [73.643392, 31.139751], [73.642176, 31.139364], [73.638952, 31.138337], [73.637732, 31.137949], [73.63662, 31.137193], [73.63327, 31.134922], [73.63072, 31.133872], [73.6292, 31.133305], [73.627938, 31.132909], [73.626581, 31.132542], [73.625895, 31.132256], [73.623056, 31.13108], [73.622528, 31.130861], [73.621801, 31.130343], [73.620769, 31.129597], [73.619931, 31.128992], [73.619094, 31.127766], [73.618629, 31.127016], [73.616869, 31.124174], [73.61645, 31.123497], [73.616118, 31.122685], [73.615734, 31.121743], [73.615456, 31.121062], [73.615306, 31.120567], [73.614862, 31.119095], [73.614428, 31.117359], [73.614371, 31.115893], [73.614204, 31.11098], [73.614154, 31.109494], [73.614125, 31.108636], [73.61411, 31.108198], [73.614137, 31.107682], [73.614028, 31.106977], [73.61393, 31.106342], [73.613737, 31.104352], [73.613645, 31.103413], [73.613342, 31.102385], [73.612772, 31.100518], [73.61251, 31.099662], [73.611199, 31.097689], [73.610297, 31.097002], [73.608401, 31.095563], [73.606391, 31.094343], [73.604387, 31.093126], [73.603899, 31.092829], [73.603227, 31.092586], [73.601519, 31.091975], [73.600434, 31.091572], [73.599212, 31.091701], [73.597817, 31.091931], [73.59524, 31.092736], [73.594269, 31.093039], [73.593196, 31.093816], [73.59153, 31.095021], [73.589379, 31.097781], [73.587188, 31.100557], [73.586839, 31.101001], [73.585099, 31.102232], [73.583242, 31.102501], [73.582151, 31.102305], [73.581646, 31.102199], [73.580074, 31.101678], [73.578218, 31.101062], [73.576234, 31.101084], [73.575524, 31.101091], [73.574519, 31.101295], [73.573726, 31.101475], [73.573251, 31.101589], [73.572173, 31.102157], [73.569838, 31.103385], [73.5692, 31.10372], [73.568282, 31.104081], [73.567594, 31.104353], [73.56383, 31.105833], [73.558064, 31.106707], [73.556749, 31.106905], [73.555374, 31.106755], [73.551496, 31.106333], [73.550179, 31.106192], [73.548595, 31.105599], [73.543728, 31.10378], [73.54154, 31.10303], [73.537386, 31.101613], [73.53614, 31.101188], [73.535721, 31.101032], [73.534463, 31.100563], [73.532787, 31.099938], [73.531777, 31.099561], [73.53057, 31.099111], [73.529955, 31.098817], [73.529167, 31.098441], [73.52838, 31.098065], [73.526806, 31.097313], [73.525623, 31.096748], [73.524134, 31.095885], [73.520041, 31.093502], [73.518554, 31.092635], [73.517317, 31.092181], [73.51464, 31.091195], [73.513454, 31.090759], [73.512124, 31.090538], [73.509537, 31.090116], [73.508031, 31.089873], [73.50592, 31.089898], [73.504364, 31.089916], [73.502969, 31.089933], [73.500885, 31.089315], [73.498889, 31.088731], [73.497238, 31.088863], [73.494762, 31.089156], [73.494626, 31.090613], [73.494578, 31.09111], [73.494155, 31.094711], [73.494094, 31.095224], [73.493789, 31.095534], [73.491746, 31.097612], [73.491082, 31.097766], [73.490091, 31.097988], [73.489597, 31.098099], [73.488916, 31.09779], [73.48469, 31.095872], [73.482791, 31.093077], [73.48246, 31.09259], [73.482144, 31.092292], [73.480549, 31.090787], [73.479738, 31.090022], [73.478493, 31.089608], [73.477265, 31.0892], [73.476316, 31.088886], [73.474889, 31.088763], [73.471097, 31.088513], [73.469498, 31.088409], [73.467789, 31.088342], [73.465991, 31.088272], [73.464799, 31.087841], [73.462037, 31.086846], [73.46122, 31.086473], [73.459576, 31.085727], [73.458675, 31.085276], [73.457906, 31.084593], [73.457507, 31.08424], [73.456593, 31.083429], [73.455451, 31.081412], [73.455182, 31.07796], [73.455322, 31.076737], [73.455499, 31.075192], [73.455129, 31.073973], [73.454977, 31.073472], [73.453551, 31.071693], [73.452611, 31.07122], [73.451994, 31.07091], [73.451269, 31.070545], [73.450466, 31.070141], [73.449184, 31.069876], [73.448319, 31.069702], [73.447606, 31.069559], [73.446871, 31.069412], [73.445568, 31.069251], [73.44428, 31.069091], [73.443303, 31.06894], [73.442411, 31.068553], [73.439693, 31.067379], [73.438426, 31.066831], [73.437549, 31.065511], [73.437289, 31.065085], [73.4366, 31.063955], [73.436219, 31.063332], [73.435965, 31.06255], [73.434717, 31.058739], [73.434379, 31.057682], [73.43415, 31.056302], [73.433865, 31.054564], [73.433658, 31.053298], [73.433221, 31.050627], [73.43268, 31.047719], [73.432452, 31.046493], [73.431906, 31.045455], [73.431393, 31.044487], [73.430799, 31.04337], [73.429578, 31.04262], [73.428286, 31.041828], [73.427519, 31.04136], [73.426244, 31.040977], [73.425407, 31.04073], [73.421194, 31.039488], [73.419276, 31.038045], [73.418654, 31.037575], [73.417969, 31.036871], [73.417121, 31.036001], [73.415233, 31.034994], [73.414481, 31.034593], [73.413321, 31.033978], [73.412487, 31.033698], [73.410089, 31.032899], [73.408463, 31.032358], [73.405053, 31.0319], [73.402939, 31.031621], [73.402402, 31.031349], [73.401602, 31.030947], [73.399015, 31.029646], [73.398419, 31.029346], [73.397983, 31.029125], [73.396915, 31.028224], [73.392486, 31.024433], [73.392013, 31.024028], [73.391213, 31.023344], [73.39002, 31.022447], [73.389861, 31.023411], [73.389807, 31.02398], [73.38974, 31.024673], [73.389676, 31.025351], [73.389669, 31.026845], [73.389654, 31.030701], [73.389649, 31.031591], [73.389805, 31.032695], [73.390519, 31.037741], [73.390915, 31.039968], [73.391116, 31.041098], [73.391386, 31.042568], [73.393741, 31.048543], [73.394317, 31.049721], [73.395137, 31.05232], [73.394704, 31.053845], [73.394461, 31.054701], [73.393707, 31.055808], [73.392929, 31.056951], [73.39247, 31.057754], [73.391356, 31.059707], [73.390467, 31.061261], [73.390847, 31.0628], [73.391297, 31.064626], [73.39151, 31.065171], [73.393027, 31.06831], [73.393509, 31.069312], [73.394326, 31.070057], [73.39793, 31.073342], [73.398719, 31.073981], [73.400899, 31.075739], [73.40145, 31.076183], [73.402134, 31.07801], [73.401639, 31.079794], [73.401165, 31.080713], [73.40091, 31.081208], [73.399802, 31.082629], [73.398993, 31.083672], [73.398631, 31.084354], [73.398149, 31.085259], [73.398195, 31.085838], [73.398336, 31.087313], [73.398671, 31.088792], [73.39879, 31.089317], [73.40023, 31.091481], [73.401279, 31.092147], [73.405027, 31.094521], [73.405589, 31.094838], [73.409537, 31.096937], [73.410722, 31.097567], [73.411974, 31.098082], [73.412802, 31.098422], [73.41786, 31.100502], [73.418617, 31.100841], [73.419599, 31.101287], [73.420329, 31.101777], [73.42069, 31.102019], [73.42105, 31.102261], [73.422571, 31.10334], [73.422802, 31.103705], [73.423383, 31.104624], [73.423772, 31.105238], [73.425024, 31.10695], [73.425828, 31.10805], [73.427397, 31.11016], [73.428297, 31.111284], [73.429451, 31.112033], [73.43112, 31.112273], [73.43362, 31.112633], [73.434448, 31.112818], [73.436886, 31.113364], [73.438105, 31.113638], [73.439283, 31.114513], [73.440757, 31.115619], [73.441128, 31.116701], [73.442026, 31.119322], [73.442182, 31.119769], [73.442223, 31.120374], [73.442521, 31.124822], [73.441771, 31.126986], [73.441348, 31.128191], [73.43927, 31.130549], [73.435984, 31.131533], [73.434691, 31.13192], [73.433302, 31.133261], [73.432807, 31.134744], [73.433164, 31.135962], [73.434138, 31.139289], [73.434271, 31.139738], [73.434661, 31.140497], [73.435235, 31.141617], [73.436244, 31.143582], [73.43917, 31.149271], [73.441579, 31.153525], [73.441798, 31.153911], [73.443559, 31.156937], [73.444222, 31.158069], [73.444962, 31.159333], [73.445776, 31.160559], [73.447251, 31.16275], [73.448228, 31.1642], [73.448821, 31.165081], [73.449331, 31.165719], [73.450936, 31.167727], [73.451729, 31.16872], [73.452697, 31.169518], [73.455595, 31.171911], [73.456007, 31.172248], [73.456409, 31.172558], [73.457178, 31.173133], [73.458169, 31.173878], [73.459159, 31.174623], [73.460157, 31.175373], [73.461584, 31.176286], [73.463371, 31.177429], [73.466515, 31.179789], [73.46794, 31.180858], [73.46843, 31.181215], [73.468845, 31.1815], [73.469479, 31.181933], [73.470184, 31.182413], [73.471506, 31.183205], [73.473058, 31.183342], [73.47461, 31.183479], [73.477593, 31.183261], [73.479102, 31.183151], [73.481811, 31.182783], [73.482486, 31.182759], [73.483786, 31.182766], [73.484232, 31.182768], [73.486039, 31.182961], [73.487585, 31.183668], [73.488238, 31.183985], [73.490424, 31.185318], [73.491561, 31.186009], [73.494372, 31.18932], [73.495198, 31.190658], [73.495953, 31.191882], [73.497768, 31.192677], [73.498351, 31.192547], [73.499247, 31.191024], [73.500107, 31.189562], [73.50196, 31.188642], [73.504678, 31.188373], [73.505856, 31.188407], [73.506288, 31.18842], [73.508183, 31.188396], [73.509665, 31.188024], [73.510265, 31.187006], [73.510648, 31.186358], [73.512567, 31.185332], [73.514349, 31.185215], [73.515701, 31.185202], [73.518671, 31.185202], [73.5195, 31.185202], [73.520298, 31.185377], [73.522228, 31.185802], [73.522893, 31.185976], [73.524238, 31.186494], [73.525046, 31.186807], [73.526535, 31.188036], [73.527166, 31.189034], [73.527906, 31.190423], [73.528157, 31.190896], [73.528444, 31.191442], [73.529057, 31.192605], [73.530032, 31.194922], [73.530271, 31.195491], [73.53051, 31.19606], [73.531264, 31.196724], [73.53189, 31.197292], [73.53373, 31.198081], [73.534206, 31.198151], [73.534702, 31.198224], [73.537528, 31.198703], [73.538915, 31.198949], [73.539824, 31.199261], [73.540289, 31.19944], [73.542791, 31.200433], [73.543676, 31.200782], [73.544525, 31.201291], [73.547054, 31.202802], [73.547926, 31.20332], [73.548612, 31.203865], [73.548974, 31.204151], [73.554799, 31.208755], [73.55583, 31.20957], [73.556667, 31.210607], [73.557615, 31.211782], [73.55841, 31.212768], [73.558904, 31.213775], [73.559104, 31.214185], [73.559999, 31.216011], [73.560948, 31.217793], [73.561395, 31.218631], [73.561878, 31.219539], [73.562269, 31.220168], [73.562619, 31.220732], [73.563841, 31.222698], [73.565361, 31.224026], [73.566043, 31.224635], [73.56741, 31.227172], [73.567896, 31.228752], [73.568313, 31.230089], [73.569, 31.232031], [73.569767, 31.234216], [73.570212, 31.235679], [73.570573, 31.235923], [73.570969, 31.236192], [73.572453, 31.235967], [73.573307, 31.235849], [73.574082, 31.235723], [73.575623, 31.235446], [73.576491, 31.235289], [73.577779, 31.235048], [73.578943, 31.234829], [73.581031, 31.234438], [73.582219, 31.234258], [73.583329, 31.234089], [73.583872, 31.234186], [73.585023, 31.234392], [73.587035, 31.236021], [73.587834, 31.237708], [73.587951, 31.239209], [73.587383, 31.240274], [73.586907, 31.241168], [73.586102, 31.242756], [73.585441, 31.244069], [73.585465, 31.244882], [73.585529, 31.246969], [73.587164, 31.248324], [73.588618, 31.248612], [73.589438, 31.248776], [73.589908, 31.248771], [73.592092, 31.248748], [73.592871, 31.24874], [73.594025, 31.249658], [73.594373, 31.249934], [73.594984, 31.250821], [73.595463, 31.251512], [73.59597, 31.25233], [73.598044, 31.253756], [73.6013, 31.25336], [73.601715, 31.253266], [73.602902, 31.252997], [73.604093, 31.252728], [73.605579, 31.252883], [73.607281, 31.253116], [73.608304, 31.253927], [73.609867, 31.255169], [73.61034, 31.255572], [73.613527, 31.258801], [73.615348, 31.260639], [73.616509, 31.261943], [73.61687, 31.262348], [73.617275, 31.262772], [73.618521, 31.263888], [73.619974, 31.26449], [73.62112, 31.264862], [73.623001, 31.265449], [73.625043, 31.266766], [73.625415, 31.267006], [73.626177, 31.267499], [73.627287, 31.268284], [73.632408, 31.271908], [73.633281, 31.272527], [73.633828, 31.272916], [73.635963, 31.27445], [73.639166, 31.276749], [73.640375, 31.277618], [73.6421, 31.278838], [73.643396, 31.279828], [73.645465, 31.281369], [73.645878, 31.281848], [73.648282, 31.284946], [73.648622, 31.285381], [73.648937, 31.285965], [73.649441, 31.286898], [73.649714, 31.287404], [73.649879, 31.288075], [73.650001, 31.288579], [73.650184, 31.289358], [73.650347, 31.290253], [73.651056, 31.294218], [73.651177, 31.294899], [73.651504, 31.295879], [73.652358, 31.298451], [73.652662, 31.299363], [73.653961, 31.300989], [73.654737, 31.301701], [73.655912, 31.302779], [73.656739, 31.304022], [73.657401, 31.305019], [73.657633, 31.305605], [73.658778, 31.308498], [73.658994, 31.309044], [73.659443, 31.310348], [73.660837, 31.314388], [73.66127, 31.315648], [73.661766, 31.316959], [73.661987, 31.317544], [73.662943, 31.320075], [73.663421, 31.32134], [73.663945, 31.322422], [73.664208, 31.322964], [73.66515, 31.324852], [73.665647, 31.325532], [73.666036, 31.326065], [73.666792, 31.3271], [73.669142, 31.329621], [73.670884, 31.331244], [73.671663, 31.331969], [73.672176, 31.333621], [73.671597, 31.335565], [73.670612, 31.337019], [73.670132, 31.337495], [73.667697, 31.339909], [73.666612, 31.341297], [73.666068, 31.341993], [73.665796, 31.342341], [73.665251, 31.343039], [73.664805, 31.343774], [73.663195, 31.346428], [73.662593, 31.34742], [73.662205, 31.348603], [73.661884, 31.349584], [73.66156, 31.35057], [73.661455, 31.351368], [73.661349, 31.352172], [73.661246, 31.352957], [73.66114, 31.353758], [73.661176, 31.354462], [73.661208, 31.355082], [73.661339, 31.35766], [73.661383, 31.358297], [73.661454, 31.359327], [73.661559, 31.360792], [73.661675, 31.361457], [73.6619, 31.362333], [73.662134, 31.363216], [73.662387, 31.364087], [73.66268, 31.364699], [73.663291, 31.365978], [73.664425, 31.367459], [73.664704, 31.367823], [73.665099, 31.368314], [73.665742, 31.369031], [73.666234, 31.369579], [73.667402, 31.370881], [73.667768, 31.371117], [73.66922, 31.372055], [73.670211, 31.372702], [73.670993, 31.373331], [73.672847, 31.374826], [73.674152, 31.375883], [73.675413, 31.378683], [73.675803, 31.37995], [73.676218, 31.381292], [73.677159, 31.3837], [73.678282, 31.384401], [73.679873, 31.385395], [73.680648, 31.38696], [73.680608, 31.388273], [73.680599, 31.38871], [73.680594, 31.38915], [73.680433, 31.390821], [73.680162, 31.392081], [73.679798, 31.393777], [73.679627, 31.394577], [73.679369, 31.395778], [73.678634, 31.397329], [73.678226, 31.39819], [73.677064, 31.400641], [73.676714, 31.40135], [73.676519, 31.401741], [73.673982, 31.406833], [73.673592, 31.407616], [73.672812, 31.409182], [73.672231, 31.410977], [73.671939, 31.411881], [73.671704, 31.412623], [73.6725, 31.416045], [73.675303, 31.418132], [73.676529, 31.419174], [73.676714, 31.42175], [73.676301, 31.422654], [73.675347, 31.424761], [73.675018, 31.425484], [73.674279, 31.426278], [73.671908, 31.428756], [73.671415, 31.429241], [73.670674, 31.429846], [73.669976, 31.430412], [73.66867, 31.431471], [73.667548, 31.432043], [73.667088, 31.432277], [73.665144, 31.433268], [73.664279, 31.43438], [73.663893, 31.434895], [73.66148, 31.438615], [73.661236, 31.439096], [73.660673, 31.440211], [73.660487, 31.441111], [73.660128, 31.442851], [73.659893, 31.443992], [73.66038, 31.445574], [73.66081, 31.446969], [73.661043, 31.448173], [73.661461, 31.450505], [73.66155, 31.450999], [73.661707, 31.451873], [73.660753, 31.453592], [73.659093, 31.455684], [73.658364, 31.456089], [73.657938, 31.456401], [73.656648, 31.45741], [73.656231, 31.457864], [73.655115, 31.458374], [73.653589, 31.459281], [73.652307, 31.459294], [73.650211, 31.459317], [73.64972, 31.459322], [73.648935, 31.459152], [73.648354, 31.459025], [73.646591, 31.458642], [73.64509, 31.457544], [73.643744, 31.456559], [73.642584, 31.455932], [73.639668, 31.454356], [73.638593, 31.453787], [73.636269, 31.453491], [73.635072, 31.454646], [73.634019, 31.45566], [73.632647, 31.455972], [73.631292, 31.456279], [73.629842, 31.455934], [73.629025, 31.455739], [73.627897, 31.455471], [73.627103, 31.455282], [73.626365, 31.454953], [73.622979, 31.453442], [73.61955, 31.451984], [73.618465, 31.451523], [73.61702, 31.450908], [73.615852, 31.450243], [73.613131, 31.448693], [73.61074, 31.447331], [73.609362, 31.446322], [73.608402, 31.44562], [73.60698, 31.444579], [73.605672, 31.444314], [73.60298, 31.443769], [73.601799, 31.44353], [73.600543, 31.443813], [73.598024, 31.44438], [73.597373, 31.444527], [73.596738, 31.444787], [73.594108, 31.445864], [73.590617, 31.447473], [73.58982, 31.447843], [73.58843, 31.44848], [73.587707, 31.448795], [73.586533, 31.449301], [73.582387, 31.45109], [73.581641, 31.451412], [73.580893, 31.451525], [73.579429, 31.451746], [73.578933, 31.451821], [73.577928, 31.451972], [73.57693, 31.451755], [73.575474, 31.451437], [73.574748, 31.451263], [73.574164, 31.450967], [73.571332, 31.449516], [73.570884, 31.449287], [73.570393, 31.448996], [73.567529, 31.447299], [73.567121, 31.447057], [73.56662, 31.44676], [73.566142, 31.446387], [73.565664, 31.446014], [73.563116, 31.444022], [73.561938, 31.443102], [73.559149, 31.44138], [73.557488, 31.440355], [73.556636, 31.439828], [73.555832, 31.439102], [73.555227, 31.438558], [73.554633, 31.437979], [73.554236, 31.437591], [73.552522, 31.435921], [73.552176, 31.435586], [73.551736, 31.435184], [73.55074, 31.434245], [73.549136, 31.433378], [73.54726, 31.432015], [73.546362, 31.431362], [73.544919, 31.430417], [73.544559, 31.43018], [73.5421, 31.428569], [73.540698, 31.42765], [73.539576, 31.427089], [73.537341, 31.425972], [73.535369, 31.424985], [73.534582, 31.424592], [73.533838, 31.424319], [73.533208, 31.424088], [73.532635, 31.423878], [73.531302, 31.42339], [73.530187, 31.423272], [73.527402, 31.422976], [73.526282, 31.422858], [73.525044, 31.423062], [73.522511, 31.42348], [73.521618, 31.423635], [73.520744, 31.423941], [73.517421, 31.425113], [73.516586, 31.425404], [73.516194, 31.425581], [73.515755, 31.425777], [73.512463, 31.427257], [73.510779, 31.428013], [73.509581, 31.428551], [73.508465, 31.429532], [73.507032, 31.43079], [73.506477, 31.432036], [73.506071, 31.432949], [73.504302, 31.435539], [73.503626, 31.43653], [73.502497, 31.438182], [73.501797, 31.439048], [73.500714, 31.440387], [73.497564, 31.444281], [73.497206, 31.444723], [73.493807, 31.448925], [73.493263, 31.449597], [73.492902, 31.450043], [73.491516, 31.451296], [73.490869, 31.451865], [73.488535, 31.453921], [73.487, 31.455249], [73.485251, 31.457169], [73.484638, 31.457842], [73.483962, 31.458584], [73.48288, 31.459772], [73.481471, 31.46071], [73.478528, 31.462674], [73.478164, 31.462917], [73.477739, 31.463154], [73.47714, 31.463488], [73.475907, 31.464175], [73.475174, 31.464584], [73.474441, 31.464992], [73.470916, 31.466595], [73.470528, 31.466772], [73.469611, 31.467189], [73.468774, 31.467729], [73.467032, 31.468854], [73.466011, 31.469514], [73.465011, 31.47016], [73.464474, 31.470824], [73.463371, 31.47219], [73.462552, 31.473385], [73.4618, 31.474482], [73.461892, 31.475808], [73.461964, 31.476843], [73.462025, 31.477324], [73.462579, 31.479144], [73.462782, 31.479808], [73.46386, 31.481228], [73.46482, 31.481706], [73.465392, 31.481991], [73.467785, 31.483294], [73.471569, 31.484928], [73.472753, 31.485439], [73.474727, 31.486291], [73.475279, 31.486557], [73.478297, 31.488011], [73.479529, 31.488605], [73.480164, 31.488911], [73.48095, 31.489289], [73.481679, 31.489829], [73.482393, 31.490357], [73.482735, 31.490609], [73.483099, 31.490878], [73.483422, 31.491261], [73.484415, 31.492419], [73.485006, 31.493107], [73.485175, 31.493551], [73.486129, 31.493551], [73.491252, 31.492153], [73.497757, 31.487892], [73.500368, 31.485041], [73.500427, 31.484983], [73.50049, 31.484931], [73.500559, 31.484885], [73.500631, 31.484845], [73.500707, 31.484813], [73.500785, 31.484787], [73.506156, 31.483321], [73.50623, 31.483304], [73.514287, 31.481839], [73.514365, 31.481828], [73.514444, 31.481824], [73.51713, 31.481824], [73.517217, 31.481829], [73.517304, 31.481842], [73.517389, 31.481864], [73.517472, 31.481894], [73.517551, 31.481932], [73.522725, 31.484756], [73.530478, 31.484756], [73.538456, 31.483304], [73.538534, 31.483294], [73.538613, 31.48329], [73.547858, 31.48329], [73.55174, 31.481878], [73.551809, 31.481856], [73.557025, 31.480432], [73.560923, 31.477596], [73.561, 31.477545], [73.561082, 31.477503], [73.561168, 31.47747], [73.561257, 31.477446], [73.561348, 31.477432], [73.56144, 31.477427], [73.565182, 31.477427], [73.568979, 31.474664], [73.569045, 31.47462], [73.569116, 31.474582], [73.569189, 31.474551], [73.569265, 31.474527], [73.574601, 31.47307], [73.578595, 31.471617], [73.578668, 31.471594], [73.578743, 31.471577], [73.578819, 31.471567], [73.578896, 31.471564], [73.581581, 31.471564], [73.581673, 31.471569], [73.581764, 31.471583], [73.581853, 31.471607], [73.581939, 31.47164], [73.582021, 31.471682], [73.582099, 31.471732], [73.585896, 31.474496], [73.588295, 31.474496], [73.588383, 31.4745], [73.588469, 31.474513], [73.588555, 31.474535], [73.588637, 31.474565], [73.588716, 31.474603], [73.591402, 31.476069], [73.59148, 31.476117], [73.591553, 31.476173], [73.591619, 31.476237], [73.591679, 31.476307], [73.591731, 31.476382], [73.594294, 31.480579], [73.596576, 31.481824], [73.601722, 31.481824], [73.601813, 31.481829], [73.601903, 31.481843], [73.601991, 31.481867], [73.602077, 31.481899], [73.602158, 31.48194], [73.602235, 31.481989], [73.602306, 31.482046], [73.602371, 31.48211], [73.604659, 31.484608], [73.608135, 31.483343], [73.608208, 31.48332], [73.608283, 31.483304], [73.608359, 31.483294], [73.608436, 31.48329], [73.621863, 31.48329], [73.621958, 31.483295], [73.622051, 31.483311], [73.635386, 31.486222], [73.644466, 31.486222], [73.646369, 31.485183], [73.645175, 31.479969], [73.645161, 31.479885], [73.645154, 31.479801], [73.645155, 31.479716], [73.645165, 31.479632], [73.645182, 31.479549], [73.645208, 31.479468], [73.645241, 31.47939], [73.645281, 31.479315], [73.645329, 31.479245], [73.645383, 31.47918], [73.645443, 31.47912], [73.645509, 31.479066], [73.645579, 31.479019], [73.645654, 31.478979], [73.645732, 31.478946], [73.653586, 31.476088], [73.656126, 31.473315], [73.656191, 31.473251], [73.656262, 31.473194], [73.656339, 31.473145], [73.65642, 31.473104], [73.656506, 31.473072], [73.656594, 31.473049], [73.656684, 31.473034], [73.656775, 31.47303], [73.65946, 31.47303], [73.659545, 31.473034], [73.659629, 31.473046], [73.659712, 31.473066], [73.659792, 31.473095], [73.659869, 31.47313], [73.659942, 31.473174], [73.666539, 31.477495], [73.671663, 31.478893], [73.675573, 31.478893], [73.675661, 31.478897], [73.675748, 31.47891], [73.675833, 31.478932], [73.675915, 31.478962], [73.675994, 31.479], [73.681365, 31.481932], [73.681444, 31.48198], [73.681516, 31.482036], [73.681583, 31.4821], [73.681643, 31.48217], [73.681695, 31.482246], [73.684368, 31.486623], [73.688383, 31.492466], [73.688429, 31.492542], [73.688467, 31.492621], [73.688498, 31.492704], [73.68852, 31.492789], [73.688533, 31.492876], [73.688537, 31.492964], [73.688537, 31.495554], [73.690992, 31.498234], [73.691042, 31.498294], [73.691087, 31.498358], [73.691125, 31.498426], [73.691158, 31.498497], [73.691184, 31.498571], [73.692441, 31.502687], [73.696101, 31.505351], [73.70128, 31.506764], [73.709142, 31.508194], [73.717041, 31.506757], [73.717119, 31.506746], [73.717198, 31.506743], [73.719883, 31.506743], [73.719974, 31.506748], [73.720064, 31.506762], [73.720153, 31.506785], [73.720238, 31.506817], [73.720319, 31.506858], [73.720396, 31.506908], [73.720467, 31.506964], [73.720532, 31.507028], [73.723072, 31.509801], [73.726597, 31.511084], [73.730325, 31.509727], [73.730414, 31.5097], [73.730505, 31.509683], [73.730598, 31.509675], [73.730691, 31.509677], [73.730783, 31.509689], [73.738439, 31.511082], [73.743447, 31.506982], [73.748775, 31.501165], [73.74884, 31.501101], [73.748911, 31.501044], [73.748988, 31.500995], [73.749069, 31.500954], [73.749155, 31.500922], [73.749243, 31.500899], [73.749333, 31.500884], [73.749424, 31.50088], [73.753065, 31.50088], [73.755489, 31.498234], [73.755554, 31.49817], [73.755625, 31.498113], [73.755702, 31.498064], [73.755783, 31.498023], [73.755868, 31.49799], [73.755956, 31.497967], [73.756046, 31.497953], [73.756137, 31.497948], [73.762565, 31.497948], [73.766362, 31.495185], [73.766439, 31.495135], [73.766521, 31.495093], [73.766607, 31.49506], [73.766696, 31.495036], [73.766787, 31.495021], [73.766879, 31.495017], [73.775833, 31.495017], [73.78094, 31.488047], [73.780993, 31.487982], [73.781052, 31.487921], [73.781117, 31.487867], [73.781187, 31.487819], [73.78126, 31.487778], [73.781338, 31.487745], [73.781418, 31.487719], [73.786789, 31.486253], [73.786875, 31.486234], [73.786963, 31.486224], [73.787052, 31.486222], [73.78714, 31.48623], [73.787227, 31.486247], [73.787312, 31.486272], [73.787394, 31.486305], [73.787472, 31.486347], [73.787546, 31.486396], [73.787614, 31.486453], [73.787676, 31.486516], [73.787732, 31.486584], [73.78778, 31.486659], [73.787821, 31.486737], [73.787854, 31.48682], [73.787878, 31.486905], [73.789153, 31.492475], [73.799662, 31.501079], [73.799726, 31.501137], [73.799784, 31.501201], [73.799836, 31.50127], [73.799881, 31.501344], [73.799918, 31.501422], [73.799947, 31.501504], [73.799968, 31.501587], [73.79998, 31.501673], [73.799985, 31.501759], [73.799985, 31.50728], [73.802294, 31.509801], [73.80612, 31.511193], [73.806195, 31.511225], [73.806268, 31.511263], [73.806336, 31.511309], [73.810365, 31.51424], [73.810429, 31.514292], [73.810489, 31.51435], [73.810542, 31.514413], [73.81059, 31.51448], [73.810631, 31.514552], [73.810665, 31.514628], [73.810692, 31.514706], [73.810711, 31.514787], [73.810723, 31.514869], [73.810727, 31.514951], [73.810727, 31.522149], [73.811973, 31.52623], [73.820976, 31.536059], [73.82596, 31.536059], [73.826051, 31.536063], [73.826141, 31.536077], [73.826229, 31.536101], [73.826314, 31.536133], [73.826396, 31.536174], [73.826472, 31.536223], [73.826544, 31.53628], [73.826608, 31.536344], [73.830491, 31.540583], [73.834317, 31.541975], [73.834395, 31.542007], [73.83447, 31.542048], [73.83454, 31.542095], [73.834605, 31.542148], [73.834665, 31.542208], [73.834719, 31.542273], [73.834767, 31.542343], [73.836955, 31.545926], [73.840109, 31.543631], [73.846745, 31.534939], [73.846797, 31.534876], [73.846856, 31.534818], [73.846919, 31.534766], [73.846987, 31.534721], [73.847059, 31.534681], [73.847134, 31.534649], [73.847212, 31.534624], [73.852548, 31.533168], [73.856542, 31.531714], [73.856611, 31.531692], [73.861982, 31.530226], [73.862057, 31.53021], [73.870113, 31.528744], [73.870191, 31.528733], [73.87027, 31.52873], [73.870349, 31.528733], [73.870428, 31.528744], [73.878406, 31.530195], [73.883543, 31.530195], [73.891391, 31.52734], [73.89389, 31.525976], [73.897426, 31.522116], [73.896447, 31.519981], [73.894018, 31.518655], [73.893945, 31.51861], [73.893877, 31.518559], [73.893814, 31.518501], [73.893757, 31.518437], [73.893706, 31.518368], [73.893662, 31.518294], [73.893626, 31.518217], [73.893598, 31.518136], [73.893577, 31.518053], [73.893564, 31.517968], [73.89356, 31.517883], [73.89356, 31.514951], [73.893564, 31.514868], [73.893576, 31.514786], [73.893596, 31.514705], [73.893623, 31.514626], [73.893657, 31.51455], [73.893699, 31.514478], [73.893747, 31.51441], [73.893801, 31.514347], [73.893861, 31.514289], [73.900538, 31.508458], [73.902928, 31.505849], [73.90162, 31.491579], [73.901617, 31.491499], [73.901617, 31.479772], [73.901622, 31.479678], [73.901637, 31.479585], [73.901662, 31.479494], [73.901697, 31.479406], [73.907068, 31.46768], [73.90711, 31.467599], [73.90716, 31.467523], [73.907219, 31.467452], [73.911016, 31.463307], [73.911016, 31.460909], [73.909811, 31.458278], [73.904533, 31.452516], [73.904481, 31.452454], [73.904435, 31.452387], [73.904395, 31.452316], [73.904362, 31.452241], [73.904336, 31.452164], [73.904317, 31.452085], [73.904306, 31.452004], [73.904302, 31.451922], [73.904302, 31.444593], [73.904306, 31.444508], [73.904319, 31.444423], [73.904339, 31.44434], [73.904368, 31.44426], [73.904404, 31.444182], [73.904448, 31.444108], [73.904499, 31.444039], [73.904556, 31.443976], [73.904619, 31.443918], [73.904687, 31.443866], [73.90476, 31.443822], [73.907446, 31.442356], [73.907521, 31.442319], [73.907599, 31.44229], [73.90768, 31.442268], [73.914393, 31.440803], [73.914487, 31.440788], [73.914581, 31.440782], [73.922413, 31.440782], [73.924773, 31.439494], [73.928703, 31.435205], [73.928762, 31.435145], [73.928828, 31.435092], [73.928898, 31.435045], [73.928972, 31.435005], [73.92905, 31.434972], [73.932962, 31.433549], [73.936768, 31.430779], [73.940711, 31.42504], [73.940761, 31.424975], [73.940816, 31.424914], [73.940878, 31.424858], [73.940944, 31.424809], [73.941014, 31.424766], [73.94365, 31.423328], [73.947632, 31.42043], [73.9477, 31.420385], [73.947773, 31.420346], [73.947849, 31.420314], [73.951675, 31.418922], [73.954215, 31.416149], [73.954284, 31.416082], [73.95436, 31.416022], [73.954442, 31.415972], [73.957127, 31.414506], [73.957208, 31.414467], [73.957292, 31.414436], [73.95738, 31.414415], [73.957468, 31.414402], [73.957558, 31.414398], [73.957648, 31.414404], [73.957736, 31.414419], [73.96445, 31.415884], [73.964535, 31.415907], [73.964618, 31.415939], [73.964697, 31.415979], [73.964771, 31.416026], [73.964841, 31.416081], [73.964904, 31.416142], [73.964961, 31.41621], [73.971411, 31.424659], [73.97596, 31.424659], [73.978326, 31.422076], [73.98094, 31.417796], [73.983524, 31.412154], [73.983524, 31.409415], [73.983529, 31.40932], [73.983544, 31.409227], [73.983569, 31.409136], [73.983604, 31.409048], [73.984947, 31.406117], [73.984989, 31.406036], [73.985039, 31.40596], [73.985098, 31.405889], [73.987783, 31.402957], [73.987848, 31.402893], [73.987919, 31.402837], [73.987996, 31.402787], [73.988077, 31.402746], [73.988163, 31.402714], [73.988251, 31.402691], [73.988341, 31.402677], [73.988432, 31.402672], [73.992073, 31.402672], [73.99584, 31.39856], [73.995909, 31.398493], [73.995985, 31.398433], [73.996067, 31.398382], [74.001438, 31.395451], [74.001522, 31.39541], [74.001609, 31.395379], [74.0017, 31.395358], [74.001792, 31.395346], [74.001885, 31.395343], [74.001978, 31.395351], [74.012661, 31.396809], [74.016242, 31.396809], [74.018666, 31.394163], [74.018725, 31.394104], [74.01879, 31.394051], [74.018859, 31.394004], [74.018932, 31.393965], [74.019009, 31.393932], [74.019089, 31.393907], [74.01917, 31.393889], [74.019253, 31.393879], [74.019337, 31.393878], [74.01942, 31.393884], [74.019502, 31.393897], [74.019583, 31.393919], [74.019661, 31.393948], [74.019736, 31.393985], [74.022421, 31.395451], [74.022504, 31.395501], [74.02258, 31.395561], [74.022649, 31.395628], [74.03024, 31.403915], [74.032321, 31.402779], [74.0324, 31.402741], [74.032482, 31.402711], [74.032567, 31.402689], [74.032654, 31.402676], [74.032742, 31.402672], [74.035203, 31.402672], [74.037692, 31.401314], [74.03777, 31.401276], [74.037851, 31.401246], [74.037935, 31.401224], [74.038018, 31.401211], [74.038113, 31.401481], [74.037541, 31.399861]], [[73.866463, 31.452489], [73.862789, 31.452861], [73.870821, 31.450699], [73.866463, 31.452489]], [[73.843591, 31.459772], [73.843856, 31.461464], [73.843497, 31.459868], [73.843591, 31.459772]], [[73.839039, 31.471374], [73.837652, 31.472193], [73.838476, 31.471424], [73.839039, 31.471374]], [[73.822047, 31.486905], [73.821761, 31.487022], [73.822627, 31.486214], [73.822047, 31.486905]], [[73.742253, 31.496941], [73.740956, 31.498708], [73.742122, 31.496734], [73.742253, 31.496941]], [[73.73411, 31.504056], [73.726453, 31.507174], [73.731459, 31.504138], [73.73411, 31.504056]], [[73.67579, 31.463403], [73.672022, 31.458085], [73.675549, 31.461689], [73.67579, 31.463403]]]}}]}