{"type": "FeatureCollection", "features": [{"type": "Feature", "properties": {"na": "NA-131", "src": "final-composition reconstruction (ECP final list QHs) over kasur_na132.jpg QH linework, outline-fit", "approx": true, "rms_km": 2.174}, "geometry": {"type": "Polygon", "coordinates": [[[74.398451, 30.880509], [74.398406, 30.880614], [74.398373, 30.880723], [74.39835, 30.880834], [74.398339, 30.880948], [74.39834, 30.881062], [74.398352, 30.881175], [74.398376, 30.881287], [74.398411, 30.881395], [74.398457, 30.881499], [74.398513, 30.881599], [74.398579, 30.881691], [74.398655, 30.881777], [74.402382, 30.885613], [74.402463, 30.885688], [74.402552, 30.885755], [74.406121, 30.888204], [74.411385, 30.895426], [74.411385, 30.897619], [74.411391, 30.897736], [74.411409, 30.897852], [74.41144, 30.897965], [74.411482, 30.898075], [74.411535, 30.898179], [74.411599, 30.898277], [74.413463, 30.900834], [74.413543, 30.900932], [74.413634, 30.90102], [74.413734, 30.901098], [74.416976, 30.903322], [74.416976, 30.90529], [74.416981, 30.905396], [74.416997, 30.905502], [74.417022, 30.905606], [74.417057, 30.905706], [74.417101, 30.905803], [74.417155, 30.905896], [74.417217, 30.905982], [74.417287, 30.906063], [74.417364, 30.906136], [74.417448, 30.906202], [74.417538, 30.90626], [74.417633, 30.906308], [74.417732, 30.906348], [74.420704, 30.907367], [74.420704, 30.909125], [74.420709, 30.909234], [74.420725, 30.909341], [74.420751, 30.909446], [74.420787, 30.909548], [74.420833, 30.909647], [74.420888, 30.90974], [74.420952, 30.909827], [74.421024, 30.909908], [74.421103, 30.909982], [74.42119, 30.910048], [74.424759, 30.912496], [74.426295, 30.914604], [74.426295, 30.916797], [74.426301, 30.916914], [74.42632, 30.91703], [74.42635, 30.917143], [74.426392, 30.917253], [74.426446, 30.917357], [74.42651, 30.917455], [74.428374, 30.920012], [74.428475, 30.920133], [74.432203, 30.923969], [74.432284, 30.924044], [74.432372, 30.924111], [74.435893, 30.926527], [74.439494, 30.932702], [74.439562, 30.932805], [74.439641, 30.9329], [74.43973, 30.932986], [74.439828, 30.933061], [74.444933, 30.936564], [74.444933, 30.93981], [74.444939, 30.939919], [74.444954, 30.940026], [74.44498, 30.940131], [74.445016, 30.940233], [74.445062, 30.940331], [74.445117, 30.940425], [74.445181, 30.940512], [74.445253, 30.940593], [74.445333, 30.940667], [74.445419, 30.940732], [74.450767, 30.944401], [74.452389, 30.947739], [74.452389, 30.950039], [74.452394, 30.950146], [74.452409, 30.950253], [74.452435, 30.950357], [74.452471, 30.950459], [74.452516, 30.950557], [74.45257, 30.95065], [74.452634, 30.950737], [74.452705, 30.950818], [74.456307, 30.954525], [74.458051, 30.958113], [74.459844, 30.964262], [74.459844, 30.972598], [74.456433, 30.976108], [74.456361, 30.976189], [74.456298, 30.976276], [74.456244, 30.976369], [74.456198, 30.976467], [74.456163, 30.976569], [74.456137, 30.976674], [74.456121, 30.97678], [74.456116, 30.976888], [74.456116, 30.978991], [74.452705, 30.982501], [74.452634, 30.982582], [74.45257, 30.982669], [74.452516, 30.982762], [74.452471, 30.98286], [74.452435, 30.982962], [74.452409, 30.983066], [74.452394, 30.983173], [74.452389, 30.98328], [74.452389, 30.986859], [74.450767, 30.990197], [74.447283, 30.992587], [74.447197, 30.992652], [74.447117, 30.992726], [74.447045, 30.992807], [74.446981, 30.992894], [74.446926, 30.992988], [74.44688, 30.993086], [74.446844, 30.993188], [74.446818, 30.993293], [74.446802, 30.9934], [74.446797, 30.993509], [74.446797, 30.996924], [74.441482, 31.003001], [74.441411, 31.003091], [74.44135, 31.003188], [74.441299, 31.003291], [74.441258, 31.003398], [74.441229, 31.003509], [74.441212, 31.003622], [74.441206, 31.003737], [74.441206, 31.00584], [74.437794, 31.00935], [74.437723, 31.009431], [74.43766, 31.009518], [74.437606, 31.009611], [74.43756, 31.009709], [74.437525, 31.009811], [74.437499, 31.009915], [74.437483, 31.010022], [74.437478, 31.01013], [74.437478, 31.012322], [74.436036, 31.0143], [74.432642, 31.015465], [74.43254, 31.015505], [74.432442, 31.015556], [74.43235, 31.015616], [74.432264, 31.015685], [74.432185, 31.015762], [74.432114, 31.015846], [74.432052, 31.015937], [74.431999, 31.016034], [74.430237, 31.01966], [74.415622, 31.032192], [74.410174, 31.034683], [74.410081, 31.034731], [74.409993, 31.034787], [74.409911, 31.034852], [74.409835, 31.034923], [74.409766, 31.035002], [74.409705, 31.035086], [74.409652, 31.035176], [74.409607, 31.03527], [74.405879, 31.04422], [74.405843, 31.04432], [74.405817, 31.044422], [74.404019, 31.053054], [74.400518, 31.056656], [74.400447, 31.056737], [74.400384, 31.056824], [74.400329, 31.056917], [74.400284, 31.057015], [74.400248, 31.057117], [74.400223, 31.057221], [74.400207, 31.057328], [74.400202, 31.057435], [74.400202, 31.062292], [74.398516, 31.065762], [74.393023, 31.072042], [74.392952, 31.072132], [74.392891, 31.072229], [74.39284, 31.072331], [74.392799, 31.072439], [74.39277, 31.07255], [74.392753, 31.072663], [74.392747, 31.072778], [74.392747, 31.07493], [74.385551, 31.083569], [74.38547, 31.083678], [74.385404, 31.083796], [74.38354, 31.087631], [74.3835, 31.087724], [74.383469, 31.08782], [74.383446, 31.087919], [74.383432, 31.088019], [74.383428, 31.08812], [74.383428, 31.091502], [74.380017, 31.095012], [74.379938, 31.095102], [74.37987, 31.095199], [74.379813, 31.095303], [74.377949, 31.099138], [74.377906, 31.09924], [74.377873, 31.099345], [74.37785, 31.099453], [74.377838, 31.099563], [74.377837, 31.099673], [74.377847, 31.099783], [74.377868, 31.099891], [74.379661, 31.107272], [74.376017, 31.119771], [74.375993, 31.119873], [74.375978, 31.119978], [74.375973, 31.120084], [74.375973, 31.123919], [74.375978, 31.124034], [74.375996, 31.124147], [74.376025, 31.124258], [74.376066, 31.124366], [74.376117, 31.124468], [74.376178, 31.124565], [74.376249, 31.124655], [74.381564, 31.130732], [74.381564, 31.134147], [74.381569, 31.134256], [74.381585, 31.134363], [74.381611, 31.134468], [74.381647, 31.13457], [74.381693, 31.134669], [74.381748, 31.134762], [74.381812, 31.134849], [74.381884, 31.13493], [74.381963, 31.135004], [74.38205, 31.13507], [74.389298, 31.140042], [74.392899, 31.146218], [74.392975, 31.146331], [74.393063, 31.146434], [74.396791, 31.150269], [74.396872, 31.150345], [74.39696, 31.150412], [74.400596, 31.152906], [74.404246, 31.156662], [74.404293, 31.156708], [74.409802, 31.161746], [74.413249, 31.166475], [74.413249, 31.168668], [74.413255, 31.168785], [74.413273, 31.168901], [74.413304, 31.169014], [74.413346, 31.169124], [74.413399, 31.169228], [74.413463, 31.169327], [74.415112, 31.171589], [74.415112, 31.1847], [74.411871, 31.186924], [74.411779, 31.186994], [74.411695, 31.187073], [74.411619, 31.187161], [74.411553, 31.187256], [74.411497, 31.187357], [74.409634, 31.191193], [74.409593, 31.191286], [74.409562, 31.191382], [74.409539, 31.19148], [74.409526, 31.19158], [74.409521, 31.191681], [74.409521, 31.196598], [74.407807, 31.201302], [74.404246, 31.204966], [74.404168, 31.205055], [74.404101, 31.205151], [74.404043, 31.205254], [74.403997, 31.205362], [74.402133, 31.210477], [74.402089, 31.210632], [74.400226, 31.219581], [74.400209, 31.219684], [74.400202, 31.219787], [74.400205, 31.219891], [74.400217, 31.219994], [74.400239, 31.220095], [74.40027, 31.220194], [74.400311, 31.22029], [74.400359, 31.220381], [74.400417, 31.220468], [74.401957, 31.222581], [74.398383, 31.234839], [74.398358, 31.234941], [74.398343, 31.235046], [74.398338, 31.235152], [74.398338, 31.250494], [74.398343, 31.250595], [74.398356, 31.250695], [74.398379, 31.250794], [74.398411, 31.25089], [74.398451, 31.250983], [74.400315, 31.254818], [74.400367, 31.254915], [74.40043, 31.255006], [74.4005, 31.25509], [74.400579, 31.255167], [74.400665, 31.255236], [74.400757, 31.255296], [74.400855, 31.255347], [74.400958, 31.255387], [74.404432, 31.256579], [74.407657, 31.259898], [74.407657, 31.263279], [74.407663, 31.263388], [74.407678, 31.263495], [74.407704, 31.2636], [74.40774, 31.263702], [74.407786, 31.263801], [74.407841, 31.263894], [74.407905, 31.263981], [74.407977, 31.264062], [74.408057, 31.264136], [74.408143, 31.264202], [74.411385, 31.266425], [74.411385, 31.268394], [74.411391, 31.268511], [74.411409, 31.268627], [74.41144, 31.26874], [74.411482, 31.268849], [74.411535, 31.268954], [74.411599, 31.269052], [74.413463, 31.271609], [74.413543, 31.271707], [74.413634, 31.271795], [74.413734, 31.271873], [74.416976, 31.274097], [74.416976, 31.276065], [74.416981, 31.276166], [74.416995, 31.276266], [74.417017, 31.276365], [74.417049, 31.276461], [74.417089, 31.276553], [74.418953, 31.280389], [74.419008, 31.28049], [74.419074, 31.280585], [74.41915, 31.280673], [74.419234, 31.280752], [74.419326, 31.280823], [74.424673, 31.284491], [74.426408, 31.28806], [74.426464, 31.288162], [74.42653, 31.288256], [74.426605, 31.288344], [74.426689, 31.288423], [74.426781, 31.288494], [74.430265, 31.290883], [74.43135, 31.293117], [74.432129, 31.292972], [74.433593, 31.291632], [74.434123, 31.291145], [74.435591, 31.290159], [74.436187, 31.290027], [74.437379, 31.289762], [74.438488, 31.289918], [74.438967, 31.290669], [74.438145, 31.292381], [74.437522, 31.292656], [74.437028, 31.29287], [74.436068, 31.293861], [74.435835, 31.295225], [74.435789, 31.295727], [74.435973, 31.296137], [74.436153, 31.29654], [74.436606, 31.297032], [74.436992, 31.297433], [74.439239, 31.299423], [74.439932, 31.30003], [74.440481, 31.3012], [74.44082, 31.30287], [74.440593, 31.303531], [74.440131, 31.304451], [74.439649, 31.304957], [74.439134, 31.305498], [74.438543, 31.306089], [74.437417, 31.306945], [74.436835, 31.308619], [74.436791, 31.309398], [74.436636, 31.312196], [74.436592, 31.313028], [74.436832, 31.314063], [74.437548, 31.314802], [74.438186, 31.314817], [74.438873, 31.31489], [74.440731, 31.315089], [74.441408, 31.315541], [74.441598, 31.316944], [74.44173, 31.317929], [74.442013, 31.318306], [74.443232, 31.31935], [74.44425, 31.319495], [74.446249, 31.319778], [74.447256, 31.321302], [74.447959, 31.321835], [74.448038, 31.325032], [74.447963, 31.326238], [74.447878, 31.327561], [74.448116, 31.328616], [74.448232, 31.329274], [74.448507, 31.331637], [74.449309, 31.338214], [74.44947, 31.339529], [74.449789, 31.341264], [74.451509, 31.3506], [74.451632, 31.35127], [74.451939, 31.352039], [74.452612, 31.353651], [74.453512, 31.35453], [74.453941, 31.355012], [74.45463, 31.355619], [74.455107, 31.355719], [74.455901, 31.355872], [74.456831, 31.355633], [74.457378, 31.355345], [74.458108, 31.354923], [74.46202, 31.35471], [74.463389, 31.355235], [74.465022, 31.355861], [74.466708, 31.358797], [74.465865, 31.359621], [74.465486, 31.360242], [74.465051, 31.361284], [74.465089, 31.36209], [74.465721, 31.363332], [74.466708, 31.36437], [74.467842, 31.364872], [74.469122, 31.365439], [74.4697, 31.365452], [74.470386, 31.365466], [74.471148, 31.365482], [74.47194, 31.365364], [74.47632, 31.364716], [74.476852, 31.364644], [74.477541, 31.364551], [74.480083, 31.364211], [74.481053, 31.364081], [74.482269, 31.363924], [74.483807, 31.364541], [74.486165, 31.365464], [74.487619, 31.365562], [74.488891, 31.36523], [74.489843, 31.364826], [74.490483, 31.3643], [74.491134, 31.362782], [74.491605, 31.360192], [74.491784, 31.359389], [74.491848, 31.358856], [74.491984, 31.358106], [74.492438, 31.355522], [74.4926, 31.3546], [74.493183, 31.353496], [74.493437, 31.353016], [74.493853, 31.35223], [74.494589, 31.351464], [74.495637, 31.350479], [74.496555, 31.349622], [74.497732, 31.34933], [74.500901, 31.348553], [74.50169, 31.348361], [74.502623, 31.348371], [74.504849, 31.348421], [74.505413, 31.348457], [74.509066, 31.349145], [74.510979, 31.349789], [74.512113, 31.351332], [74.511131, 31.353097], [74.510788, 31.353813], [74.510317, 31.354841], [74.510803, 31.356582], [74.511108, 31.35706], [74.511842, 31.358218], [74.512305, 31.358934], [74.513324, 31.359174], [74.515396, 31.359648], [74.516501, 31.359901], [74.518181, 31.359475], [74.522055, 31.358501], [74.525565, 31.35847], [74.526336, 31.358464], [74.525443, 31.322936], [74.527976, 31.233108], [74.503785, 31.205955], [74.494714, 31.189142], [74.496226, 31.167152], [74.521929, 31.143862], [74.543096, 31.128333], [74.552051, 31.127197], [74.583918, 31.123156], [74.603573, 31.133509], [74.629276, 31.142568], [74.670098, 31.142568], [74.691266, 31.129627], [74.695801, 31.099855], [74.68673, 31.081729], [74.681455, 31.080599], [74.626252, 31.068779], [74.57787, 31.068779], [74.574404, 31.065438], [74.553679, 31.045465], [74.548689, 31.038134], [74.532512, 31.014371], [74.503785, 30.980675], [74.489487, 30.969728], [74.461451, 30.948263], [74.428196, 30.913307], [74.42822, 30.912825], [74.403997, 30.884705], [74.40022, 30.876868], [74.398451, 30.880509]], [[74.470202, 30.97369], [74.46668, 30.973656], [74.46878, 30.972342], [74.470202, 30.97369]], [[74.436284, 31.215565], [74.436198, 31.215608], [74.435135, 31.212477], [74.436284, 31.21298], [74.436284, 31.215565]], [[74.429314, 31.192357], [74.428519, 31.190592], [74.429607, 31.191622], [74.429314, 31.192357]], [[74.417588, 31.061676], [74.418924, 31.057088], [74.420097, 31.056348], [74.417588, 31.061676]]]}}, {"type": "Feature", "properties": {"na": "NA-132", "src": "final-composition reconstruction (ECP final list QHs) over kasur_na132.jpg QH linework, outline-fit", "approx": true, "rms_km": 2.174}, "geometry": {"type": "MultiPolygon", "coordinates": [[[[74.405817, 31.044422], [74.405843, 31.04432], [74.405879, 31.04422], [74.409607, 31.03527], [74.409652, 31.035176], [74.409705, 31.035086], [74.409766, 31.035002], [74.409835, 31.034923], [74.409911, 31.034852], [74.409993, 31.034787], [74.410081, 31.034731], [74.410174, 31.034683], [74.415622, 31.032192], [74.430237, 31.01966], [74.431999, 31.016034], [74.432052, 31.015937], [74.432114, 31.015846], [74.432185, 31.015762], [74.432264, 31.015685], [74.43235, 31.015616], [74.432442, 31.015556], [74.43254, 31.015505], [74.432642, 31.015465], [74.436036, 31.0143], [74.437478, 31.012322], [74.437478, 31.01013], [74.437483, 31.010022], [74.437499, 31.009915], [74.437525, 31.009811], [74.43756, 31.009709], [74.437606, 31.009611], [74.43766, 31.009518], [74.437723, 31.009431], [74.437794, 31.00935], [74.441206, 31.00584], [74.441206, 31.003737], [74.441212, 31.003622], [74.441229, 31.003509], [74.441258, 31.003398], [74.441299, 31.003291], [74.44135, 31.003188], [74.441411, 31.003091], [74.441482, 31.003001], [74.446797, 30.996924], [74.446797, 30.993509], [74.446802, 30.9934], [74.446818, 30.993293], [74.446844, 30.993188], [74.44688, 30.993086], [74.446926, 30.992988], [74.446981, 30.992894], [74.447045, 30.992807], [74.447117, 30.992726], [74.447197, 30.992652], [74.447283, 30.992587], [74.450767, 30.990197], [74.452389, 30.986859], [74.452389, 30.98328], [74.452394, 30.983173], [74.452409, 30.983066], [74.452435, 30.982962], [74.452471, 30.98286], [74.452516, 30.982762], [74.45257, 30.982669], [74.452634, 30.982582], [74.452705, 30.982501], [74.456116, 30.978991], [74.456116, 30.976888], [74.456121, 30.97678], [74.456137, 30.976674], [74.456163, 30.976569], [74.456198, 30.976467], [74.456244, 30.976369], [74.456298, 30.976276], [74.456361, 30.976189], [74.456433, 30.976108], [74.459844, 30.972598], [74.459844, 30.964262], [74.458051, 30.958113], [74.456307, 30.954525], [74.452705, 30.950818], [74.452634, 30.950737], [74.45257, 30.95065], [74.452516, 30.950557], [74.452471, 30.950459], [74.452435, 30.950357], [74.452409, 30.950253], [74.452394, 30.950146], [74.452389, 30.950039], [74.452389, 30.947739], [74.450767, 30.944401], [74.445419, 30.940732], [74.445333, 30.940667], [74.445253, 30.940593], [74.445181, 30.940512], [74.445117, 30.940425], [74.445062, 30.940331], [74.445016, 30.940233], [74.44498, 30.940131], [74.444954, 30.940026], [74.444939, 30.939919], [74.444933, 30.93981], [74.444933, 30.936564], [74.439828, 30.933061], [74.43973, 30.932986], [74.439641, 30.9329], [74.439562, 30.932805], [74.439494, 30.932702], [74.435893, 30.926527], [74.432372, 30.924111], [74.432284, 30.924044], [74.432203, 30.923969], [74.428475, 30.920133], [74.428374, 30.920012], [74.42651, 30.917455], [74.426446, 30.917357], [74.426392, 30.917253], [74.42635, 30.917143], [74.42632, 30.91703], [74.426301, 30.916914], [74.426295, 30.916797], [74.426295, 30.914604], [74.424759, 30.912496], [74.42119, 30.910048], [74.421103, 30.909982], [74.421024, 30.909908], [74.420952, 30.909827], [74.420888, 30.90974], [74.420833, 30.909647], [74.420787, 30.909548], [74.420751, 30.909446], [74.420725, 30.909341], [74.420709, 30.909234], [74.420704, 30.909125], [74.420704, 30.907367], [74.417732, 30.906348], [74.417633, 30.906308], [74.417538, 30.90626], [74.417448, 30.906202], [74.417364, 30.906136], [74.417287, 30.906063], [74.417217, 30.905982], [74.417155, 30.905896], [74.417101, 30.905803], [74.417057, 30.905706], [74.417022, 30.905606], [74.416997, 30.905502], [74.416981, 30.905396], [74.416976, 30.90529], [74.416976, 30.903322], [74.413734, 30.901098], [74.413634, 30.90102], [74.413543, 30.900932], [74.413463, 30.900834], [74.411599, 30.898277], [74.411535, 30.898179], [74.411482, 30.898075], [74.41144, 30.897965], [74.411409, 30.897852], [74.411391, 30.897736], [74.411385, 30.897619], [74.411385, 30.895426], [74.406121, 30.888204], [74.402552, 30.885755], [74.402463, 30.885688], [74.402382, 30.885613], [74.398655, 30.881777], [74.398579, 30.881691], [74.398513, 30.881599], [74.398457, 30.881499], [74.398411, 30.881395], [74.398376, 30.881287], [74.398352, 30.881175], [74.39834, 30.881062], [74.398339, 30.880948], [74.39835, 30.880834], [74.398373, 30.880723], [74.398406, 30.880614], [74.398451, 30.880509], [74.40022, 30.876868], [74.385854, 30.847068], [74.341112, 30.80956], [74.338015, 30.80956], [74.315889, 30.80703], [74.310459, 30.804547], [74.310347, 30.804503], [74.310232, 30.804472], [74.310114, 30.804452], [74.309994, 30.804446], [74.306266, 30.804446], [74.306143, 30.804453], [74.306022, 30.804473], [74.305904, 30.804506], [74.298448, 30.807063], [74.298354, 30.8071], [74.298264, 30.807146], [74.298179, 30.807199], [74.294451, 30.809756], [74.294365, 30.809822], [74.294285, 30.809895], [74.294213, 30.809976], [74.294149, 30.810064], [74.294094, 30.810157], [74.294048, 30.810255], [74.294012, 30.810358], [74.293986, 30.810463], [74.29397, 30.81057], [74.293965, 30.810678], [74.293965, 30.812646], [74.286996, 30.817427], [74.286909, 30.817493], [74.28683, 30.817567], [74.286758, 30.817648], [74.286694, 30.817735], [74.286639, 30.817828], [74.286593, 30.817927], [74.286557, 30.818029], [74.286531, 30.818134], [74.286515, 30.818241], [74.28651, 30.81835], [74.28651, 30.824485], [74.284962, 30.827671], [74.281674, 30.828799], [74.281568, 30.828841], [74.281468, 30.828894], [74.281373, 30.828956], [74.281285, 30.829029], [74.281205, 30.829109], [74.281133, 30.829198], [74.279516, 30.831417], [74.274332, 30.832602], [74.274229, 30.832631], [74.274129, 30.83267], [74.274033, 30.832718], [74.273942, 30.832775], [74.273857, 30.832841], [74.273778, 30.832914], [74.273707, 30.832995], [74.273644, 30.833082], [74.27359, 30.833175], [74.273545, 30.833272], [74.27351, 30.833374], [74.273484, 30.833478], [74.273469, 30.833585], [74.273463, 30.833692], [74.273463, 30.838806], [74.27347, 30.838923], [74.273488, 30.839039], [74.273518, 30.839152], [74.273561, 30.839262], [74.273614, 30.839366], [74.273678, 30.839465], [74.275542, 30.842022], [74.275614, 30.842111], [74.275694, 30.842192], [74.275783, 30.842264], [74.275878, 30.842327], [74.27598, 30.84238], [74.276086, 30.842422], [74.276196, 30.842453], [74.28158, 30.843684], [74.288859, 30.848678], [74.288955, 30.848736], [74.289055, 30.848785], [74.28916, 30.848824], [74.289268, 30.848851], [74.289378, 30.848868], [74.28949, 30.848874], [74.289601, 30.848869], [74.302593, 30.847596], [74.309647, 30.847596], [74.316658, 30.852405], [74.320058, 30.85707], [74.320058, 30.858898], [74.318409, 30.861161], [74.318345, 30.861259], [74.318292, 30.861364], [74.31825, 30.861473], [74.318219, 30.861587], [74.318201, 30.861703], [74.318195, 30.86182], [74.318195, 30.870769], [74.318199, 30.87087], [74.318213, 30.870971], [74.318236, 30.871069], [74.318267, 30.871165], [74.318307, 30.871258], [74.320171, 30.875094], [74.320227, 30.875195], [74.320293, 30.87529], [74.320368, 30.875378], [74.320452, 30.875457], [74.320544, 30.875527], [74.325499, 30.878926], [74.323981, 30.885176], [74.31925, 30.886258], [74.308257, 30.885001], [74.30813, 30.884994], [74.300675, 30.884994], [74.300523, 30.885004], [74.291204, 30.886282], [74.291096, 30.886303], [74.290991, 30.886333], [74.290889, 30.886374], [74.290791, 30.886425], [74.290699, 30.886485], [74.290614, 30.886554], [74.290535, 30.886631], [74.290465, 30.886715], [74.290403, 30.886805], [74.29035, 30.886902], [74.288486, 30.890737], [74.288443, 30.89084], [74.288409, 30.890946], [74.288387, 30.891055], [74.288375, 30.891165], [74.288375, 30.891277], [74.288385, 30.891387], [74.2902, 30.903832], [74.288616, 30.907092], [74.285132, 30.909482], [74.285032, 30.909559], [74.284941, 30.909647], [74.284861, 30.909745], [74.281133, 30.914859], [74.281069, 30.914958], [74.281016, 30.915062], [74.280974, 30.915172], [74.280943, 30.915285], [74.280925, 30.915401], [74.280919, 30.915518], [74.280919, 30.919156], [74.279245, 30.923748], [74.275813, 30.926103], [74.275718, 30.926176], [74.268262, 30.932569], [74.268179, 30.932648], [74.268105, 30.932735], [74.268039, 30.932829], [74.267984, 30.932929], [74.26794, 30.933035], [74.266076, 30.938149], [74.266047, 30.938239], [74.266026, 30.938331], [74.264165, 30.948546], [74.262304, 30.957482], [74.262287, 30.957585], [74.262281, 30.95769], [74.262284, 30.957795], [74.262297, 30.957899], [74.262319, 30.958002], [74.262352, 30.958102], [74.262393, 30.958198], [74.264019, 30.961545], [74.262522, 30.964626], [74.259214, 30.966895], [74.253831, 30.968126], [74.253721, 30.968157], [74.253615, 30.9682], [74.248429, 30.970571], [74.245268, 30.969487], [74.241824, 30.967124], [74.238424, 30.96246], [74.238424, 30.958988], [74.238419, 30.958881], [74.238403, 30.958774], [74.238377, 30.958669], [74.238342, 30.958568], [74.238296, 30.95847], [74.238242, 30.958377], [74.238179, 30.95829], [74.238108, 30.958209], [74.23438, 30.954373], [74.234303, 30.954302], [74.23422, 30.954237], [74.234132, 30.954181], [74.234038, 30.954134], [74.233941, 30.954095], [74.226486, 30.951538], [74.2264, 30.951512], [74.226312, 30.951493], [74.218857, 30.950215], [74.218762, 30.950203], [74.218668, 30.950199], [74.203757, 30.950199], [74.203645, 30.950204], [74.203534, 30.950221], [74.203426, 30.950249], [74.203321, 30.950287], [74.20322, 30.950336], [74.203124, 30.950395], [74.199397, 30.952952], [74.199297, 30.953029], [74.199206, 30.953118], [74.199126, 30.953215], [74.195398, 30.95833], [74.195334, 30.958428], [74.195281, 30.958532], [74.195239, 30.958642], [74.195208, 30.958755], [74.19519, 30.958871], [74.195184, 30.958988], [74.195184, 30.963649], [74.191772, 30.967159], [74.1917, 30.967241], [74.191635, 30.967331], [74.19158, 30.967426], [74.191535, 30.967526], [74.191499, 30.96763], [74.191474, 30.967738], [74.18961, 30.977966], [74.189597, 30.978066], [74.189592, 30.978166], [74.189592, 30.982002], [74.189597, 30.982107], [74.189612, 30.982212], [74.189637, 30.982315], [74.191456, 30.988554], [74.191456, 30.99721], [74.189744, 31.004255], [74.182744, 31.007857], [74.182652, 31.007909], [74.182566, 31.00797], [74.182486, 31.008039], [74.182413, 31.008115], [74.182347, 31.008198], [74.18229, 31.008287], [74.182241, 31.00838], [74.182201, 31.008478], [74.182171, 31.008579], [74.18215, 31.008682], [74.182139, 31.008787], [74.182138, 31.008893], [74.182147, 31.008998], [74.183966, 31.022729], [74.180515, 31.029831], [74.177207, 31.032101], [74.171823, 31.033332], [74.171712, 31.033363], [74.171605, 31.033406], [74.171503, 31.033459], [74.171407, 31.033523], [74.171318, 31.033597], [74.166047, 31.038418], [74.162753, 31.038418], [74.16263, 31.038424], [74.162509, 31.038445], [74.162391, 31.038478], [74.158663, 31.039757], [74.158569, 31.039794], [74.158479, 31.039839], [74.158393, 31.039892], [74.152802, 31.043728], [74.15271, 31.043798], [74.152626, 31.043877], [74.152551, 31.043965], [74.152485, 31.04406], [74.152429, 31.044161], [74.152384, 31.044267], [74.15052, 31.049381], [74.150482, 31.049509], [74.150459, 31.04964], [74.148595, 31.066261], [74.148589, 31.066363], [74.148591, 31.066466], [74.148604, 31.066569], [74.148625, 31.06667], [74.148656, 31.066768], [74.150452, 31.071697], [74.150452, 31.077303], [74.145632, 31.080609], [74.142252, 31.080609], [74.142146, 31.080614], [74.142042, 31.080629], [74.14194, 31.080654], [74.141841, 31.080688], [74.141745, 31.080731], [74.141653, 31.080783], [74.141567, 31.080843], [74.141487, 31.080911], [74.141414, 31.080987], [74.141348, 31.081069], [74.137733, 31.086028], [74.134164, 31.088477], [74.134077, 31.088542], [74.133998, 31.088616], [74.133926, 31.088697], [74.133862, 31.088784], [74.133807, 31.088878], [74.133761, 31.088976], [74.133725, 31.089078], [74.133699, 31.089183], [74.133683, 31.089291], [74.133678, 31.089399], [74.133678, 31.091367], [74.130612, 31.09347], [74.125228, 31.094701], [74.125121, 31.094731], [74.125018, 31.094772], [74.124919, 31.094822], [74.124826, 31.094883], [74.124739, 31.094952], [74.124659, 31.095029], [74.124588, 31.095114], [74.124525, 31.095205], [74.124471, 31.095303], [74.122686, 31.098977], [74.119314, 31.102446], [74.114045, 31.103651], [74.113932, 31.103683], [74.110204, 31.104962], [74.11011, 31.104999], [74.11002, 31.105044], [74.109934, 31.105098], [74.106207, 31.107655], [74.10612, 31.10772], [74.106041, 31.107794], [74.105969, 31.107875], [74.105905, 31.107962], [74.10585, 31.108056], [74.105804, 31.108154], [74.105768, 31.108256], [74.105742, 31.108361], [74.105726, 31.108469], [74.105721, 31.108577], [74.105721, 31.117527], [74.105726, 31.117635], [74.105742, 31.117742], [74.105768, 31.117847], [74.105804, 31.117949], [74.10585, 31.118048], [74.105905, 31.118141], [74.105969, 31.118229], [74.106041, 31.118309], [74.10612, 31.118383], [74.106207, 31.118449], [74.109776, 31.120897], [74.111312, 31.123005], [74.111312, 31.125198], [74.111318, 31.125306], [74.111333, 31.125413], [74.111359, 31.125518], [74.111395, 31.125621], [74.111441, 31.125719], [74.111496, 31.125812], [74.11156, 31.1259], [74.111632, 31.125981], [74.111712, 31.126054], [74.111798, 31.12612], [74.121025, 31.13245], [74.124359, 31.13588], [74.124359, 31.14123], [74.117389, 31.146011], [74.117303, 31.146076], [74.117224, 31.14615], [74.117152, 31.146231], [74.117088, 31.146318], [74.117033, 31.146412], [74.116987, 31.14651], [74.116951, 31.146612], [74.116925, 31.146717], [74.116909, 31.146825], [74.116904, 31.146933], [74.116904, 31.155883], [74.116909, 31.15599], [74.116925, 31.156097], [74.11695, 31.156201], [74.116986, 31.156303], [74.117031, 31.156401], [74.117086, 31.156494], [74.117149, 31.156581], [74.11722, 31.156662], [74.120631, 31.160172], [74.120631, 31.176082], [74.117146, 31.183255], [74.108356, 31.189285], [74.099384, 31.189285], [74.099261, 31.189291], [74.09914, 31.189312], [74.099021, 31.189345], [74.095294, 31.190624], [74.0952, 31.190661], [74.09511, 31.190706], [74.095024, 31.190759], [74.091296, 31.193316], [74.091196, 31.193394], [74.091105, 31.193482], [74.091025, 31.19358], [74.087298, 31.198694], [74.087233, 31.198792], [74.08718, 31.198897], [74.087138, 31.199006], [74.087107, 31.19912], [74.087089, 31.199236], [74.087083, 31.199353], [74.087083, 31.205745], [74.087088, 31.205854], [74.087104, 31.205961], [74.08713, 31.206066], [74.087166, 31.206168], [74.087212, 31.206266], [74.087267, 31.20636], [74.087331, 31.206447], [74.087403, 31.206528], [74.087482, 31.206602], [74.087569, 31.206668], [74.093002, 31.210395], [74.094538, 31.212502], [74.094538, 31.219445], [74.092936, 31.221644], [74.089341, 31.225343], [74.085942, 31.227674], [74.073424, 31.228901], [74.069926, 31.227701], [74.069825, 31.227672], [74.069721, 31.227652], [74.069616, 31.227642], [74.06951, 31.227642], [74.069405, 31.227652], [74.069302, 31.227672], [74.0692, 31.227701], [74.065473, 31.22898], [74.065367, 31.229022], [74.065266, 31.229075], [74.065172, 31.229138], [74.065084, 31.22921], [74.065003, 31.22929], [74.064932, 31.229379], [74.063068, 31.231936], [74.063004, 31.232034], [74.062951, 31.232139], [74.062908, 31.232248], [74.062878, 31.232362], [74.06286, 31.232477], [74.062853, 31.232595], [74.062853, 31.235712], [74.057915, 31.23797], [74.057814, 31.238023], [74.057718, 31.238086], [74.057629, 31.238159], [74.057549, 31.23824], [74.057477, 31.238329], [74.053749, 31.243443], [74.053694, 31.243525], [74.053647, 31.243613], [74.051783, 31.247448], [74.051743, 31.247541], [74.051712, 31.247637], [74.051689, 31.247736], [74.051675, 31.247836], [74.051671, 31.247937], [74.051671, 31.25013], [74.050289, 31.252026], [74.043281, 31.253227], [74.04317, 31.253252], [74.043062, 31.253288], [74.042958, 31.253335], [74.035503, 31.257171], [74.035413, 31.257223], [74.035328, 31.257283], [74.035249, 31.257351], [74.035176, 31.257425], [74.035111, 31.257507], [74.033247, 31.260064], [74.033183, 31.260162], [74.03313, 31.260266], [74.033088, 31.260376], [74.033057, 31.260489], [74.033039, 31.260605], [74.033033, 31.260722], [74.033033, 31.264558], [74.033038, 31.264666], [74.033054, 31.264773], [74.03308, 31.264879], [74.033116, 31.264981], [74.033161, 31.265079], [74.033217, 31.265172], [74.03328, 31.26526], [74.033352, 31.265341], [74.033432, 31.265415], [74.033518, 31.26548], [74.038624, 31.268983], [74.038624, 31.272229], [74.03863, 31.272346], [74.038649, 31.272462], [74.038679, 31.272576], [74.038721, 31.272685], [74.038775, 31.27279], [74.038839, 31.272888], [74.040702, 31.275445], [74.040774, 31.275534], [74.040855, 31.275615], [74.040944, 31.275687], [74.041039, 31.27575], [74.041141, 31.275803], [74.046732, 31.27836], [74.046844, 31.278404], [74.04696, 31.278436], [74.047078, 31.278455], [74.047198, 31.278462], [74.05838, 31.278462], [74.058506, 31.278455], [74.05863, 31.278433], [74.064221, 31.277155], [74.064335, 31.277123], [74.06753, 31.276026], [74.068067, 31.276395], [74.069087, 31.27566], [74.069692, 31.27551], [74.071486, 31.275071], [74.072072, 31.274929], [74.073147, 31.275049], [74.073862, 31.275129], [74.074743, 31.275997], [74.076271, 31.277498], [74.076814, 31.278029], [74.077307, 31.278887], [74.080163, 31.283839], [74.080621, 31.284544], [74.081501, 31.285898], [74.082628, 31.287779], [74.08329, 31.288883], [74.084115, 31.28971], [74.085343, 31.290902], [74.085857, 31.291322], [74.086277, 31.291647], [74.087137, 31.29219], [74.087914, 31.29269], [74.088728, 31.29301], [74.08973, 31.293221], [74.090768, 31.292671], [74.090678, 31.290937], [74.090623, 31.289881], [74.090578, 31.289029], [74.090245, 31.287903], [74.089358, 31.284915], [74.088783, 31.282979], [74.088401, 31.281683], [74.088354, 31.281194], [74.088124, 31.278689], [74.088012, 31.277472], [74.088612, 31.27633], [74.088929, 31.275739], [74.090372, 31.27568], [74.0921, 31.275608], [74.093007, 31.275573], [74.094295, 31.276127], [74.096067, 31.276894], [74.096738, 31.277199], [74.097329, 31.277598], [74.098477, 31.278013], [74.099218, 31.278281], [74.101766, 31.27941], [74.103214, 31.28005], [74.104696, 31.279576], [74.106539, 31.278986], [74.106777, 31.277325], [74.106894, 31.276513], [74.107142, 31.274778], [74.106772, 31.27386], [74.106414, 31.27304], [74.105906, 31.271983], [74.105743, 31.271112], [74.106689, 31.269443], [74.107406, 31.268179], [74.108659, 31.267579], [74.109919, 31.266982], [74.111226, 31.267037], [74.112003, 31.267276], [74.113473, 31.26773], [74.114058, 31.267911], [74.114744, 31.26832], [74.116101, 31.269134], [74.119222, 31.271451], [74.119904, 31.271962], [74.120337, 31.272332], [74.121527, 31.273405], [74.122132, 31.274012], [74.12272, 31.274602], [74.123234, 31.275119], [74.124, 31.275888], [74.124396, 31.276574], [74.125476, 31.278442], [74.125737, 31.279704], [74.126447, 31.283032], [74.126721, 31.284292], [74.126849, 31.284877], [74.127316, 31.286264], [74.127857, 31.287879], [74.127985, 31.289305], [74.127849, 31.290813], [74.127715, 31.292155], [74.127419, 31.293773], [74.129153, 31.29537], [74.129947, 31.295983], [74.131564, 31.29723], [74.132623, 31.298086], [74.135316, 31.300267], [74.136102, 31.300903], [74.137481, 31.301428], [74.137982, 31.301447], [74.138669, 31.301472], [74.139447, 31.301102], [74.141601, 31.300075], [74.142103, 31.299741], [74.143283, 31.29902], [74.144011, 31.298807], [74.144667, 31.298808], [74.145246, 31.298883], [74.14624, 31.299013], [74.147048, 31.299263], [74.14762, 31.29944], [74.14836, 31.299226], [74.149493, 31.298624], [74.149525, 31.29812], [74.149564, 31.297645], [74.150054, 31.296737], [74.151706, 31.295322], [74.153247, 31.294149], [74.15477, 31.292989], [74.155195, 31.292741], [74.155661, 31.29247], [74.157119, 31.292354], [74.158671, 31.292231], [74.158986, 31.291863], [74.159271, 31.29151], [74.159271, 31.289835], [74.159416, 31.288555], [74.160391, 31.286841], [74.161396, 31.286153], [74.162386, 31.285476], [74.163914, 31.284576], [74.165069, 31.283898], [74.166359, 31.28413], [74.167684, 31.285104], [74.167991, 31.285861], [74.168595, 31.28625], [74.169196, 31.286625], [74.169756, 31.286684], [74.172199, 31.286866], [74.172853, 31.286893], [74.173538, 31.28692], [74.17438, 31.286954], [74.17507, 31.287133], [74.175668, 31.287287], [74.175912, 31.287685], [74.176677, 31.289013], [74.176905, 31.289548], [74.177338, 31.290358], [74.178381, 31.290819], [74.178943, 31.290921], [74.179662, 31.291052], [74.181397, 31.292747], [74.18201, 31.293338], [74.183038, 31.294332], [74.184179, 31.294718], [74.185849, 31.295287], [74.187059, 31.295701], [74.187887, 31.29542], [74.188371, 31.295256], [74.189706, 31.294804], [74.190473, 31.294539], [74.191084, 31.294071], [74.193856, 31.291943], [74.194539, 31.29142], [74.195245, 31.290395], [74.195948, 31.289374], [74.196946, 31.287794], [74.197402, 31.285787], [74.197987, 31.283209], [74.199041, 31.281803], [74.200613, 31.279699], [74.200876, 31.279345], [74.202258, 31.27768], [74.203421, 31.276737], [74.205089, 31.275354], [74.205513, 31.273762], [74.206031, 31.271823], [74.207312, 31.27012], [74.207686, 31.269806], [74.209774, 31.267329], [74.210336, 31.266541], [74.21073, 31.265966], [74.211067, 31.265436], [74.211359, 31.264819], [74.211613, 31.264285], [74.211907, 31.263828], [74.212526, 31.263199], [74.213117, 31.262452], [74.21335, 31.261999], [74.213667, 31.261138], [74.213869, 31.26059], [74.214415, 31.2595], [74.214957, 31.258417], [74.2155, 31.257332], [74.21581, 31.256901], [74.216956, 31.256289], [74.217473, 31.256142], [74.218814, 31.255927], [74.21987, 31.256033], [74.220903, 31.256187], [74.221541, 31.256281], [74.221982, 31.256533], [74.222419, 31.256783], [74.225051, 31.258287], [74.225853, 31.258744], [74.226456, 31.259087], [74.232162, 31.261955], [74.232585, 31.262166], [74.233334, 31.262661], [74.234578, 31.263501], [74.235872, 31.264376], [74.238061, 31.266806], [74.239324, 31.268493], [74.240834, 31.270481], [74.242867, 31.271204], [74.244599, 31.271821], [74.246988, 31.273489], [74.247762, 31.274788], [74.248568, 31.27614], [74.249369, 31.276766], [74.25032, 31.277508], [74.251065, 31.277672], [74.251708, 31.277814], [74.252878, 31.278071], [74.253748, 31.278714], [74.25418, 31.28013], [74.254936, 31.28198], [74.255219, 31.282676], [74.255852, 31.283852], [74.256251, 31.284582], [74.257073, 31.286055], [74.258038, 31.28683], [74.260069, 31.287969], [74.261914, 31.287949], [74.262892, 31.287939], [74.26535, 31.28804], [74.267687, 31.288689], [74.268708, 31.289529], [74.26934, 31.290049], [74.270331, 31.291672], [74.271019, 31.292799], [74.271315, 31.293136], [74.272439, 31.294422], [74.273543, 31.295037], [74.274788, 31.295166], [74.276061, 31.295219], [74.27744, 31.29512], [74.277951, 31.295083], [74.278567, 31.295028], [74.279467, 31.294691], [74.279882, 31.294532], [74.280748, 31.294202], [74.281282, 31.293782], [74.283171, 31.292295], [74.283959, 31.291655], [74.284978, 31.291059], [74.286108, 31.290115], [74.28659, 31.289819], [74.287156, 31.289617], [74.287636, 31.289455], [74.28925, 31.289051], [74.290126, 31.28886], [74.292286, 31.288668], [74.293194, 31.288415], [74.294967, 31.287764], [74.295351, 31.287574], [74.295801, 31.287328], [74.296295, 31.287058], [74.296759, 31.286716], [74.29812, 31.285593], [74.298643, 31.285253], [74.299474, 31.285019], [74.299899, 31.284899], [74.30308, 31.284825], [74.303582, 31.284813], [74.304254, 31.284814], [74.304931, 31.284868], [74.307835, 31.285097], [74.308539, 31.28514], [74.31309, 31.284039], [74.314286, 31.284048], [74.315889, 31.28406], [74.317446, 31.284491], [74.31939, 31.28503], [74.321063, 31.285974], [74.3215, 31.286221], [74.322739, 31.286919], [74.32322, 31.287141], [74.323966, 31.287486], [74.324838, 31.287889], [74.32605, 31.288449], [74.327301, 31.288714], [74.328183, 31.288901], [74.329877, 31.289205], [74.330991, 31.289372], [74.333094, 31.289245], [74.333748, 31.289148], [74.335773, 31.288849], [74.33864, 31.287824], [74.339842, 31.287428], [74.342543, 31.286397], [74.343883, 31.285903], [74.344643, 31.285731], [74.349604, 31.284586], [74.350174, 31.284453], [74.351278, 31.284399], [74.352203, 31.28438], [74.353301, 31.284358], [74.354092, 31.284482], [74.354891, 31.284752], [74.356478, 31.285289], [74.356881, 31.285425], [74.357439, 31.285731], [74.358721, 31.286433], [74.35997, 31.287149], [74.361501, 31.288873], [74.362092, 31.289545], [74.36287, 31.290501], [74.364313, 31.291374], [74.364917, 31.291698], [74.366034, 31.29235], [74.366498, 31.292541], [74.367108, 31.292777], [74.36827, 31.293228], [74.368907, 31.293487], [74.371109, 31.294314], [74.372237, 31.294732], [74.372908, 31.294982], [74.37344, 31.295159], [74.37468, 31.295498], [74.375431, 31.295735], [74.375998, 31.29586], [74.376988, 31.296128], [74.377469, 31.296125], [74.378462, 31.295951], [74.379371, 31.295172], [74.380124, 31.294536], [74.381332, 31.294137], [74.3824, 31.294161], [74.383984, 31.294876], [74.385377, 31.295501], [74.388311, 31.29676], [74.390727, 31.296973], [74.391822, 31.297048], [74.392675, 31.297079], [74.39387, 31.297018], [74.395201, 31.296948], [74.395863, 31.297015], [74.398746, 31.297824], [74.399537, 31.298328], [74.400379, 31.298939], [74.401901, 31.300029], [74.402819, 31.300428], [74.403367, 31.300764], [74.404286, 31.301152], [74.409352, 31.303278], [74.410379, 31.303712], [74.411642, 31.303742], [74.41251, 31.303293], [74.412937, 31.302831], [74.41306, 31.301936], [74.413155, 31.301242], [74.413378, 31.299582], [74.413705, 31.29911], [74.414181, 31.298443], [74.416343, 31.297379], [74.41719, 31.296966], [74.417825, 31.296655], [74.418388, 31.29644], [74.419062, 31.29619], [74.420073, 31.295875], [74.425158, 31.294291], [74.427424, 31.29385], [74.428553, 31.293637], [74.428986, 31.293556], [74.430076, 31.293353], [74.43135, 31.293117], [74.430265, 31.290883], [74.426781, 31.288494], [74.426689, 31.288423], [74.426605, 31.288344], [74.42653, 31.288256], [74.426464, 31.288162], [74.426408, 31.28806], [74.424673, 31.284491], [74.419326, 31.280823], [74.419234, 31.280752], [74.41915, 31.280673], [74.419074, 31.280585], [74.419008, 31.28049], [74.418953, 31.280389], [74.417089, 31.276553], [74.417049, 31.276461], [74.417017, 31.276365], [74.416995, 31.276266], [74.416981, 31.276166], [74.416976, 31.276065], [74.416976, 31.274097], [74.413734, 31.271873], [74.413634, 31.271795], [74.413543, 31.271707], [74.413463, 31.271609], [74.411599, 31.269052], [74.411535, 31.268954], [74.411482, 31.268849], [74.41144, 31.26874], [74.411409, 31.268627], [74.411391, 31.268511], [74.411385, 31.268394], [74.411385, 31.266425], [74.408143, 31.264202], [74.408057, 31.264136], [74.407977, 31.264062], [74.407905, 31.263981], [74.407841, 31.263894], [74.407786, 31.263801], [74.40774, 31.263702], [74.407704, 31.2636], [74.407678, 31.263495], [74.407663, 31.263388], [74.407657, 31.263279], [74.407657, 31.259898], [74.404432, 31.256579], [74.400958, 31.255387], [74.400855, 31.255347], [74.400757, 31.255296], [74.400665, 31.255236], [74.400579, 31.255167], [74.4005, 31.25509], [74.40043, 31.255006], [74.400367, 31.254915], [74.400315, 31.254818], [74.398451, 31.250983], [74.398411, 31.25089], [74.398379, 31.250794], [74.398356, 31.250695], [74.398343, 31.250595], [74.398338, 31.250494], [74.398338, 31.235152], [74.398343, 31.235046], [74.398358, 31.234941], [74.398383, 31.234839], [74.401957, 31.222581], [74.400417, 31.220468], [74.400359, 31.220381], [74.400311, 31.22029], [74.40027, 31.220194], [74.400239, 31.220095], [74.400217, 31.219994], [74.400205, 31.219891], [74.400202, 31.219787], [74.400209, 31.219684], [74.400226, 31.219581], [74.402089, 31.210632], [74.402133, 31.210477], [74.403997, 31.205362], [74.404043, 31.205254], [74.404101, 31.205151], [74.404168, 31.205055], [74.404246, 31.204966], [74.407807, 31.201302], [74.409521, 31.196598], [74.409521, 31.191681], [74.409526, 31.19158], [74.409539, 31.19148], [74.409562, 31.191382], [74.409593, 31.191286], [74.409634, 31.191193], [74.411497, 31.187357], [74.411553, 31.187256], [74.411619, 31.187161], [74.411695, 31.187073], [74.411779, 31.186994], [74.411871, 31.186924], [74.415112, 31.1847], [74.415112, 31.175712], [74.415112, 31.171589], [74.41391, 31.16994], [74.413463, 31.169327], [74.413399, 31.169228], [74.413346, 31.169124], [74.413304, 31.169014], [74.413273, 31.168901], [74.413255, 31.168785], [74.413249, 31.168668], [74.413249, 31.166475], [74.409802, 31.161746], [74.404293, 31.156708], [74.404246, 31.156662], [74.400596, 31.152906], [74.39696, 31.150412], [74.396872, 31.150345], [74.396791, 31.150269], [74.393063, 31.146434], [74.392975, 31.146331], [74.392899, 31.146218], [74.389298, 31.140042], [74.38205, 31.13507], [74.381963, 31.135004], [74.381884, 31.13493], [74.381812, 31.134849], [74.381748, 31.134762], [74.381693, 31.134669], [74.381647, 31.13457], [74.381611, 31.134468], [74.381585, 31.134363], [74.381569, 31.134256], [74.381564, 31.134147], [74.381564, 31.130732], [74.376249, 31.124655], [74.376178, 31.124565], [74.376117, 31.124468], [74.376066, 31.124366], [74.376025, 31.124258], [74.375996, 31.124147], [74.375978, 31.124034], [74.375973, 31.123919], [74.375973, 31.120084], [74.375978, 31.119978], [74.375993, 31.119873], [74.376017, 31.119771], [74.379661, 31.107272], [74.377868, 31.099891], [74.377847, 31.099783], [74.377837, 31.099673], [74.377838, 31.099563], [74.37785, 31.099453], [74.377873, 31.099345], [74.377906, 31.09924], [74.377949, 31.099138], [74.379813, 31.095303], [74.37987, 31.095199], [74.379938, 31.095102], [74.380017, 31.095012], [74.383428, 31.091502], [74.383428, 31.08812], [74.383432, 31.088019], [74.383446, 31.087919], [74.383469, 31.08782], [74.3835, 31.087724], [74.38354, 31.087631], [74.385404, 31.083796], [74.38547, 31.083678], [74.385551, 31.083569], [74.392747, 31.07493], [74.392747, 31.072778], [74.392753, 31.072663], [74.39277, 31.07255], [74.392799, 31.072439], [74.39284, 31.072331], [74.392891, 31.072229], [74.392952, 31.072132], [74.393023, 31.072042], [74.398516, 31.065762], [74.400202, 31.062292], [74.400202, 31.057435], [74.400207, 31.057328], [74.400223, 31.057221], [74.400248, 31.057117], [74.400284, 31.057015], [74.400329, 31.056917], [74.400384, 31.056824], [74.400447, 31.056737], [74.400518, 31.056656], [74.404019, 31.053054], [74.404302, 31.051695], [74.405464, 31.046116], [74.405817, 31.044422]], [[74.391135, 31.178434], [74.391266, 31.178351], [74.391332, 31.178351], [74.391135, 31.178434]], [[74.386526, 31.203044], [74.384391, 31.203618], [74.38295, 31.2022], [74.386526, 31.203044]], [[74.336305, 31.267698], [74.337795, 31.266743], [74.337736, 31.266919], [74.336305, 31.267698]], [[74.232992, 31.25991], [74.233192, 31.259668], [74.235416, 31.262194], [74.235482, 31.262459], [74.232992, 31.25991]], [[74.22615, 31.251668], [74.231301, 31.257519], [74.230565, 31.2573], [74.22615, 31.251668]], [[74.20148, 31.235144], [74.204451, 31.234328], [74.205615, 31.234235], [74.203395, 31.235178], [74.20148, 31.235144]], [[74.309185, 30.810223], [74.30835, 30.807078], [74.309419, 30.810076], [74.309185, 30.810223]]]]}}, {"type": "Feature", "properties": {"na": "NA-134", "src": "sheet-split: kasur_na132.jpg, outline-fit", "approx": false, "rms_km": 2.174}, "geometry": {"type": "Polygon", "coordinates": [[[74.062853, 31.232595], [74.06286, 31.232477], [74.062878, 31.232362], [74.062908, 31.232248], [74.062951, 31.232139], [74.063004, 31.232034], [74.063068, 31.231936], [74.064932, 31.229379], [74.065003, 31.22929], [74.065084, 31.22921], [74.065172, 31.229138], [74.065266, 31.229075], [74.065367, 31.229022], [74.065473, 31.22898], [74.0692, 31.227701], [74.069302, 31.227672], [74.069405, 31.227652], [74.06951, 31.227642], [74.069616, 31.227642], [74.069721, 31.227652], [74.069825, 31.227672], [74.069926, 31.227701], [74.073424, 31.228901], [74.085942, 31.227674], [74.089341, 31.225343], [74.092936, 31.221644], [74.094538, 31.219445], [74.094538, 31.212502], [74.093002, 31.210395], [74.087569, 31.206668], [74.087482, 31.206602], [74.087403, 31.206528], [74.087331, 31.206447], [74.087267, 31.20636], [74.087212, 31.206266], [74.087166, 31.206168], [74.08713, 31.206066], [74.087104, 31.205961], [74.087088, 31.205854], [74.087083, 31.205745], [74.087083, 31.199353], [74.087089, 31.199236], [74.087107, 31.19912], [74.087138, 31.199006], [74.08718, 31.198897], [74.087233, 31.198792], [74.087298, 31.198694], [74.091025, 31.19358], [74.091105, 31.193482], [74.091196, 31.193394], [74.091296, 31.193316], [74.095024, 31.190759], [74.09511, 31.190706], [74.0952, 31.190661], [74.095294, 31.190624], [74.099021, 31.189345], [74.09914, 31.189312], [74.099261, 31.189291], [74.099384, 31.189285], [74.108356, 31.189285], [74.117146, 31.183255], [74.120631, 31.176082], [74.120631, 31.160172], [74.11722, 31.156662], [74.117149, 31.156581], [74.117086, 31.156494], [74.117031, 31.156401], [74.116986, 31.156303], [74.11695, 31.156201], [74.116925, 31.156097], [74.116909, 31.15599], [74.116904, 31.155883], [74.116904, 31.151215], [74.116853, 31.151171], [74.116762, 31.151106], [74.116665, 31.15105], [74.116563, 31.151004], [74.116456, 31.150969], [74.116347, 31.150945], [74.108892, 31.149666], [74.108781, 31.149653], [74.108669, 31.149651], [74.108558, 31.14966], [74.108448, 31.14968], [74.10834, 31.149711], [74.104669, 31.15097], [74.099258, 31.152207], [74.091929, 31.152207], [74.091802, 31.152214], [74.080619, 31.153493], [74.080511, 31.153511], [74.080406, 31.153539], [74.080304, 31.153577], [74.080206, 31.153625], [74.080113, 31.153682], [74.072944, 31.1586], [74.067943, 31.1586], [74.062573, 31.156144], [74.062484, 31.156108], [74.062391, 31.156079], [74.062297, 31.156059], [74.054872, 31.154786], [74.049311, 31.153514], [74.049213, 31.153496], [74.039894, 31.152218], [74.039742, 31.152207], [74.025018, 31.152207], [74.021611, 31.151039], [74.01251, 31.144795], [74.00886, 31.141039], [74.008778, 31.140964], [74.00869, 31.140896], [73.995644, 31.131947], [73.995548, 31.131888], [73.995447, 31.131839], [73.995342, 31.131801], [73.995234, 31.131773], [73.995123, 31.131756], [73.995011, 31.131751], [73.991379, 31.131751], [73.984017, 31.130488], [73.983906, 31.130475], [73.983794, 31.130473], [73.983683, 31.130482], [73.983573, 31.130502], [73.983465, 31.130533], [73.979794, 31.131792], [73.974383, 31.133029], [73.967054, 31.133029], [73.966931, 31.133036], [73.96681, 31.133056], [73.966691, 31.13309], [73.962964, 31.134368], [73.96287, 31.134405], [73.962779, 31.134451], [73.962694, 31.134504], [73.959252, 31.136865], [73.952144, 31.136865], [73.952032, 31.13687], [73.951921, 31.136887], [73.951812, 31.136915], [73.951707, 31.136953], [73.951606, 31.137002], [73.951511, 31.137061], [73.948069, 31.139422], [73.937359, 31.139422], [73.931949, 31.138185], [73.928354, 31.136952], [73.92097, 31.133153], [73.920869, 31.133107], [73.920763, 31.133071], [73.920654, 31.133046], [73.920543, 31.133032], [73.920431, 31.13303], [73.92032, 31.133038], [73.92021, 31.133057], [73.914929, 31.134265], [73.911647, 31.133139], [73.908045, 31.130668], [73.907955, 31.130613], [73.907861, 31.130566], [73.907763, 31.130528], [73.907661, 31.1305], [73.902278, 31.129269], [73.897106, 31.125721], [73.895371, 31.122152], [73.895316, 31.122051], [73.89525, 31.121956], [73.895174, 31.121868], [73.89509, 31.121789], [73.894998, 31.121718], [73.882437, 31.113102], [73.882437, 31.111134], [73.882431, 31.111017], [73.882413, 31.110901], [73.882382, 31.110787], [73.88234, 31.110678], [73.882287, 31.110573], [73.882223, 31.110475], [73.880359, 31.107918], [73.880279, 31.10782], [73.880188, 31.107732], [73.880088, 31.107655], [73.87636, 31.105098], [73.876274, 31.105044], [73.876184, 31.104999], [73.87609, 31.104962], [73.868635, 31.102405], [73.868549, 31.102379], [73.868461, 31.10236], [73.861006, 31.101082], [73.860944, 31.101073], [73.849761, 31.099795], [73.849634, 31.099787], [73.829479, 31.099787], [73.826523, 31.09776], [73.826523, 31.093335], [73.828369, 31.083207], [73.828383, 31.083094], [73.828387, 31.082981], [73.828378, 31.082868], [73.828359, 31.082757], [73.828328, 31.082648], [73.828286, 31.082543], [73.828234, 31.082442], [73.828172, 31.082347], [73.824659, 31.077528], [73.824659, 31.075495], [73.826401, 31.069522], [73.829934, 31.065886], [73.830006, 31.065805], [73.830069, 31.065718], [73.830123, 31.065625], [73.830169, 31.065527], [73.830204, 31.065425], [73.83023, 31.065321], [73.830246, 31.065214], [73.830251, 31.065107], [73.830251, 31.060581], [73.833317, 31.058478], [73.838523, 31.057288], [73.851259, 31.058536], [73.854863, 31.059772], [73.854974, 31.059804], [73.855088, 31.059824], [73.855203, 31.059832], [73.855319, 31.059828], [73.855434, 31.059813], [73.855546, 31.059785], [73.855655, 31.059746], [73.85576, 31.059697], [73.855858, 31.059636], [73.86145, 31.055801], [73.861538, 31.055733], [73.861619, 31.055658], [73.869074, 31.047987], [73.869152, 31.047897], [73.869221, 31.0478], [73.869278, 31.047696], [73.871142, 31.04386], [73.871182, 31.043767], [73.871213, 31.043671], [73.871236, 31.043573], [73.87125, 31.043473], [73.871254, 31.043372], [73.871254, 31.041268], [73.874666, 31.037758], [73.874737, 31.037677], [73.8748, 31.03759], [73.874855, 31.037497], [73.8749, 31.037399], [73.874936, 31.037298], [73.874961, 31.037193], [73.874977, 31.037086], [73.874982, 31.036979], [73.874982, 31.026884], [73.876814, 31.019343], [73.876835, 31.019233], [73.876845, 31.01912], [73.876843, 31.019007], [73.876831, 31.018895], [73.876806, 31.018785], [73.876771, 31.018678], [73.876725, 31.018575], [73.876669, 31.018477], [73.876604, 31.018385], [73.876529, 31.0183], [73.872927, 31.014593], [73.871318, 31.011281], [73.873087, 31.004001], [73.87311, 31.00387], [73.873118, 31.003737], [73.873118, 31.00118], [73.87311, 31.001047], [73.873087, 31.000916], [73.871223, 30.993245], [73.871189, 30.993131], [73.871142, 30.993021], [73.871085, 30.992917], [73.871016, 30.992819], [73.870938, 30.992729], [73.867336, 30.989023], [73.865551, 30.985349], [73.865498, 30.985252], [73.865435, 30.985161], [73.865365, 30.985077], [73.865286, 30.985], [73.8652, 30.984931], [73.865108, 30.984871], [73.86501, 30.984821], [73.864908, 30.98478], [73.86118, 30.983501], [73.861061, 30.983468], [73.86094, 30.983447], [73.860817, 30.983441], [73.853548, 30.983441], [73.850141, 30.982272], [73.847207, 30.980259], [73.848844, 30.974644], [73.848871, 30.974527], [73.848886, 30.974408], [73.848888, 30.974289], [73.848877, 30.974169], [73.847013, 30.961384], [73.846993, 30.96128], [73.846963, 30.961178], [73.846923, 30.961079], [73.846874, 30.960985], [73.846817, 30.960895], [73.846751, 30.960812], [73.846678, 30.960735], [73.846597, 30.960666], [73.846511, 30.960604], [73.846418, 30.960551], [73.846322, 30.960507], [73.846221, 30.960472], [73.846118, 30.960447], [73.846013, 30.960432], [73.845907, 30.960427], [73.840466, 30.960427], [73.831292, 30.95791], [73.831245, 30.957898], [73.825654, 30.95662], [73.825544, 30.9566], [73.825432, 30.956592], [73.82532, 30.956595], [73.808664, 30.957864], [73.799464, 30.956602], [73.799362, 30.956593], [73.799261, 30.956593], [73.79916, 30.956602], [73.789916, 30.95787], [73.784588, 30.95787], [73.781036, 30.956652], [73.780918, 30.956618], [73.780796, 30.956598], [73.780674, 30.956591], [73.769491, 30.956591], [73.769379, 30.956597], [73.769268, 30.956614], [73.76916, 30.956642], [73.769054, 30.95668], [73.768954, 30.956729], [73.768858, 30.956788], [73.765416, 30.959149], [73.762382, 30.959149], [73.757284, 30.955651], [73.753682, 30.949475], [73.75362, 30.94938], [73.753549, 30.949292], [73.753468, 30.949211], [73.753455, 30.9492], [73.753465, 30.949685], [73.75348, 30.950434], [73.753393, 30.951159], [73.7535, 30.951872], [73.753527, 30.95295], [73.754197, 30.954103], [73.754816, 30.955075], [73.755087, 30.955463], [73.757198, 30.9585], [73.758725, 30.961016], [73.761779, 30.966048], [73.762231, 30.966792], [73.762602, 30.967398], [73.762967, 30.968691], [73.764314, 30.973433], [73.764677, 30.97471], [73.765122, 30.976245], [73.765146, 30.97765], [73.765223, 30.979198], [73.765095, 30.979934], [73.764647, 30.981642], [73.764408, 30.98255], [73.764199, 30.983346], [73.762876, 30.990473], [73.762281, 30.992488], [73.760272, 30.992858], [73.759683, 30.99291], [73.758162, 30.993039], [73.754284, 30.993296], [73.753015, 30.993378], [73.751653, 30.993782], [73.747948, 30.994896], [73.744549, 30.995918], [73.742911, 30.996411], [73.741833, 30.997126], [73.736441, 31.000701], [73.731522, 31.005124], [73.730681, 31.00588], [73.730063, 31.006979], [73.72647, 31.01336], [73.724215, 31.01974], [73.723651, 31.021335], [73.723481, 31.021826], [73.723342, 31.022234], [73.722238, 31.025495], [73.721825, 31.026718], [73.721649, 31.027241], [73.719262, 31.034301], [73.719067, 31.034781], [73.718834, 31.035325], [73.717147, 31.039279], [73.71669, 31.040352], [73.715753, 31.041102], [73.712901, 31.043391], [73.712036, 31.044084], [73.710964, 31.044443], [73.706969, 31.045769], [73.704124, 31.046709], [73.702848, 31.04713], [73.695671, 31.049456], [73.694405, 31.049867], [73.693561, 31.050141], [73.692353, 31.050449], [73.691057, 31.050778], [73.688135, 31.051521], [73.687614, 31.051654], [73.683258, 31.052762], [73.681515, 31.053205], [73.680635, 31.053429], [73.680197, 31.053555], [73.678475, 31.05405], [73.678042, 31.054174], [73.677118, 31.054461], [73.676205, 31.054769], [73.669909, 31.056886], [73.668942, 31.057222], [73.664527, 31.059054], [73.663748, 31.059378], [73.66196, 31.060976], [73.661638, 31.063112], [73.662053, 31.064739], [73.663158, 31.066386], [73.664671, 31.068551], [73.664685, 31.071603], [73.664515, 31.072534], [73.664294, 31.07374], [73.663759, 31.075285], [73.663219, 31.076843], [73.663034, 31.077411], [73.662644, 31.078809], [73.662209, 31.080368], [73.662381, 31.081192], [73.662446, 31.0815], [73.662786, 31.08313], [73.663027, 31.084301], [73.664146, 31.08543], [73.665, 31.086292], [73.665711, 31.086661], [73.666676, 31.087161], [73.668052, 31.087863], [73.668578, 31.088071], [73.674628, 31.090376], [73.676669, 31.091538], [73.677199, 31.09184], [73.678957, 31.093379], [73.679248, 31.093884], [73.679496, 31.094537], [73.679661, 31.094973], [73.679566, 31.09543], [73.679062, 31.097834], [73.678853, 31.098655], [73.677344, 31.101007], [73.676231, 31.10272], [73.675695, 31.104961], [73.675279, 31.106702], [73.674094, 31.10908], [73.671135, 31.115022], [73.67057, 31.116152], [73.670196, 31.116907], [73.669894, 31.117519], [73.669001, 31.118906], [73.668333, 31.119947], [73.667443, 31.121336], [73.666377, 31.122997], [73.666057, 31.12343], [73.665715, 31.124028], [73.665397, 31.124553], [73.664975, 31.125267], [73.664527, 31.126024], [73.662065, 31.130185], [73.661417, 31.131281], [73.66076, 31.132386], [73.660065, 31.133242], [73.658495, 31.135171], [73.657648, 31.136213], [73.656244, 31.137109], [73.653935, 31.138573], [73.657002, 31.141628], [73.657612, 31.142242], [73.659128, 31.14391], [73.660538, 31.147018], [73.661099, 31.148255], [73.662349, 31.149064], [73.663906, 31.147985], [73.666497, 31.146186], [73.666941, 31.145954], [73.667968, 31.14543], [73.66871, 31.145069], [73.669887, 31.144498], [73.671221, 31.144413], [73.672652, 31.144322], [73.673873, 31.144873], [73.675155, 31.145454], [73.675872, 31.145818], [73.678477, 31.14703], [73.679234, 31.147378], [73.68023, 31.148018], [73.68229, 31.149342], [73.68341, 31.150062], [73.684637, 31.151205], [73.685251, 31.151776], [73.685762, 31.152252], [73.686348, 31.152877], [73.690443, 31.157252], [73.691159, 31.158031], [73.69174, 31.158731], [73.693836, 31.16127], [73.694114, 31.16161], [73.695252, 31.163019], [73.696856, 31.166938], [73.697315, 31.168058], [73.698068, 31.169901], [73.699003, 31.170715], [73.701743, 31.173108], [73.70228, 31.173577], [73.704155, 31.174335], [73.707038, 31.173326], [73.707891, 31.172385], [73.711167, 31.16871], [73.713541, 31.16623], [73.714461, 31.16527], [73.715256, 31.164962], [73.716352, 31.164539], [73.717249, 31.164392], [73.718707, 31.164152], [73.720325, 31.16465], [73.720995, 31.164873], [73.722055, 31.165366], [73.722797, 31.165636], [73.723229, 31.165855], [73.723948, 31.166247], [73.72438, 31.166447], [73.731385, 31.170294], [73.731977, 31.170625], [73.732348, 31.170882], [73.733219, 31.17149], [73.735173, 31.172855], [73.735872, 31.173368], [73.736358, 31.1739], [73.737411, 31.175052], [73.73786, 31.176515], [73.738021, 31.177039], [73.737925, 31.177787], [73.737843, 31.17843], [73.738009, 31.180021], [73.738636, 31.18241], [73.73925, 31.183543], [73.739845, 31.18464], [73.740502, 31.185774], [73.741016, 31.187359], [73.741164, 31.187838], [73.741433, 31.188746], [73.741492, 31.189273], [73.741805, 31.192862], [73.74189, 31.193495], [73.742332, 31.194877], [73.742584, 31.19566], [73.74323, 31.196043], [73.744299, 31.196654], [73.746876, 31.198129], [73.750368, 31.199707], [73.751558, 31.200244], [73.751986, 31.200444], [73.754794, 31.201769], [73.756508, 31.202624], [73.757137, 31.202929], [73.757765, 31.203209], [73.759231, 31.203862], [73.761975, 31.204478], [73.764251, 31.20469], [73.765507, 31.204553], [73.766812, 31.20441], [73.767718, 31.204554], [73.770349, 31.204975], [73.771544, 31.205597], [73.774706, 31.207244], [73.775654, 31.207752], [73.776195, 31.208123], [73.778731, 31.209884], [73.780569, 31.211149], [73.781773, 31.211586], [73.78371, 31.212286], [73.784897, 31.212715], [73.786137, 31.212642], [73.7879, 31.212534], [73.789665, 31.21253], [73.790127, 31.212518], [73.790919, 31.212523], [73.791484, 31.21253], [73.792019, 31.212537], [73.792978, 31.212549], [73.794234, 31.212772], [73.794686, 31.212852], [73.795111, 31.212927], [73.795962, 31.213079], [73.797021, 31.213474], [73.79963, 31.214449], [73.800444, 31.214754], [73.801081, 31.215083], [73.802709, 31.215914], [73.804513, 31.216846], [73.805178, 31.217192], [73.805776, 31.217646], [73.807317, 31.218817], [73.807799, 31.219183], [73.808402, 31.21964], [73.809285, 31.221218], [73.809998, 31.222643], [73.810132, 31.224098], [73.81144, 31.225468], [73.812002, 31.225565], [73.812471, 31.225646], [73.813848, 31.225105], [73.815521, 31.224382], [73.816245, 31.223944], [73.818516, 31.222569], [73.818882, 31.222348], [73.819537, 31.221951], [73.8219, 31.219898], [73.822475, 31.219049], [73.823153, 31.218047], [73.823963, 31.216851], [73.825253, 31.216207], [73.825794, 31.216006], [73.827218, 31.215958], [73.828015, 31.216155], [73.82923, 31.216456], [73.830208, 31.216749], [73.831073, 31.217327], [73.831508, 31.217617], [73.833603, 31.219018], [73.834311, 31.219491], [73.836462, 31.221099], [73.837529, 31.221897], [73.837976, 31.222101], [73.838378, 31.222286], [73.839538, 31.222817], [73.83999, 31.223004], [73.840729, 31.223308], [73.841815, 31.223756], [73.84427, 31.223845], [73.846158, 31.222876], [73.846919, 31.222486], [73.848506, 31.221673], [73.849296, 31.221486], [73.851328, 31.221022], [73.854318, 31.221552], [73.854961, 31.221882], [73.855541, 31.222159], [73.859446, 31.224028], [73.861788, 31.225151], [73.863501, 31.225631], [73.864546, 31.225923], [73.865072, 31.22607], [73.865885, 31.226345], [73.867936, 31.226967], [73.870112, 31.227613], [73.871429, 31.227878], [73.875809, 31.228753], [73.880153, 31.229649], [73.881036, 31.229831], [73.884088, 31.229303], [73.886084, 31.227842], [73.887388, 31.226888], [73.889541, 31.226391], [73.890768, 31.226786], [73.891341, 31.226986], [73.891937, 31.227254], [73.893951, 31.22798], [73.894372, 31.228131], [73.894907, 31.228428], [73.896467, 31.22929], [73.897074, 31.229563], [73.897791, 31.230008], [73.898353, 31.230333], [73.898776, 31.230607], [73.902797, 31.23333], [73.903386, 31.233783], [73.904412, 31.234505], [73.904756, 31.235096], [73.905023, 31.235561], [73.905725, 31.236308], [73.906453, 31.237079], [73.907112, 31.239214], [73.90736, 31.241558], [73.907555, 31.243389], [73.907847, 31.244646], [73.908605, 31.245725], [73.908852, 31.246076], [73.909099, 31.246427], [73.909861, 31.247511], [73.911007, 31.248093], [73.911793, 31.248492], [73.913806, 31.249515], [73.91478, 31.250009], [73.915513, 31.250592], [73.916466, 31.251349], [73.917096, 31.25185], [73.917459, 31.25208], [73.918294, 31.253282], [73.918571, 31.253689], [73.918623, 31.254412], [73.918679, 31.25518], [73.91797, 31.257461], [73.916557, 31.258393], [73.914071, 31.260036], [73.913707, 31.260279], [73.912711, 31.260888], [73.912324, 31.261125], [73.910598, 31.262182], [73.909838, 31.262949], [73.907523, 31.265285], [73.906934, 31.265879], [73.906604, 31.266317], [73.906321, 31.267194], [73.905857, 31.268633], [73.905523, 31.269675], [73.905929, 31.271048], [73.906129, 31.271692], [73.9076, 31.273023], [73.908571, 31.273331], [73.910914, 31.274075], [73.915093, 31.274861], [73.917121, 31.275242], [73.918313, 31.275544], [73.918734, 31.27565], [73.919557, 31.275859], [73.920999, 31.276224], [73.921531, 31.276359], [73.921941, 31.276563], [73.922851, 31.277015], [73.923621, 31.277398], [73.924439, 31.279077], [73.924437, 31.280109], [73.924434, 31.281152], [73.925737, 31.282731], [73.926311, 31.282886], [73.927741, 31.283273], [73.929611, 31.28439], [73.930204, 31.284791], [73.933357, 31.288656], [73.93376, 31.289152], [73.934176, 31.28966], [73.934901, 31.29021], [73.93525, 31.290472], [73.935598, 31.290734], [73.936663, 31.291535], [73.937894, 31.29184], [73.941649, 31.29276], [73.942718, 31.293023], [73.943731, 31.293064], [73.945919, 31.293155], [73.951559, 31.293389], [73.952379, 31.293422], [73.952903, 31.293394], [73.958254, 31.293094], [73.959356, 31.293031], [73.960472, 31.293079], [73.963957, 31.29323], [73.964858, 31.293269], [73.965499, 31.293374], [73.967213, 31.293652], [73.968068, 31.29379], [73.968906, 31.294067], [73.970156, 31.29448], [73.971414, 31.294892], [73.972524, 31.295577], [73.976973, 31.298313], [73.977715, 31.29877], [73.978148, 31.299039], [73.978544, 31.299316], [73.980416, 31.300601], [73.985347, 31.303996], [73.98616, 31.304557], [73.988617, 31.306999], [73.98952, 31.3079], [73.990977, 31.308043], [73.994069, 31.308346], [73.995073, 31.308445], [73.996415, 31.308174], [74.001058, 31.307236], [74.002342, 31.306976], [74.003108, 31.306787], [74.005637, 31.305563], [74.00682, 31.304991], [74.009328, 31.304428], [74.010378, 31.304673], [74.012754, 31.305231], [74.013335, 31.305368], [74.013867, 31.305492], [74.016307, 31.30765], [74.016769, 31.308829], [74.017338, 31.31015], [74.018588, 31.311541], [74.020397, 31.312102], [74.021307, 31.312387], [74.022145, 31.312396], [74.026199, 31.31245], [74.026834, 31.312412], [74.030483, 31.312121], [74.034661, 31.31171], [74.035715, 31.309692], [74.036041, 31.309071], [74.036926, 31.308612], [74.037699, 31.308211], [74.03809, 31.307583], [74.040129, 31.304324], [74.041728, 31.302128], [74.042719, 31.300296], [74.043323, 31.299179], [74.043747, 31.298677], [74.044253, 31.29808], [74.047397, 31.294376], [74.04834, 31.293269], [74.049769, 31.292512], [74.053805, 31.290574], [74.054969, 31.290018], [74.056156, 31.289777], [74.059948, 31.28893], [74.060522, 31.288701], [74.062617, 31.286619], [74.063183, 31.286057], [74.063606, 31.285305], [74.063965, 31.284663], [74.064607, 31.283516], [74.064857, 31.283069], [74.065092, 31.28265], [74.065225, 31.282196], [74.065451, 31.281695], [74.065608, 31.280967], [74.06629, 31.277801], [74.067913, 31.276506], [74.068303, 31.276225], [74.068303, 31.276225], [74.068067, 31.276395], [74.06782, 31.276225], [74.066951, 31.276225], [74.064335, 31.277123], [74.064221, 31.277155], [74.05863, 31.278433], [74.058506, 31.278455], [74.05838, 31.278462], [74.047198, 31.278462], [74.047078, 31.278455], [74.04696, 31.278436], [74.046844, 31.278404], [74.046732, 31.27836], [74.041141, 31.275803], [74.041039, 31.27575], [74.040944, 31.275687], [74.040855, 31.275615], [74.040774, 31.275534], [74.040702, 31.275445], [74.038839, 31.272888], [74.038775, 31.27279], [74.038721, 31.272685], [74.038679, 31.272576], [74.038649, 31.272462], [74.03863, 31.272346], [74.038624, 31.272229], [74.038624, 31.268983], [74.033518, 31.26548], [74.033432, 31.265415], [74.033352, 31.265341], [74.03328, 31.26526], [74.033217, 31.265172], [74.033161, 31.265079], [74.033116, 31.264981], [74.03308, 31.264879], [74.033054, 31.264773], [74.033038, 31.264666], [74.033033, 31.264558], [74.033033, 31.260722], [74.033039, 31.260605], [74.033057, 31.260489], [74.033088, 31.260376], [74.03313, 31.260266], [74.033183, 31.260162], [74.033247, 31.260064], [74.035111, 31.257507], [74.035176, 31.257425], [74.035249, 31.257351], [74.035328, 31.257283], [74.035413, 31.257223], [74.035503, 31.257171], [74.042958, 31.253335], [74.043062, 31.253288], [74.04317, 31.253252], [74.043281, 31.253227], [74.050289, 31.252026], [74.051671, 31.25013], [74.051671, 31.247937], [74.051675, 31.247836], [74.051689, 31.247736], [74.051712, 31.247637], [74.051743, 31.247541], [74.051783, 31.247448], [74.053647, 31.243613], [74.053694, 31.243525], [74.053749, 31.243443], [74.057477, 31.238329], [74.057549, 31.23824], [74.057629, 31.238159], [74.057718, 31.238086], [74.057814, 31.238023], [74.057915, 31.23797], [74.062024, 31.236091], [74.062024, 31.236091], [74.062853, 31.235712], [74.062853, 31.233815], [74.062853, 31.232595]]]}}, {"type": "Feature", "properties": {"na": "NA-133", "src": "sheet-split: kasur_na132.jpg, outline-fit", "approx": false, "rms_km": 2.174}, "geometry": {"type": "Polygon", "coordinates": [[[74.153624, 30.659184], [74.151601, 30.662984], [74.151399, 30.663364], [74.15033, 30.665278], [74.149392, 30.666334], [74.148391, 30.667463], [74.147835, 30.668093], [74.146924, 30.668868], [74.144963, 30.670488], [74.139654, 30.672361], [74.139093, 30.672682], [74.138291, 30.673223], [74.137139, 30.673999], [74.136724, 30.675251], [74.136329, 30.67644], [74.13596, 30.677554], [74.13606, 30.678869], [74.136141, 30.679843], [74.136214, 30.681674], [74.136249, 30.682562], [74.136301, 30.683947], [74.136222, 30.68454], [74.135963, 30.686413], [74.135855, 30.687187], [74.134933, 30.689193], [74.133822, 30.689992], [74.132191, 30.690366], [74.131777, 30.690461], [74.131124, 30.690591], [74.128044, 30.691001], [74.126136, 30.69192], [74.12558, 30.69221], [74.124432, 30.692812], [74.123775, 30.693409], [74.122209, 30.69484], [74.121864, 30.695153], [74.12157, 30.695502], [74.12098, 30.696214], [74.120547, 30.696736], [74.119884, 30.697538], [74.119502, 30.698253], [74.117918, 30.701281], [74.117403, 30.702269], [74.117175, 30.703153], [74.115871, 30.708487], [74.115588, 30.712407], [74.114979, 30.717441], [74.114871, 30.718307], [74.114378, 30.719386], [74.114142, 30.719897], [74.113593, 30.720614], [74.112727, 30.721699], [74.112042, 30.722563], [74.111118, 30.723193], [74.108623, 30.724898], [74.105906, 30.72661], [74.103374, 30.728203], [74.100295, 30.730091], [74.097389, 30.731787], [74.096758, 30.732155], [74.094883, 30.733857], [74.094109, 30.73543], [74.094039, 30.736434], [74.093862, 30.738941], [74.093092, 30.74213], [74.092172, 30.743192], [74.088818, 30.745961], [74.087821, 30.746782], [74.086309, 30.747697], [74.085112, 30.748421], [74.08213, 30.750225], [74.081224, 30.750773], [74.079213, 30.751979], [74.074261, 30.754372], [74.073189, 30.754889], [74.072207, 30.75603], [74.071636, 30.757687], [74.071882, 30.758933], [74.072376, 30.76106], [74.072534, 30.761752], [74.073139, 30.762895], [74.073547, 30.763666], [74.074244, 30.764948], [74.074894, 30.765893], [74.075778, 30.767178], [74.076105, 30.768154], [74.076589, 30.7696], [74.076691, 30.77069], [74.076748, 30.771794], [74.076811, 30.773021], [74.076547, 30.77405], [74.076097, 30.775802], [74.07589, 30.776611], [74.07552, 30.777344], [74.073637, 30.781074], [74.069488, 30.78913], [74.069347, 30.789593], [74.068327, 30.791465], [74.06794, 30.792248], [74.067289, 30.793103], [74.06681, 30.793732], [74.066477, 30.794005], [74.065841, 30.794526], [74.065437, 30.794856], [74.064857, 30.795326], [74.063361, 30.795981], [74.062023, 30.796065], [74.061257, 30.796114], [74.060465, 30.796131], [74.058616, 30.795948], [74.054598, 30.795548], [74.04967, 30.795022], [74.048186, 30.79482], [74.046317, 30.79497], [74.045145, 30.795055], [74.043567, 30.795168], [74.041915, 30.795491], [74.035849, 30.796688], [74.034569, 30.796941], [74.033358, 30.797428], [74.029204, 30.799098], [74.027681, 30.799738], [74.02632, 30.801084], [74.025653, 30.802503], [74.025351, 30.803148], [74.025126, 30.803634], [74.024201, 30.806118], [74.023853, 30.807042], [74.023224, 30.807749], [74.022935, 30.808068], [74.022646, 30.808385], [74.021471, 30.809678], [74.020108, 30.810111], [74.01886, 30.810139], [74.018338, 30.810151], [74.01754, 30.81017], [74.015882, 30.8113], [74.015352, 30.812483], [74.014288, 30.814888], [74.013993, 30.815554], [74.013891, 30.816514], [74.013739, 30.817943], [74.013612, 30.81917], [74.013964, 30.820827], [74.014317, 30.822486], [74.014768, 30.824597], [74.015436, 30.827198], [74.015869, 30.828879], [74.014462, 30.829717], [74.012378, 30.830957], [74.011962, 30.831183], [74.011545, 30.83132], [74.007089, 30.832752], [74.00663, 30.832902], [74.006166, 30.832953], [74.004725, 30.833111], [74.004087, 30.833181], [74.003108, 30.833288], [74.00216, 30.833017], [74.000429, 30.832522], [73.999247, 30.831449], [73.998763, 30.830764], [73.997275, 30.828664], [73.997003, 30.828277], [73.996207, 30.826751], [73.995428, 30.825255], [73.994114, 30.822729], [73.993521, 30.821666], [73.992829, 30.82093], [73.991681, 30.8203], [73.989882, 30.820161], [73.987973, 30.820582], [73.987105, 30.821621], [73.986658, 30.823344], [73.9859, 30.82624], [73.985051, 30.827278], [73.98478, 30.82761], [73.98285, 30.828848], [73.982049, 30.829131], [73.980387, 30.82972], [73.97935, 30.830667], [73.978035, 30.83237], [73.97702, 30.833713], [73.976236, 30.83416], [73.975393, 30.834641], [73.974259, 30.834776], [73.972381, 30.835001], [73.968123, 30.834986], [73.96681, 30.835035], [73.965933, 30.835084], [73.964666, 30.835269], [73.961267, 30.835773], [73.96068, 30.83589], [73.959854, 30.836062], [73.957131, 30.837077], [73.955907, 30.837804], [73.949791, 30.841454], [73.947177, 30.843107], [73.945691, 30.844134], [73.944946, 30.844658], [73.943849, 30.845778], [73.94328, 30.848067], [73.943472, 30.849029], [73.944051, 30.849824], [73.94453, 30.850508], [73.945068, 30.851851], [73.94526, 30.852331], [73.945185, 30.852857], [73.945098, 30.853475], [73.944965, 30.854424], [73.9449, 30.854883], [73.944663, 30.855237], [73.944148, 30.856004], [73.943692, 30.856391], [73.941923, 30.857589], [73.937636, 30.859767], [73.93674, 30.860218], [73.935848, 30.860576], [73.933841, 30.86135], [73.932649, 30.86181], [73.93138, 30.862092], [73.925483, 30.863399], [73.924825, 30.863549], [73.924074, 30.863642], [73.920779, 30.863941], [73.919268, 30.863918], [73.918166, 30.863903], [73.916918, 30.863522], [73.916755, 30.862944], [73.916606, 30.862416], [73.916728, 30.860873], [73.916742, 30.860394], [73.916771, 30.858906], [73.916623, 30.858488], [73.916282, 30.857792], [73.915636, 30.857201], [73.914018, 30.857162], [73.913582, 30.857205], [73.911443, 30.857418], [73.910193, 30.85754], [73.905819, 30.857681], [73.899161, 30.85788], [73.894692, 30.857452], [73.892788, 30.857469], [73.891731, 30.857478], [73.888991, 30.858459], [73.886823, 30.860051], [73.885577, 30.860966], [73.884698, 30.861611], [73.884024, 30.861922], [73.881814, 30.862939], [73.880558, 30.863017], [73.877655, 30.863194], [73.876359, 30.863261], [73.874601, 30.862848], [73.871929, 30.862229], [73.869841, 30.862164], [73.869038, 30.862143], [73.864844, 30.862013], [73.862587, 30.861954], [73.859795, 30.862135], [73.858187, 30.862239], [73.856937, 30.863037], [73.852989, 30.865547], [73.852049, 30.866157], [73.851487, 30.866892], [73.849907, 30.868982], [73.84931, 30.869771], [73.84867, 30.872021], [73.848636, 30.872722], [73.848524, 30.875035], [73.848469, 30.876406], [73.849215, 30.879476], [73.849323, 30.879912], [73.849693, 30.881425], [73.849402, 30.883134], [73.849259, 30.883978], [73.849042, 30.885268], [73.848553, 30.886235], [73.847094, 30.889116], [73.844842, 30.893561], [73.840732, 30.899914], [73.839533, 30.901769], [73.838499, 30.903102], [73.837725, 30.904102], [73.836692, 30.905434], [73.836056, 30.906251], [73.834967, 30.907591], [73.8344, 30.908274], [73.829892, 30.913764], [73.829167, 30.914645], [73.827903, 30.916191], [73.826823, 30.918201], [73.8261, 30.919549], [73.825585, 30.920608], [73.825174, 30.921454], [73.822179, 30.927565], [73.81947, 30.931274], [73.817665, 30.932985], [73.81678, 30.933821], [73.815002, 30.933968], [73.814565, 30.934004], [73.814107, 30.934042], [73.813553, 30.934089], [73.81275, 30.933922], [73.812194, 30.933807], [73.808375, 30.933015], [73.807311, 30.932794], [73.805732, 30.932075], [73.801866, 30.93017], [73.801207, 30.929844], [73.800449, 30.92944], [73.796315, 30.927243], [73.795188, 30.926645], [73.794499, 30.926282], [73.793234, 30.925783], [73.788656, 30.923981], [73.786573, 30.923159], [73.784779, 30.9238], [73.783832, 30.924139], [73.781524, 30.925975], [73.778282, 30.92855], [73.777595, 30.929109], [73.776969, 30.929677], [73.774583, 30.931833], [73.774185, 30.932189], [73.773789, 30.932548], [73.773355, 30.932847], [73.77292, 30.933145], [73.769931, 30.935197], [73.766566, 30.937506], [73.765796, 30.938071], [73.765221, 30.938492], [73.763078, 30.939992], [73.761732, 30.941062], [73.761164, 30.941508], [73.757331, 30.944353], [73.756351, 30.945077], [73.755576, 30.945811], [73.754961, 30.946426], [73.753817, 30.947569], [73.75345, 30.948995], [73.753455, 30.9492], [73.753468, 30.949211], [73.753549, 30.949292], [73.75362, 30.94938], [73.753682, 30.949475], [73.757284, 30.955651], [73.762382, 30.959149], [73.765416, 30.959149], [73.768858, 30.956788], [73.768954, 30.956729], [73.769054, 30.95668], [73.76916, 30.956642], [73.769268, 30.956614], [73.769379, 30.956597], [73.769491, 30.956591], [73.780674, 30.956591], [73.780796, 30.956598], [73.780918, 30.956618], [73.781036, 30.956652], [73.784588, 30.95787], [73.789916, 30.95787], [73.79916, 30.956602], [73.799261, 30.956593], [73.799362, 30.956593], [73.799464, 30.956602], [73.808664, 30.957864], [73.82532, 30.956595], [73.825432, 30.956592], [73.825544, 30.9566], [73.825654, 30.95662], [73.831245, 30.957898], [73.831292, 30.95791], [73.840466, 30.960427], [73.845907, 30.960427], [73.846013, 30.960432], [73.846118, 30.960447], [73.846221, 30.960472], [73.846322, 30.960507], [73.846418, 30.960551], [73.846511, 30.960604], [73.846597, 30.960666], [73.846678, 30.960735], [73.846751, 30.960812], [73.846817, 30.960895], [73.846874, 30.960985], [73.846923, 30.961079], [73.846963, 30.961178], [73.846993, 30.96128], [73.847013, 30.961384], [73.848877, 30.974169], [73.848888, 30.974289], [73.848886, 30.974408], [73.848871, 30.974527], [73.848844, 30.974644], [73.847207, 30.980259], [73.850141, 30.982272], [73.853548, 30.983441], [73.860817, 30.983441], [73.86094, 30.983447], [73.861061, 30.983468], [73.86118, 30.983501], [73.864908, 30.98478], [73.86501, 30.984821], [73.865108, 30.984871], [73.8652, 30.984931], [73.865286, 30.985], [73.865365, 30.985077], [73.865435, 30.985161], [73.865498, 30.985252], [73.865551, 30.985349], [73.867336, 30.989023], [73.870938, 30.992729], [73.871016, 30.992819], [73.871085, 30.992917], [73.871142, 30.993021], [73.871189, 30.993131], [73.871223, 30.993245], [73.873087, 31.000916], [73.87311, 31.001047], [73.873118, 31.00118], [73.873118, 31.003737], [73.87311, 31.00387], [73.873087, 31.004001], [73.871318, 31.011281], [73.872927, 31.014593], [73.876529, 31.0183], [73.876604, 31.018385], [73.876669, 31.018477], [73.876725, 31.018575], [73.876771, 31.018678], [73.876806, 31.018785], [73.876831, 31.018895], [73.876843, 31.019007], [73.876845, 31.01912], [73.876835, 31.019233], [73.876814, 31.019343], [73.874982, 31.026884], [73.874982, 31.036979], [73.874977, 31.037086], [73.874961, 31.037193], [73.874936, 31.037298], [73.8749, 31.037399], [73.874855, 31.037497], [73.8748, 31.03759], [73.874737, 31.037677], [73.874666, 31.037758], [73.871254, 31.041268], [73.871254, 31.043372], [73.87125, 31.043473], [73.871236, 31.043573], [73.871213, 31.043671], [73.871182, 31.043767], [73.871142, 31.04386], [73.869278, 31.047696], [73.869221, 31.0478], [73.869152, 31.047897], [73.869074, 31.047987], [73.861619, 31.055658], [73.861538, 31.055733], [73.86145, 31.055801], [73.855858, 31.059636], [73.85576, 31.059697], [73.855655, 31.059746], [73.855546, 31.059785], [73.855434, 31.059813], [73.855319, 31.059828], [73.855203, 31.059832], [73.855088, 31.059824], [73.854974, 31.059804], [73.854863, 31.059772], [73.851259, 31.058536], [73.838523, 31.057288], [73.833317, 31.058478], [73.830251, 31.060581], [73.830251, 31.065107], [73.830246, 31.065214], [73.83023, 31.065321], [73.830204, 31.065425], [73.830169, 31.065527], [73.830123, 31.065625], [73.830069, 31.065718], [73.830006, 31.065805], [73.829934, 31.065886], [73.826401, 31.069522], [73.824659, 31.075495], [73.824659, 31.077528], [73.828172, 31.082347], [73.828234, 31.082442], [73.828286, 31.082543], [73.828328, 31.082648], [73.828359, 31.082757], [73.828378, 31.082868], [73.828387, 31.082981], [73.828383, 31.083094], [73.828369, 31.083207], [73.826523, 31.093335], [73.826523, 31.09776], [73.829479, 31.099787], [73.849634, 31.099787], [73.849761, 31.099795], [73.860944, 31.101073], [73.861006, 31.101082], [73.868461, 31.10236], [73.868549, 31.102379], [73.868635, 31.102405], [73.87609, 31.104962], [73.876184, 31.104999], [73.876274, 31.105044], [73.87636, 31.105098], [73.880088, 31.107655], [73.880188, 31.107732], [73.880279, 31.10782], [73.880359, 31.107918], [73.882223, 31.110475], [73.882287, 31.110573], [73.88234, 31.110678], [73.882382, 31.110787], [73.882413, 31.110901], [73.882431, 31.111017], [73.882437, 31.111134], [73.882437, 31.113102], [73.894998, 31.121718], [73.89509, 31.121789], [73.895174, 31.121868], [73.89525, 31.121956], [73.895316, 31.122051], [73.895371, 31.122152], [73.897106, 31.125721], [73.902278, 31.129269], [73.907661, 31.1305], [73.907763, 31.130528], [73.907861, 31.130566], [73.907955, 31.130613], [73.908045, 31.130668], [73.911647, 31.133139], [73.914929, 31.134265], [73.92021, 31.133057], [73.92032, 31.133038], [73.920431, 31.13303], [73.920543, 31.133032], [73.920654, 31.133046], [73.920763, 31.133071], [73.920869, 31.133107], [73.92097, 31.133153], [73.928354, 31.136952], [73.931949, 31.138185], [73.937359, 31.139422], [73.948069, 31.139422], [73.951511, 31.137061], [73.951606, 31.137002], [73.951707, 31.136953], [73.951812, 31.136915], [73.951921, 31.136887], [73.952032, 31.13687], [73.952144, 31.136865], [73.959252, 31.136865], [73.962694, 31.134504], [73.962779, 31.134451], [73.96287, 31.134405], [73.962964, 31.134368], [73.966691, 31.13309], [73.96681, 31.133056], [73.966931, 31.133036], [73.967054, 31.133029], [73.974383, 31.133029], [73.979794, 31.131792], [73.983465, 31.130533], [73.983573, 31.130502], [73.983683, 31.130482], [73.983794, 31.130473], [73.983906, 31.130475], [73.984017, 31.130488], [73.991379, 31.131751], [73.995011, 31.131751], [73.995123, 31.131756], [73.995234, 31.131773], [73.995342, 31.131801], [73.995447, 31.131839], [73.995548, 31.131888], [73.995644, 31.131947], [74.00869, 31.140896], [74.008778, 31.140964], [74.00886, 31.141039], [74.01251, 31.144795], [74.021611, 31.151039], [74.025018, 31.152207], [74.039742, 31.152207], [74.039894, 31.152218], [74.049213, 31.153496], [74.049311, 31.153514], [74.054872, 31.154786], [74.062297, 31.156059], [74.062391, 31.156079], [74.062484, 31.156108], [74.062573, 31.156144], [74.067943, 31.1586], [74.072944, 31.1586], [74.080113, 31.153682], [74.080206, 31.153625], [74.080304, 31.153577], [74.080406, 31.153539], [74.080511, 31.153511], [74.080619, 31.153493], [74.091802, 31.152214], [74.091929, 31.152207], [74.099258, 31.152207], [74.104669, 31.15097], [74.10834, 31.149711], [74.108448, 31.14968], [74.108558, 31.14966], [74.108669, 31.149651], [74.108781, 31.149653], [74.108892, 31.149666], [74.116347, 31.150945], [74.116456, 31.150969], [74.116563, 31.151004], [74.116665, 31.15105], [74.116762, 31.151106], [74.116853, 31.151171], [74.116904, 31.151215], [74.116904, 31.146933], [74.116909, 31.146825], [74.116925, 31.146717], [74.116951, 31.146612], [74.116987, 31.14651], [74.117033, 31.146412], [74.117088, 31.146318], [74.117152, 31.146231], [74.117224, 31.14615], [74.117303, 31.146076], [74.117389, 31.146011], [74.124359, 31.14123], [74.124359, 31.13588], [74.121025, 31.13245], [74.111798, 31.12612], [74.111712, 31.126054], [74.111632, 31.125981], [74.11156, 31.1259], [74.111496, 31.125812], [74.111441, 31.125719], [74.111395, 31.125621], [74.111359, 31.125518], [74.111333, 31.125413], [74.111318, 31.125306], [74.111312, 31.125198], [74.111312, 31.123005], [74.109776, 31.120897], [74.106207, 31.118449], [74.10612, 31.118383], [74.106041, 31.118309], [74.105969, 31.118229], [74.105905, 31.118141], [74.10585, 31.118048], [74.105804, 31.117949], [74.105768, 31.117847], [74.105742, 31.117742], [74.105726, 31.117635], [74.105721, 31.117527], [74.105721, 31.108577], [74.105726, 31.108469], [74.105742, 31.108361], [74.105768, 31.108256], [74.105804, 31.108154], [74.10585, 31.108056], [74.105905, 31.107962], [74.105969, 31.107875], [74.106041, 31.107794], [74.10612, 31.10772], [74.106207, 31.107655], [74.109934, 31.105098], [74.11002, 31.105044], [74.11011, 31.104999], [74.110204, 31.104962], [74.113932, 31.103683], [74.114045, 31.103651], [74.119314, 31.102446], [74.122686, 31.098977], [74.124471, 31.095303], [74.124525, 31.095205], [74.124588, 31.095114], [74.124659, 31.095029], [74.124739, 31.094952], [74.124826, 31.094883], [74.124919, 31.094822], [74.125018, 31.094772], [74.125121, 31.094731], [74.125228, 31.094701], [74.130612, 31.09347], [74.133678, 31.091367], [74.133678, 31.089399], [74.133683, 31.089291], [74.133699, 31.089183], [74.133725, 31.089078], [74.133761, 31.088976], [74.133807, 31.088878], [74.133862, 31.088784], [74.133926, 31.088697], [74.133998, 31.088616], [74.134077, 31.088542], [74.134164, 31.088477], [74.137733, 31.086028], [74.141348, 31.081069], [74.141414, 31.080987], [74.141487, 31.080911], [74.141567, 31.080843], [74.141653, 31.080783], [74.141745, 31.080731], [74.141841, 31.080688], [74.14194, 31.080654], [74.142042, 31.080629], [74.142146, 31.080614], [74.142252, 31.080609], [74.145632, 31.080609], [74.150452, 31.077303], [74.150452, 31.071697], [74.148656, 31.066768], [74.148625, 31.06667], [74.148604, 31.066569], [74.148591, 31.066466], [74.148589, 31.066363], [74.148595, 31.066261], [74.150459, 31.04964], [74.150482, 31.049509], [74.15052, 31.049381], [74.152384, 31.044267], [74.152429, 31.044161], [74.152485, 31.04406], [74.152551, 31.043965], [74.152626, 31.043877], [74.15271, 31.043798], [74.152802, 31.043728], [74.158393, 31.039892], [74.158479, 31.039839], [74.158569, 31.039794], [74.158663, 31.039757], [74.162391, 31.038478], [74.162509, 31.038445], [74.16263, 31.038424], [74.162753, 31.038418], [74.166047, 31.038418], [74.171318, 31.033597], [74.171407, 31.033523], [74.171503, 31.033459], [74.171605, 31.033406], [74.171712, 31.033363], [74.171823, 31.033332], [74.177207, 31.032101], [74.180515, 31.029831], [74.183966, 31.022729], [74.182147, 31.008998], [74.182138, 31.008893], [74.182139, 31.008787], [74.18215, 31.008682], [74.182171, 31.008579], [74.182201, 31.008478], [74.182241, 31.00838], [74.18229, 31.008287], [74.182347, 31.008198], [74.182413, 31.008115], [74.182486, 31.008039], [74.182566, 31.00797], [74.182652, 31.007909], [74.182744, 31.007857], [74.189744, 31.004255], [74.191456, 30.99721], [74.191456, 30.988554], [74.189637, 30.982315], [74.189612, 30.982212], [74.189597, 30.982107], [74.189592, 30.982002], [74.189592, 30.978166], [74.189597, 30.978066], [74.18961, 30.977966], [74.191474, 30.967738], [74.191499, 30.96763], [74.191535, 30.967526], [74.19158, 30.967426], [74.191635, 30.967331], [74.1917, 30.967241], [74.191772, 30.967159], [74.195184, 30.963649], [74.195184, 30.958988], [74.19519, 30.958871], [74.195208, 30.958755], [74.195239, 30.958642], [74.195281, 30.958532], [74.195334, 30.958428], [74.195398, 30.95833], [74.199126, 30.953215], [74.199206, 30.953118], [74.199297, 30.953029], [74.199397, 30.952952], [74.203124, 30.950395], [74.20322, 30.950336], [74.203321, 30.950287], [74.203426, 30.950249], [74.203534, 30.950221], [74.203645, 30.950204], [74.203757, 30.950199], [74.218668, 30.950199], [74.218762, 30.950203], [74.218857, 30.950215], [74.226312, 30.951493], [74.2264, 30.951512], [74.226486, 30.951538], [74.233941, 30.954095], [74.234038, 30.954134], [74.234132, 30.954181], [74.23422, 30.954237], [74.234303, 30.954302], [74.23438, 30.954373], [74.238108, 30.958209], [74.238179, 30.95829], [74.238242, 30.958377], [74.238296, 30.95847], [74.238342, 30.958568], [74.238377, 30.958669], [74.238403, 30.958774], [74.238419, 30.958881], [74.238424, 30.958988], [74.238424, 30.96246], [74.241824, 30.967124], [74.245268, 30.969487], [74.248429, 30.970571], [74.253615, 30.9682], [74.253721, 30.968157], [74.253831, 30.968126], [74.259214, 30.966895], [74.262522, 30.964626], [74.264019, 30.961545], [74.262393, 30.958198], [74.262352, 30.958102], [74.262319, 30.958002], [74.262297, 30.957899], [74.262284, 30.957795], [74.262281, 30.95769], [74.262287, 30.957585], [74.262304, 30.957482], [74.264165, 30.948546], [74.266026, 30.938331], [74.266047, 30.938239], [74.266076, 30.938149], [74.26794, 30.933035], [74.267984, 30.932929], [74.268039, 30.932829], [74.268105, 30.932735], [74.268179, 30.932648], [74.268262, 30.932569], [74.275718, 30.926176], [74.275813, 30.926103], [74.279245, 30.923748], [74.280919, 30.919156], [74.280919, 30.915518], [74.280925, 30.915401], [74.280943, 30.915285], [74.280974, 30.915172], [74.281016, 30.915062], [74.281069, 30.914958], [74.281133, 30.914859], [74.284861, 30.909745], [74.284941, 30.909647], [74.285032, 30.909559], [74.285132, 30.909482], [74.288616, 30.907092], [74.2902, 30.903832], [74.288385, 30.891387], [74.288375, 30.891277], [74.288375, 30.891165], [74.288387, 30.891055], [74.288409, 30.890946], [74.288443, 30.89084], [74.288486, 30.890737], [74.29035, 30.886902], [74.290403, 30.886805], [74.290465, 30.886715], [74.290535, 30.886631], [74.290614, 30.886554], [74.290699, 30.886485], [74.290791, 30.886425], [74.290889, 30.886374], [74.290991, 30.886333], [74.291096, 30.886303], [74.291204, 30.886282], [74.300523, 30.885004], [74.300675, 30.884994], [74.30813, 30.884994], [74.308257, 30.885001], [74.31925, 30.886258], [74.323981, 30.885176], [74.325499, 30.878926], [74.320544, 30.875527], [74.320452, 30.875457], [74.320368, 30.875378], [74.320293, 30.87529], [74.320227, 30.875195], [74.320171, 30.875094], [74.318307, 30.871258], [74.318267, 30.871165], [74.318236, 30.871069], [74.318213, 30.870971], [74.318199, 30.87087], [74.318195, 30.870769], [74.318195, 30.86182], [74.318201, 30.861703], [74.318219, 30.861587], [74.31825, 30.861473], [74.318292, 30.861364], [74.318345, 30.861259], [74.318409, 30.861161], [74.320058, 30.858898], [74.320058, 30.85707], [74.316658, 30.852405], [74.309647, 30.847596], [74.302593, 30.847596], [74.289601, 30.848869], [74.28949, 30.848874], [74.289378, 30.848868], [74.289268, 30.848851], [74.28916, 30.848824], [74.289055, 30.848785], [74.288955, 30.848736], [74.288859, 30.848678], [74.28158, 30.843684], [74.276196, 30.842453], [74.276086, 30.842422], [74.27598, 30.84238], [74.275878, 30.842327], [74.275783, 30.842264], [74.275694, 30.842192], [74.275614, 30.842111], [74.275542, 30.842022], [74.273678, 30.839465], [74.273614, 30.839366], [74.273561, 30.839262], [74.273518, 30.839152], [74.273488, 30.839039], [74.27347, 30.838923], [74.273463, 30.838806], [74.273463, 30.833692], [74.273469, 30.833585], [74.273484, 30.833478], [74.27351, 30.833374], [74.273545, 30.833272], [74.27359, 30.833175], [74.273644, 30.833082], [74.273707, 30.832995], [74.273778, 30.832914], [74.273857, 30.832841], [74.273942, 30.832775], [74.274033, 30.832718], [74.274129, 30.83267], [74.274229, 30.832631], [74.274332, 30.832602], [74.279516, 30.831417], [74.281133, 30.829198], [74.281205, 30.829109], [74.281285, 30.829029], [74.281373, 30.828956], [74.281468, 30.828894], [74.281568, 30.828841], [74.281674, 30.828799], [74.284962, 30.827671], [74.28651, 30.824485], [74.28651, 30.81835], [74.286515, 30.818241], [74.286531, 30.818134], [74.286557, 30.818029], [74.286593, 30.817927], [74.286639, 30.817828], [74.286694, 30.817735], [74.286758, 30.817648], [74.28683, 30.817567], [74.286909, 30.817493], [74.286996, 30.817427], [74.293965, 30.812646], [74.293965, 30.810678], [74.29397, 30.81057], [74.293986, 30.810463], [74.294012, 30.810358], [74.294048, 30.810255], [74.294094, 30.810157], [74.294149, 30.810064], [74.294213, 30.809976], [74.294285, 30.809895], [74.294365, 30.809822], [74.294451, 30.809756], [74.298179, 30.807199], [74.298264, 30.807146], [74.298354, 30.8071], [74.298448, 30.807063], [74.305904, 30.804506], [74.306022, 30.804473], [74.306143, 30.804453], [74.306266, 30.804446], [74.309994, 30.804446], [74.310114, 30.804452], [74.310232, 30.804472], [74.310347, 30.804503], [74.310459, 30.804547], [74.315889, 30.80703], [74.338015, 30.80956], [74.341112, 30.80956], [74.322353, 30.793833], [74.280018, 30.765256], [74.278378, 30.76304], [74.275302, 30.758886], [74.27028, 30.752104], [74.258851, 30.73667], [74.25306, 30.722981], [74.252803, 30.722374], [74.243732, 30.674271], [74.23466, 30.663868], [74.205933, 30.654764], [74.173904, 30.651702], [74.165111, 30.650862], [74.158845, 30.650862], [74.158707, 30.652413], [74.15853, 30.65439], [74.157206, 30.655142], [74.156731, 30.655417], [74.154651, 30.657254], [74.153624, 30.659184]], [[74.267515, 30.787055], [74.268138, 30.787981], [74.267576, 30.787626], [74.267515, 30.787055]], [[74.260454, 30.881633], [74.260265, 30.881727], [74.260461, 30.881442], [74.260454, 30.881633]], [[74.107201, 31.073651], [74.106611, 31.074118], [74.107406, 31.073292], [74.107201, 31.073651]], [[74.104654, 31.128424], [74.103406, 31.128981], [74.10414, 31.126556], [74.104654, 31.128424]], [[74.084916, 31.150894], [74.086348, 31.149074], [74.087081, 31.149517], [74.084916, 31.150894]], [[74.056833, 31.144952], [74.055629, 31.144677], [74.056493, 31.144677], [74.056833, 31.144952]], [[73.975706, 31.12407], [73.974559, 31.122339], [73.975563, 31.123032], [73.975706, 31.12407]], [[73.905293, 31.081928], [73.902374, 31.082104], [73.903584, 31.081596], [73.905293, 31.081928]], [[73.868853, 31.096101], [73.868424, 31.095289], [73.869571, 31.096566], [73.868853, 31.096101]], [[73.867924, 31.086186], [73.868262, 31.083995], [73.868346, 31.084013], [73.867924, 31.086186]], [[73.851622, 31.075932], [73.8508, 31.075318], [73.851467, 31.075742], [73.851622, 31.075932]]]}}]}