{"type": "FeatureCollection", "features": [{"type": "Feature", "properties": {"na": "NA-179", "src": "sheet-split: kotaddu_na179_180.jpg, outline-fit", "approx": false, "rms_km": 1.416}, "geometry": {"type": "MultiPolygon", "coordinates": [[[[71.0330080947018, 30.219493177192255], [71.03299495289302, 30.219579131549686], [71.0329905573134, 30.21966597357626], [71.0329905573134, 30.224843007002082], [71.03299566069663, 30.224936560787338], [71.03301091028138, 30.225029004312912], [71.03444433115364, 30.23150029609519], [71.03446576926036, 30.23157913561071], [71.03449459168581, 30.231655585132735], [71.03453053832489, 30.231728954750192], [71.03457328478072, 30.2317985823463], [71.03462244529221, 30.23186383957377], [71.038922707909, 30.237040872999593], [71.03900792092792, 30.237129677886056], [71.04158706786183, 30.239458430408327], [71.044474, 30.235489], [71.042692, 30.227028], [71.04200773900004, 30.222466091000058], [71.03718149700006, 30.224032469000065], [71.03638337800004, 30.221480479000036], [71.03453924600007, 30.21889807100007], [71.03401388859157, 30.21759577710988], [71.03309821632658, 30.219249327024876], [71.03305999165494, 30.219327427813457], [71.03302984840873, 30.219408989099662], [71.0330080947018, 30.219493177192255]]], [[[71.14628403170937, 30.297619334791428], [71.14768286412999, 30.301408418482144], [71.14904947893575, 30.31251386141222], [71.14651448634743, 30.314802746278126], [71.14645563771836, 30.314861277682127], [71.14640270520349, 30.314925209170976], [71.14635618178838, 30.31499394532045], [71.14631650076763, 30.315066845958235], [71.14628403170937, 30.315143232126182], [71.14485061083711, 30.31902600719555], [71.14482746174151, 30.319098412007822], [71.1448107962809, 30.319172578037037], [71.14480074464305, 30.319247925910553], [71.14479738534969, 30.319323867023364], [71.14479738534969, 30.32389709565435], [71.1381981819261, 30.32628050567501], [71.13812142488456, 30.326312502258318], [71.13804811679957, 30.326351762281817], [71.13797894303434, 30.326397918700383], [71.1379145503, 30.326450539993928], [71.13785554060942, 30.32650913420173], [71.13780246564896, 30.3265731535218], [71.13775582162073, 30.32664199943235], [71.1377160446035, 30.326715028287403], [71.13768350647581, 30.326791557334285], [71.13631593522558, 30.330495962410808], [71.12211663096541, 30.344598816223844], [71.12205811170668, 30.34466313348655], [71.12200638599867, 30.3447330310191], [71.11776590224613, 30.351114363999468], [71.1149792271577, 30.353630496971803], [71.11492247785215, 30.353686736771074], [71.11487119227651, 30.353748000042575], [71.11482581301637, 30.353813758094958], [71.11478673168683, 30.353883443447693], [71.11475428555296, 30.353956454728333], [71.11472875461924, 30.354032161862254], [71.11471035921316, 30.354109911510093], [71.11469925808389, 30.354189032705943], [71.11469554703223, 30.354268842647674], [71.11469554703223, 30.35906366966563], [71.11211238541318, 30.36139604711054], [71.1120539309751, 30.361454146949487], [71.11200130609707, 30.361517575135913], [71.11195499402885, 30.361585749214242], [71.11191542005015, 30.3616580431478], [71.1118829475654, 30.36173379306763], [71.11185787476664, 30.361812303368744], [71.11184043189522, 30.361892853097828], [71.1118307791275, 30.361974702573665], [71.11182900510404, 30.362057100179577], [71.11183512611552, 30.362139289265457], [71.11184908595325, 30.362220515096016], [71.11187075642522, 30.362300031781462], [71.11189993853336, 30.362377109126925], [71.11193636430089, 30.36245103933779], [71.11313906235799, 30.36462290949932], [71.11200588006368, 30.366669245899423], [71.10924554366866, 30.369161597249274], [71.10918708923057, 30.369219697088223], [71.10913446435255, 30.36928312527465], [71.10908815228433, 30.369351299352978], [71.10904857830563, 30.369423593286534], [71.10901610582088, 30.369499343206364], [71.10899103302212, 30.36957785350748], [71.1089735901507, 30.369658403236564], [71.10896393738298, 30.3697402527124], [71.10896216335952, 30.369822650318312], [71.108968284371, 30.369904839404192], [71.10898224420873, 30.36998606523475], [71.1090039146807, 30.370065581920198], [71.10903309678883, 30.37014265926566], [71.10906952255637, 30.370216589476527], [71.11035362148228, 30.372535455899552], [71.1090290888469, 30.379711104579908], [71.10637870192414, 30.382104180813833], [71.10632195261859, 30.382160420613104], [71.10627066704295, 30.382221683884605], [71.1062252877828, 30.382287441936988], [71.10618620645327, 30.382357127289723], [71.1061537603194, 30.382430138570363], [71.10612822938567, 30.382505845704284], [71.1061098339796, 30.382583595352123], [71.10609873285033, 30.382662716547973], [71.10609502179867, 30.382742526489704], [71.10609502179867, 30.39553142462743], [71.10471482641383, 30.399270025295817], [71.10469278598877, 30.399338387683457], [71.10330182511395, 30.404362069898735], [71.10052949865022, 30.408116835957273], [71.10048455164288, 30.408184119103257], [71.10044612665419, 30.408255328480784], [71.10041456379705, 30.408329833791008], [71.09611430118026, 30.41997815899911], [71.09609115208467, 30.420050563811383], [71.09607448662405, 30.420124729840598], [71.0960644349862, 30.420200077714114], [71.09606107569284, 30.420276018826925], [71.09606107569284, 30.426525078106277], [71.09480482959655, 30.428793647009307], [71.09240440050627, 30.43096103236647], [71.08875353316891, 30.429862223763188], [71.08603013363599, 30.42740322328979], [71.08596113124442, 30.42734711520936], [71.08588670358796, 30.427298432864642], [71.08580764651532, 30.427257696811857], [71.0829408047708, 30.4259634384554], [71.08285587016029, 30.425930392080947], [71.08276791551435, 30.425906518849374], [71.08267792847192, 30.425892086832174], [71.0825869194936, 30.425887258085847], [71.07972007774907, 30.425887258085847], [71.07962480435012, 30.425892551390252], [71.07953070369605, 30.425908366146814], [71.07401766453637, 30.42715281869037], [71.07011906182953, 30.42597944869382], [71.0673956622966, 30.423520448220422], [71.06733206771293, 30.423468323581073], [71.06726378600771, 30.423422510287875], [71.06719144132002, 30.423383427104014], [71.06711569492714, 30.423351431275123], [71.06703723920022, 30.423326815263806], [71.06695679127543, 30.423309804076368], [71.06687508649895, 30.423300553206083], [71.06679287170539, 30.423299147211896], [71.06671089839124, 30.423305598945515], [71.06662991584571, 30.423319849433902], [71.06098974300703, 30.42459299972939], [71.05840390692252, 30.42459299972939], [71.04997212470882, 30.420786405029578], [71.04989679419108, 30.420756583390297], [71.04981899177655, 30.4207339824752], [71.04973940788435, 30.42071880284496], [71.04965874874249, 30.420711179203717], [71.04957773012073, 30.420711179203717], [71.04949707097887, 30.42071880284496], [71.04941748708667, 30.4207339824752], [71.04933968467213, 30.420756583390297], [71.0492643541544, 30.420786405029578], [71.04665992398309, 30.421962195608003], [71.04120708825107, 30.42073133272099], [71.04112610570554, 30.420717082232603], [71.04104413239139, 30.420710630498984], [71.04096191759783, 30.42071203649317], [71.04088021282135, 30.420721287363456], [71.04079976489656, 30.420738298550894], [71.04072130916964, 30.42076291456221], [71.04064556277676, 30.420794910391102], [71.04057321808907, 30.420833993574963], [71.04050493638385, 30.42087980686816], [71.04044134180018, 30.42093193150751], [71.03782004548414, 30.423298741372935], [71.03534838134485, 30.423298741372935], [71.0268114902507, 30.422014059061482], [71.02673209135615, 30.42200585646409], [71.02665227395764, 30.422005050266417], [71.0265727255779, 30.422011647412806], [71.02649413142242, 30.422025591077446], [71.02076044793338, 30.423319849433902], [71.0206722499983, 30.423344764330274], [71.02058720405975, 30.423378923020955], [71.0205062758654, 30.423421937613515], [71.01641067724992, 30.425887258085847], [71.01402159974481, 30.425887258085847], [71.00992600112933, 30.423421937613515], [71.00984689579825, 30.423379773194657], [71.00976383143086, 30.423346071525632], [71.00967771038184, 30.42332119871839], [71.00958946821156, 30.423305424974156], [71.00950006352278, 30.423298921648136], [71.00941046754711, 30.42330175938803], [71.00932165359414, 30.42331390736656], [71.00923458647812, 30.42333523361637], [71.00493432386133, 30.424629491972826], [71.00486257172501, 30.424654595633726], [71.00479331650938, 30.424685936947725], [71.0047270992457, 30.42472327107216], [71.00466443723238, 30.424766306347713], [71.00460581999367, 30.42481470657688], [71.00198452367763, 30.427181516442303], [70.99977933587189, 30.427181516442303], [70.99715803955586, 30.42481470657688], [70.99708801925341, 30.424757855950695], [70.99701243028088, 30.424708650832223], [70.99693210393738, 30.424667632360862], [70.99684792362187, 30.42463525164235], [70.99676081511781, 30.42461186478766], [70.9966717364118, 30.424597728996634], [70.99658166715798, 30.42459299972939], [70.9922814045412, 30.42459299972939], [70.9922046791566, 30.424596428905947], [70.99212856560646, 30.424606689090176], [70.98496146124516, 30.42590094744663], [70.98489101830019, 30.425916747219013], [70.98482214859426, 30.425938399122117], [70.9776769870763, 30.428518990819036], [70.973707370342, 30.429713734044775], [70.9711339767345, 30.428551955168313], [70.97105864621678, 30.428522133529032], [70.97098084380224, 30.428499532613934], [70.97090125991004, 30.428484352983695], [70.97082060076818, 30.428476729342453], [70.97073958214642, 30.428476729342453], [70.97065892300456, 30.428484352983695], [70.97057933911236, 30.428499532613934], [70.97050153669782, 30.428522133529032], [70.9704262061801, 30.428551955168313], [70.96755936443557, 30.42984621352477], [70.96748030736293, 30.429886949577554], [70.96740587970648, 30.429935631922273], [70.9673368773149, 30.429991740002702], [70.96463725980996, 30.43242926730722], [70.95921686107656, 30.433652808224583], [70.95501246186244, 30.433652808224583], [70.95491718846348, 30.433658101528987], [70.95482308780942, 30.43367391628555], [70.94908940432038, 30.434968174642005], [70.94900457071238, 30.43499195010255], [70.94892261452951, 30.435024279619416], [70.94884439578708, 30.435064823939634], [70.94877073528116, 30.435113157607372], [70.94870240597552, 30.435168773428526], [70.94608110965949, 30.43753558329395], [70.94354509488436, 30.43753558329395], [70.94345502563054, 30.437540312561193], [70.94336594692453, 30.43755444835222], [70.94327883842047, 30.43757783520691], [70.94319465810496, 30.43761021592542], [70.94311433176146, 30.43765123439678], [70.94303874278893, 30.437700439515254], [70.94296872248648, 30.437757290141437], [70.94022724279311, 30.4402326154774], [70.9332189971929, 30.442763757756044], [70.93315726350133, 30.442788797089328], [70.93029042175681, 30.444083055445784], [70.93021724278283, 30.444120397983106], [70.93014796074297, 30.444164552555687], [70.93008320783144, 30.44421511625587], [70.93002357491444, 30.444271627693098], [70.92996960613856, 30.444333571204105], [70.92992179396542, 30.444400381558296], [70.92988057467808, 30.444471449115433], [70.9298463243999, 30.444546125388584], [70.9298193556625, 30.444623728961503], [70.92979991455388, 30.444703551706525], [70.92978817847295, 30.44478486524618], [70.92978425451066, 30.444866927599588], [70.92978425451066, 30.4510551136635], [70.92708557310674, 30.454710136789686], [70.92703540677883, 30.454786207710768], [70.92699357048045, 30.45486715936071], [70.92696053384788, 30.45495208301111], [70.92693666773613, 30.455040025345628], [70.9269222400559, 30.455129999161446], [70.92691741276614, 30.455220994451235], [70.92691741276614, 30.462703438871603], [70.92421873136222, 30.46635846199779], [70.92416856503431, 30.46643453291887], [70.92412672873593, 30.466515484568813], [70.92409369210336, 30.466600408219215], [70.92406982599161, 30.46668835055373], [70.92405539831138, 30.46677832436955], [70.92405057102162, 30.466869319659338], [70.92405057102162, 30.46945783637225], [70.92405405481881, 30.469535169161404], [70.92406447798687, 30.46961187544986], [70.924081756084, 30.469687333812423], [70.92543307237443, 30.474567833140867], [70.92269085844679, 30.480757803860083], [70.92266099732048, 30.480835054284434], [70.92263870504998, 30.48091481874772], [70.92262418835655, 30.48099635757613], [70.92261758185673, 30.481078914641774], [70.9226189468141, 30.481161724374402], [70.92262827057108, 30.481244018860746], [70.9226454666664, 30.481325034965522], [70.92267037563678, 30.481404021408167], [70.92398297946181, 30.48495953361424], [70.92125743757452, 30.49111187071173], [70.92122545451228, 30.491195595115194], [70.92120235810259, 30.491282193313005], [70.92118839916166, 30.491370724889144], [70.9211837292771, 30.491460228432], [70.9211837292771, 30.497863903050835], [70.91981524657484, 30.506513275647123], [70.9114927360806, 30.51277538084497], [70.91142965710598, 30.5128277321959], [70.91137184868852, 30.5128858511072], [70.91131983598125, 30.512949209605168], [70.91127409148689, 30.513017232117747], [70.91123503076535, 30.513089300703243], [70.9112030086587, 30.513164760663937], [70.90986531132421, 30.51678824484867], [70.9043604859687, 30.520516040199162], [70.90429579722236, 30.520564428646587], [70.90423593391883, 30.520618673099165], [70.90418142421485, 30.520678294973656], [70.9041327490339, 30.520742768243355], [70.90409033782316, 30.520811524079104], [70.90290245810269, 30.52295663482004], [70.90054246871655, 30.52295663482004], [70.90045239946274, 30.522961364087283], [70.90036332075672, 30.52297549987831], [70.90027621225266, 30.522998886733], [70.90019203193715, 30.52303126745151], [70.90011170559366, 30.523072285922872], [70.90003611662112, 30.523121491041344], [70.89996609631868, 30.523178341667528], [70.89734480000264, 30.525545151532953], [70.89194194348299, 30.525545151532953], [70.89184667008404, 30.525550444837357], [70.89175256942997, 30.52556625959392], [70.88601888594093, 30.526860517950375], [70.88593068800584, 30.526885432846747], [70.8858456420673, 30.52691959153743], [70.88576471387294, 30.526962606129988], [70.88176040949084, 30.52937297259836], [70.87636368794115, 30.52815477630683], [70.8762765356456, 30.52813976464902], [70.87618830254193, 30.5281337820153], [70.87609992153382, 30.528136891661084], [70.8760123270888, 30.528149060707555], [70.87592644535792, 30.5281701604893], [70.86757378865457, 30.530684075731298], [70.86370645622407, 30.529520117210293], [70.86098305669114, 30.527061116736895], [70.8609130363887, 30.527004266110712], [70.86083744741616, 30.52695506099224], [70.86075712107267, 30.52691404252088], [70.86067294075715, 30.526881661802367], [70.8605858322531, 30.526858274947678], [70.86049675354708, 30.52684413915665], [70.86040668429327, 30.52683940988941], [70.85517985316261, 30.52683940988941], [70.85399197344213, 30.52469429914847], [70.85394817075478, 30.5246235142803], [70.85389773022438, 30.524557295507464], [70.85384112436105, 30.52449626314539], [70.8537788834297, 30.524440988924937], [70.85371159048265, 30.524391990636605], [70.85363987589784, 30.524349727280054], [70.85356441147361, 30.52431459476435], [70.85348590413561, 30.524286922199202], [70.85340508931444, 30.524266968811993], [70.85332272405644, 30.524254921519415], [70.85323957993197, 30.524250893176497], [70.84769103870028, 30.524250893176497], [70.84499293997561, 30.523032815189595], [70.8449080053651, 30.52299976881514], [70.84482005071916, 30.522975895583567], [70.84473006367674, 30.522961463566368], [70.8446390546984, 30.52295663482004], [70.8374719503371, 30.52295663482004], [70.83738827131204, 30.52296071528562], [70.83730538630681, 30.52297291796333], [70.8372240818069, 30.522993127063476], [70.83292381919011, 30.52428738541993], [70.83281780244312, 30.52432707354605], [70.8299509606986, 30.525621331902506], [70.82987190362596, 30.52566206795529], [70.8297974759695, 30.52571075030001], [70.82972847357793, 30.52576685838044], [70.82256136921663, 30.53223815016272], [70.82250461991107, 30.53229438996199], [70.82245333433544, 30.53235565323349], [70.82240795507529, 30.532421411285874], [70.82236887374576, 30.53249109663861], [70.82233642761189, 30.53256410791925], [70.82231089667816, 30.53263981505317], [70.82229250127209, 30.53271756470101], [70.82228140014281, 30.53279668589686], [70.82227768909115, 30.53287649583859], [70.82227768909115, 30.536203911956648], [70.81991701459278, 30.53726965711061], [70.8198438356188, 30.53730699964793], [70.81977455357894, 30.537351154220513], [70.81970980066741, 30.537401717920694], [70.81965016775041, 30.537458229357924], [70.81959619897452, 30.53752017286893], [70.81954838680139, 30.53758698322312], [70.81950716751405, 30.53765805078026], [70.81947291723587, 30.53773272705341], [70.81944594849847, 30.53781033062633], [70.81942650738985, 30.53789015337135], [70.81941477130891, 30.537971466911007], [70.81941084734663, 30.538053529264413], [70.81941084734663, 30.54294745697187], [70.8167121659427, 30.546602480098056], [70.8166619996148, 30.546678551019138], [70.81662016331641, 30.54675950266908], [70.81658712668384, 30.54684442631948], [70.8165632605721, 30.546932368653998], [70.81654883289187, 30.547022342469816], [70.81654400560211, 30.547113337759605], [70.81654400560211, 30.549701854472517], [70.81654736489547, 30.549777795585328], [70.81655741653331, 30.549853143458844], [70.81657408199393, 30.54992730948806], [70.81659723108953, 30.54999971430033], [70.8178290483439, 30.553336396092693], [70.81630215437131, 30.554715052788485], [70.81365277802132, 30.55531309373144], [70.81190925675612, 30.55531309373144], [70.80781365814065, 30.552847773259106], [70.80773933987687, 30.552807866301006], [70.8076614696668, 30.552775431751243], [70.80758079661642, 30.55275078162793], [70.80749809679489, 30.55273415306353], [70.79889757156133, 30.551439894707073], [70.79883375804782, 30.55143271601457], [70.79876958678608, 30.55143031866207], [70.79396501844714, 30.55143031866207], [70.793941, 30.551411], [70.80143508800006, 30.557438690000026], [70.80857520500007, 30.56318167200004], [70.81514385300005, 30.56904331100003], [70.81615219200006, 30.571703245000037], [70.817615, 30.576451], [70.81456316924478, 30.578485479404268], [70.814141548, 30.580316538], [70.813853022, 30.581571637], [70.812581729, 30.582619106], [70.811789005, 30.583272263], [70.811292291, 30.583681525], [70.810649813, 30.584083992], [70.80707962000001, 30.586322304], [70.806428442, 30.586730504], [70.805581595, 30.587813266], [70.804308023, 30.589441628], [70.803957, 30.589799281454585], [70.803957, 30.59322972500007], [70.803957, 30.598304], [70.812607, 30.604222], [70.81386840700003, 30.60566917400007], [70.815794, 30.60923], [70.8139309829977, 30.612290503998782], [70.813716153, 30.613422276], [70.813536681, 30.614354121], [70.813421653, 30.614952019], [70.813089743, 30.615597266], [70.812661493, 30.6164298], [70.81221887, 30.617290269], [70.81182758300001, 30.617612407], [70.811370202, 30.617988716], [70.810314548, 30.618857621], [70.80955000782238, 30.619487428141795], [70.80950939900004, 30.61955413900006], [70.80942, 30.619701], [70.80327518612579, 30.622244078794147], [70.803119332, 30.622329308], [70.802734085, 30.622539981], [70.801581176, 30.623170453], [70.800584231, 30.624085805], [70.800254918, 30.624388166], [70.799926766, 30.624689462], [70.799481725, 30.625098279], [70.799007598, 30.625761244], [70.798653404, 30.626256507], [70.797773389, 30.627552997], [70.79744595400001, 30.628475046], [70.796606425, 30.630853335], [70.79634558366911, 30.631591342321514], [70.79621738400004, 30.63526671900007], [70.79623047300004, 30.639276858000073], [70.79621750000007, 30.643375], [70.801064, 30.646511], [70.803957, 30.648383], [70.822168, 30.651115], [70.84036675200008, 30.65413916700004], [70.851761, 30.657034], [70.87328684800008, 30.666095002000077], [70.902751, 30.661586], [70.90547869000005, 30.661833959000035], [70.90915162700003, 30.661779670000044], [70.92250572800003, 30.66263119000007], [70.92929493700007, 30.665357477000043], [70.940994, 30.66705], [70.94959181900003, 30.66705], [70.95966, 30.66705], [70.96050799351164, 30.666095960145842], [70.959610014, 30.663788969], [70.959610004, 30.66177877], [70.960205713, 30.661144877], [70.96127160600001, 30.660010665], [70.962266897, 30.659669803], [70.962993933, 30.659421003], [70.965172691, 30.658675076], [70.965660056, 30.658508218], [70.966570622, 30.658378197], [70.9674840433547, 30.658247481416016], [70.97058650000008, 30.654757], [70.97612615700007, 30.654772150000042], [70.996082, 30.655212], [71.00556457400006, 30.654939725000077], [71.00846493741847, 30.654412567581364], [71.008890786, 30.653994415], [71.010838665, 30.6519425], [71.016587161, 30.646425903], [71.01735477000001, 30.645671044], [71.018088852, 30.645218485], [71.019901695, 30.644100872], [71.020993057, 30.643430317], [71.02108660449836, 30.643403128930277], [71.02418238800004, 30.640087750000077], [71.03543048400007, 30.639136361000055], [71.038877, 30.638823], [71.04652401300007, 30.64259655500007], [71.059364, 30.649294], [71.06661168400007, 30.65032938300004], [71.07471069300004, 30.651198081000075], [71.08123515900007, 30.652686189000065], [71.09419958573069, 30.648957489769305], [71.094690263, 30.648297501], [71.09570858, 30.646940922], [71.096784948, 30.646360635], [71.09801189400001, 30.645699585], [71.099484026, 30.645504167], [71.10074680000001, 30.645782704], [71.101942305, 30.646084389], [71.102595015, 30.646262084], [71.10312254671177, 30.64643046709798], [71.106257, 30.645652], [71.12340567000007, 30.651240312000027], [71.125379, 30.652026], [71.13484249300006, 30.65789421900007], [71.14476820900006, 30.66612653900006], [71.14781091486442, 30.674210794427445], [71.150464768, 30.675670659], [71.151610016, 30.676352159], [71.152762032, 30.67703687], [71.153209908, 30.678240163], [71.15275844, 30.679332449], [71.152043109, 30.680600583], [71.151504633, 30.681167067], [71.1503700952303, 30.68236061640605], [71.150419, 30.682529], [71.14504420000003, 30.69156505400008], [71.14142828200005, 30.698217816000067], [71.15041850000006, 30.715764], [71.15397820000004, 30.72004531400006], [71.164077, 30.731243], [71.16390508300003, 30.741724488000045], [71.16386380900008, 30.74393094100003], [71.16415918800004, 30.75921956700006], [71.179101, 30.764933], [71.18193775700007, 30.764241060000074], [71.18435174500007, 30.763502892000076], [71.197767, 30.76038], [71.20245735400005, 30.761758677000046], [71.216888, 30.765843], [71.21895490300005, 30.765343975000064], [71.23495805600004, 30.76400386200004], [71.24122093900007, 30.762569686000063], [71.25923765100003, 30.759325526000055], [71.263326, 30.758559], [71.26882428100004, 30.754881366000063], [71.27307741600004, 30.75044510300006], [71.28040560100004, 30.746722], [71.28513224700004, 30.746641370000077], [71.29726314552715, 30.747463809502253], [71.29792878515342, 30.747391599179046], [71.300203, 30.746722], [71.30219158200003, 30.745193650000033], [71.31070692900005, 30.74132499500007], [71.32611111600005, 30.733212842000057], [71.32729891368855, 30.73269911751763], [71.328727841, 30.731539234], [71.32975003700001, 30.730709501], [71.330135952, 30.730409749], [71.331158646, 30.729614806], [71.334908134, 30.726699865], [71.336627917, 30.72535936], [71.33742598900001, 30.724638199], [71.33873477, 30.723472047], [71.339378552, 30.722894388], [71.342649131, 30.719959728], [71.343198767, 30.719466545], [71.343870639, 30.718841509], [71.345225586, 30.717434602], [71.346777404, 30.716137187], [71.347139708, 30.715800151], [71.34829513400001, 30.714728806], [71.34950589, 30.713606157], [71.350140654, 30.713107853], [71.350485129, 30.712837433], [71.351517783, 30.712026777], [71.356338155, 30.70824268], [71.35640205351278, 30.70819251827847], [71.36903129016983, 30.69649885601075], [71.370140769, 30.695297233], [71.371321327, 30.694019679], [71.372426941, 30.692274358], [71.373627589, 30.690379017], [71.37410869, 30.689619551], [71.376187763, 30.686318947], [71.377111387, 30.684852341], [71.377342415, 30.684485544], [71.377793354, 30.683790878], [71.378387069, 30.683049473], [71.37891931, 30.682384836], [71.379219183, 30.682010368], [71.38050922100001, 30.68039943], [71.38171872800001, 30.679460543], [71.38218223, 30.679100745], [71.383650878, 30.677960697], [71.385746634, 30.676703473], [71.388221654, 30.675218734], [71.388969134, 30.674770328], [71.389636594, 30.674369927], [71.38964903931108, 30.674361335855462], [71.39163331800006, 30.672331303000078], [71.39721708700006, 30.665835577000053], [71.40197919100007, 30.661522121000075], [71.42045947500003, 30.644121675000065], [71.43248294000006, 30.634908221000046], [71.44876960900007, 30.622538504000033], [71.451353, 30.620612], [71.47337230700003, 30.609205472000042], [71.47474066200004, 30.607871749000026], [71.49018156500006, 30.599451561000024], [71.50843630600008, 30.591426554000066], [71.52601750000008, 30.583735], [71.52653468700004, 30.568405003000066], [71.53364421200007, 30.561295477000044], [71.53596569100006, 30.554766321000045], [71.53698133600005, 30.550993920000053], [71.53451476700008, 30.548092073000078], [71.52711505600007, 30.54881753400008], [71.52073099300003, 30.549107720000052], [71.51333128200008, 30.548237165000046], [71.50702127000005, 30.544165545000055], [71.501408, 30.54323], [71.496509, 30.538331], [71.492055, 30.532541], [71.49284130000007, 30.523279030000026], [71.492055, 30.516508], [71.499181, 30.504484], [71.502298, 30.498249], [71.51217078400003, 30.488885782000068], [71.515214, 30.481325], [71.513877, 30.473309], [71.51200445700005, 30.469232917000056], [71.509424, 30.465292], [71.501408, 30.457276], [71.494282, 30.452822], [71.49281999500005, 30.44901638700003], [71.489383, 30.444806], [71.485375, 30.438126], [71.473796, 30.438571], [71.468006, 30.437235], [71.46342837900005, 30.433037667000065], [71.46106102400006, 30.431744214000048], [71.455536, 30.426547], [71.44988292400006, 30.415641235000066], [71.44438932700007, 30.40868066400003], [71.440839, 30.404279], [71.44054138823749, 30.404084234637356], [71.43834346817658, 30.405796542076814], [71.4405413882183, 30.404084234624797], [71.43899716000004, 30.403073649000078], [71.435495, 30.401161], [71.430596, 30.397598], [71.42347, 30.398489], [71.417236, 30.402943], [71.408328, 30.406506], [71.39918232400004, 30.40821090600008], [71.39185, 30.407396], [71.386506, 30.403833], [71.38386848800008, 30.398372162000044], [71.382052, 30.395817], [71.380271, 30.387801], [71.37887667500007, 30.38301161100003], [71.378935, 30.378003], [71.369583, 30.375776], [71.358894, 30.371768], [71.35001568800004, 30.36838289800005], [71.339298, 30.364642], [71.336181, 30.357071], [71.339744, 30.350391], [71.34154696300004, 30.348187229000075], [71.343752, 30.345492], [71.350432, 30.33703], [71.35270619700003, 30.33008479800003], [71.345088, 30.325006], [71.340189, 30.322334], [71.34441410300008, 30.31537510800007], [71.345533, 30.312981], [71.344643, 30.308082], [71.34347422400003, 30.306078812000067], [71.341525, 30.302738], [71.337517, 30.300511], [71.33398753500006, 30.300274241000068], [71.332173, 30.300511], [71.325047, 30.300957], [71.32289840600004, 30.300957], [71.319703, 30.300957], [71.31614, 30.297394], [71.315695, 30.288487], [71.31654917500003, 30.276682467000057], [71.309905, 30.275126], [71.301443, 30.275126], [71.297435, 30.271563], [71.297435, 30.259093], [71.29699, 30.251967], [71.294318, 30.247514], [71.29437777100003, 30.242581116000053], [71.29264140800007, 30.240493408000077], [71.287192, 30.235044], [71.28160001100008, 30.230182893000062], [71.27618073900004, 30.22571918600005], [71.269378, 30.227028], [71.26548826700008, 30.22975011500006], [71.26537, 30.235935], [71.267151, 30.241724], [71.268487, 30.247514], [71.27262945700005, 30.252418814000066], [71.272495, 30.258202], [71.270714, 30.264883], [71.260916, 30.271563], [71.25047415500006, 30.272308448000047], [71.24043, 30.263992], [71.231523, 30.254194], [71.227069, 30.24885], [71.215935, 30.244396], [71.210146, 30.24306], [71.20251155300008, 30.243509204000077], [71.195003, 30.243951], [71.18798720700005, 30.244243106000056], [71.184315, 30.244396], [71.174072, 30.243506], [71.163829, 30.246623], [71.157594, 30.250186], [71.15590132100004, 30.251320083000053], [71.153585, 30.252858], [71.148241, 30.252413], [71.14067, 30.251522], [71.129536, 30.251077], [71.119293, 30.251077], [71.108159, 30.251077], [71.105487, 30.251522], [71.10180914000006, 30.252067072000045], [71.093463, 30.253304], [71.082329, 30.255085], [71.07886027200004, 30.25222562400006], [71.076984, 30.250186], [71.07164, 30.250186], [71.06937976800003, 30.25047545700005], [71.062733, 30.250631], [71.05930683900004, 30.252380841000047], [71.054717, 30.254194], [71.0528871434724, 30.253912726716827], [71.05179318899337, 30.255394349895475], [71.05174645507621, 30.25546461497033], [71.051706832153, 30.255539121773467], [71.05167470168651, 30.25561715300363], [71.0516503730072, 30.25569795742876], [71.0516340803352, 30.255780757118355], [71.05162598052537, 30.25586475493284], [71.0516261515572, 30.255949142197906], [71.05163459178414, 30.256033106489884], [71.05165121994933, 30.25611583945719], [71.05167587596804, 30.25619654460262], [71.05170832246876, 30.25627444495146], [71.05174824707844, 30.256348790531685], [71.05179526542987, 30.256418865594195], [71.05184892486209, 30.256483995503544], [71.05190870877826, 30.256543553232895], [71.05477555052278, 30.259132069945807], [71.05483416776148, 30.25918047017497], [71.0548968297748, 30.259223505450525], [71.05496304703848, 30.25926083957496], [71.05503230225412, 30.25929218088896], [71.05510405439044, 30.25931728454986], [71.05940431700722, 30.260611542906314], [71.0594901987381, 30.26063264268806], [71.05957779318312, 30.26064481173453], [71.05966617419124, 30.260647921380315], [71.0597544072949, 30.260641938746595], [71.05984155959045, 30.260626927088783], [71.06529439532247, 30.25939606420177], [71.07363250898283, 30.263160371493107], [71.07371744359334, 30.263193417867562], [71.07380539823927, 30.263217291099135], [71.0738953852817, 30.263231723116334], [71.07398639426003, 30.26323655186266], [71.07962421434641, 30.26323655186266], [71.08504461307982, 30.264460092780023], [71.08774423058476, 30.266897620084542], [71.0878142508872, 30.266954470710726], [71.08788983985974, 30.267003675829198], [71.08797016620323, 30.26704469430056], [71.08805434651875, 30.26707707501907], [71.08814145502281, 30.26710046187376], [71.08823053372882, 30.267114597664786], [71.08832060298263, 30.26711932693203], [71.09229003863003, 30.26711932693203], [71.09634475581832, 30.27078039515391], [71.09641477612077, 30.270837245780093], [71.0964903650933, 30.270886450898566], [71.0965706914368, 30.270927469369926], [71.0966548717523, 30.27095985008844], [71.09674198025637, 30.270983236943128], [71.09683105896238, 30.270997372734154], [71.0969211282162, 30.271002102001397], [71.10232398473585, 30.271002102001397], [71.10637870192414, 30.274663170223278], [71.10644872222659, 30.27472002084946], [71.10652431119912, 30.274769225967933], [71.10660463754262, 30.274810244439294], [71.10668881785813, 30.274842625157806], [71.10677592636219, 30.274866012012495], [71.1068650050682, 30.274880147803522], [71.10695507432202, 30.274884877070765], [71.11235793084167, 30.274884877070765], [71.1149792271577, 30.27725168693619], [71.11504924746015, 30.277308537562373], [71.11512483643268, 30.277357742680845], [71.11520516277618, 30.277398761152206], [71.11528934309169, 30.277431141870718], [71.11537645159575, 30.277454528725407], [71.11546553030176, 30.277468664516434], [71.11555559955558, 30.277473393783676], [71.11823729904275, 30.277473393783676], [71.12067519398589, 30.278574000717544], [71.12197031040671, 30.28091276288107], [71.12201156264369, 30.2809798191646], [71.12205877394376, 30.281042822222958], [71.12211154869621, 30.281101244117163], [71.1221694446709, 30.28115459529645], [71.12223197672407, 30.281202428700507], [71.12229862086356, 30.28124434350563], [71.12236881863967, 30.28127998848349], [71.12523566038419, 30.282574246839946], [71.1253205949947, 30.2826072932144], [71.12540854964064, 30.282631166445974], [71.12549853668307, 30.282645598463173], [71.1255895456614, 30.2826504272095], [71.12812556043653, 30.2826504272095], [71.13218027762483, 30.28631149543138], [71.13224087917645, 30.28636138719789], [71.13230577718001, 30.286405545838694], [71.13237443102499, 30.286443603505397], [71.13244626881408, 30.28647524317168], [71.14233210051309, 30.290300703310297], [71.14425833531281, 30.292039931149304], [71.14553234801356, 30.294915746647902], [71.14626199128432, 30.297550972403787], [71.14628403170937, 30.297619334791428]], [[71.48898493920365, 30.570711181875595], [71.490075621529, 30.555371555330666], [71.49007562169265, 30.55537155545295], [71.48898493920365, 30.570711181875595]], [[71.2805612514322, 30.651982894601055], [71.27978519364353, 30.650580417543868], [71.28195529264077, 30.652000841308485], [71.2805612514322, 30.651982894601055]], [[71.21732124197841, 30.71312979726175], [71.21784384863668, 30.714074242197224], [71.21602912147857, 30.712999989398977], [71.21732124197841, 30.71312979726175]], [[71.21130645829929, 30.68888211487154], [71.21105540632183, 30.68972789624346], [71.21006663863213, 30.690012474927613], [71.21015526659623, 30.68969214134399], [71.21130645829929, 30.68888211487154]], [[71.19224413165946, 30.631166826536628], [71.19283955224012, 30.630090793648456], [71.19411264440068, 30.630008758635427], [71.19224413165946, 30.631166826536628]]]]}}, {"type": "Feature", "properties": {"na": "NA-180", "src": "sheet-split: kotaddu_na179_180.jpg, outline-fit", "approx": false, "rms_km": 1.416}, "geometry": {"type": "Polygon", "coordinates": [[[71.03462244529221, 30.23186383957377], [71.03457328478072, 30.2317985823463], [71.03453053832489, 30.231728954750192], [71.03449459168581, 30.231655585132735], [71.03446576926036, 30.23157913561071], [71.03444433115364, 30.23150029609519], [71.03301091028138, 30.225029004312912], [71.03299566069663, 30.224936560787338], [71.0329905573134, 30.224843007002082], [71.0329905573134, 30.21966597357626], [71.03299495289302, 30.219579131549686], [71.0330080947018, 30.219493177192255], [71.03302984840873, 30.219408989099662], [71.03305999165494, 30.219327427813457], [71.03309821632658, 30.219249327024876], [71.03401388859157, 30.21759577710988], [71.03318716300004, 30.215546430000074], [71.03051238800003, 30.212665945000026], [71.02574174800003, 30.213393533000044], [71.02230970100004, 30.214779220000025], [71.01993983200003, 30.18022524500003], [71.02168066600007, 30.179624127000068], [71.02336401000008, 30.178132898000058], [71.02745002900008, 30.171362959000078], [71.03156651000006, 30.171230974000025], [71.03394894100006, 30.171731607000027], [71.04087246100005, 30.164520536000055], [71.044028, 30.161115], [71.05249, 30.157998], [71.05249, 30.148071387000073], [71.042692, 30.146864], [71.03452834300003, 30.144637700000033], [71.032894, 30.144192], [71.02327032700003, 30.14436720300006], [71.01394282100006, 30.13774147500004], [71.01268976100005, 30.132857268000066], [71.00659891600003, 30.12680486900007], [71.00517784100003, 30.12551749800008], [71.00199783800008, 30.122433664000027], [70.997711, 30.118361], [70.99519651000003, 30.112751478000064], [70.993258, 30.110345], [70.984796, 30.11079], [70.97872962600007, 30.11079], [70.975889, 30.11079], [70.962083, 30.111235], [70.95149826000005, 30.111658998000053], [70.94894713400004, 30.11136379900006], [70.935807, 30.113907], [70.93547684700007, 30.11622029700004], [70.931799, 30.12326], [70.93002892500004, 30.124191475000032], [70.923337, 30.127713], [70.914875, 30.124596], [70.91118642300006, 30.11697182200004], [70.90402635100008, 30.11038617400004], [70.897952, 30.106336], [70.890826, 30.106336], [70.87904332900007, 30.101623284000027], [70.877465, 30.100992], [70.87465485200005, 30.10080007700003], [70.87222427400008, 30.10027642500006], [70.86757521600003, 30.09636450200003], [70.86442982200003, 30.094122913000035], [70.85775195800005, 30.107767782000053], [70.856313, 30.110708], [70.85097539900005, 30.12138320200006], [70.84937734300007, 30.124579315000062], [70.84833462352896, 30.12666475333392], [70.84801872300001, 30.12777419], [70.847774042, 30.128633504], [70.84762608954738, 30.1291898234168], [70.84734347100004, 30.13823889200006], [70.84686674700004, 30.153475103000062], [70.84673416800007, 30.157144248000066], [70.84646039600005, 30.164590255000064], [70.84631269200008, 30.168144685000073], [70.84566860300004, 30.18200369300007], [70.84402250200003, 30.18875594900004], [70.841745, 30.19812], [70.84090833215089, 30.199145531781895], [70.840832797, 30.200139065], [70.840380507, 30.201346933], [70.84023156, 30.201744704], [70.839630074, 30.203351009], [70.838784565, 30.204329043], [70.83708748, 30.206292127], [70.834309491, 30.209505534], [70.834030089, 30.20982873], [70.83324808200001, 30.210654451], [70.831673448, 30.212317103], [70.830486207, 30.213570727], [70.829001202, 30.215138764], [70.827848396, 30.216059629], [70.826482808, 30.21715035], [70.82359060598586, 30.219460574805506], [70.82103822700003, 30.222013068000024], [70.81193832800005, 30.231113376000053], [70.805323, 30.237729], [70.80459710100007, 30.245807755000044], [70.804412, 30.251387], [70.81434930200004, 30.258379407000064], [70.81541121575508, 30.2591266253646], [70.81625337700001, 30.259426721], [70.81857338684685, 30.260256696605587], [70.824444, 30.260947], [70.82575537800005, 30.263117197000042], [70.828997, 30.270508], [70.82634731600007, 30.28489128800004], [70.82581, 30.287808], [70.825355, 30.301922], [70.82514340600005, 30.307103393000034], [70.82404920000005, 30.315555735000032], [70.824444, 30.32423], [70.82452563500004, 30.327816218000066], [70.82489249500003, 30.343932296000048], [70.8249, 30.347673133000058], [70.8249, 30.362018], [70.82919828100006, 30.370099039000024], [70.83522520200006, 30.381430032000026], [70.836281, 30.383415], [70.83513972900005, 30.39117724600004], [70.834005, 30.398895], [70.83160620500007, 30.404323764000026], [70.82835889500006, 30.411672821000025], [70.825355, 30.418471], [70.82528631300005, 30.425283388000025], [70.82488954000007, 30.428519191000078], [70.82489950000007, 30.446243], [70.82220952155728, 30.446970097264742], [70.821703116, 30.4485669], [70.820966169, 30.450892826], [70.819461215, 30.452275666], [70.81817208000001, 30.45344882], [70.81681896, 30.453689445], [70.816004639, 30.453834201], [70.815422697, 30.453937614], [70.814620497, 30.45408025], [70.81314291800001, 30.454117369], [70.810442563, 30.454185206], [70.809315958, 30.454214697], [70.806080995, 30.454324939], [70.8054339371117, 30.454346895807483], [70.79834017900004, 30.463957194000045], [70.79799833585209, 30.464420307422834], [70.798013655, 30.464492688], [70.798261781, 30.465512652], [70.79822699200001, 30.466810831], [70.798201343, 30.467767843], [70.798167196, 30.469041889], [70.79783068200001, 30.470243905], [70.797270362, 30.472245361], [70.796965612, 30.473333362], [70.79666069400001, 30.474423097], [70.796186923, 30.475611908], [70.79571392000001, 30.476798792], [70.79461335500001, 30.479560389], [70.794024135, 30.481087284], [70.793440892, 30.482598697], [70.793393009, 30.484479976], [70.79391935000001, 30.485447207], [70.794187819, 30.48594056], [70.794687691, 30.486859147], [70.79464680000001, 30.488387144], [70.794630524, 30.488978279], [70.794059362, 30.489582655], [70.793332401, 30.490351437], [70.79307881071823, 30.49061994751342], [70.79303590329704, 30.491652054711466], [70.79391170572796, 30.493091093144983], [70.79807772600003, 30.499340287000052], [70.80084067800004, 30.50344179900003], [70.805778, 30.510891], [70.80437975804871, 30.514456709292396], [70.80432485, 30.515402503], [70.804239986, 30.516864257], [70.804016106, 30.520720559], [70.80392722500001, 30.522250583], [70.802912967, 30.523714437], [70.801644312, 30.525545457], [70.800343069, 30.527423366], [70.799179114, 30.529103146], [70.797947562, 30.530880479], [70.797269236, 30.53300629], [70.796998337, 30.53385526], [70.796713006, 30.534749482], [70.796282933, 30.536614868], [70.79626521358777, 30.536692397693034], [70.79553528800005, 30.541314813000042], [70.793941, 30.551411], [70.79396501844714, 30.55143031866207], [70.79876958678608, 30.55143031866207], [70.79883375804782, 30.55143271601457], [70.79889757156133, 30.551439894707073], [70.80749809679489, 30.55273415306353], [70.80758079661642, 30.55275078162793], [70.8076614696668, 30.552775431751243], [70.80773933987687, 30.552807866301006], [70.80781365814065, 30.552847773259106], [70.81190925675612, 30.55531309373144], [70.81365277802132, 30.55531309373144], [70.81630215437131, 30.554715052788485], [70.8178290483439, 30.553336396092693], [70.81659723108953, 30.54999971430033], [70.81657408199393, 30.54992730948806], [70.81655741653331, 30.549853143458844], [70.81654736489547, 30.549777795585328], [70.81654400560211, 30.549701854472517], [70.81654400560211, 30.547113337759605], [70.81654883289187, 30.547022342469816], [70.8165632605721, 30.546932368653998], [70.81658712668384, 30.54684442631948], [70.81662016331641, 30.54675950266908], [70.8166619996148, 30.546678551019138], [70.8167121659427, 30.546602480098056], [70.81941084734663, 30.54294745697187], [70.81941084734663, 30.538053529264413], [70.81941477130891, 30.537971466911007], [70.81942650738985, 30.53789015337135], [70.81944594849847, 30.53781033062633], [70.81947291723587, 30.53773272705341], [70.81950716751405, 30.53765805078026], [70.81954838680139, 30.53758698322312], [70.81959619897452, 30.53752017286893], [70.81965016775041, 30.537458229357924], [70.81970980066741, 30.537401717920694], [70.81977455357894, 30.537351154220513], [70.8198438356188, 30.53730699964793], [70.81991701459278, 30.53726965711061], [70.82227768909115, 30.536203911956648], [70.82227768909115, 30.53287649583859], [70.82228140014281, 30.53279668589686], [70.82229250127209, 30.53271756470101], [70.82231089667816, 30.53263981505317], [70.82233642761189, 30.53256410791925], [70.82236887374576, 30.53249109663861], [70.82240795507529, 30.532421411285874], [70.82245333433544, 30.53235565323349], [70.82250461991107, 30.53229438996199], [70.82256136921663, 30.53223815016272], [70.82741969584154, 30.527851490281893], [70.82651930002777, 30.528393478020753], [70.82741969584156, 30.527851490281883], [70.82972847357793, 30.52576685838044], [70.8297974759695, 30.52571075030001], [70.82987190362596, 30.52566206795529], [70.8299509606986, 30.525621331902506], [70.83281780244312, 30.52432707354605], [70.83292381919011, 30.52428738541993], [70.8372240818069, 30.522993127063476], [70.83730538630681, 30.52297291796333], [70.83738827131204, 30.52296071528562], [70.8374719503371, 30.52295663482004], [70.8446390546984, 30.52295663482004], [70.84473006367674, 30.522961463566368], [70.84482005071916, 30.522975895583567], [70.8449080053651, 30.52299976881514], [70.84499293997561, 30.523032815189595], [70.84769103870028, 30.524250893176497], [70.85323957993197, 30.524250893176497], [70.85332272405644, 30.524254921519415], [70.85340508931444, 30.524266968811993], [70.85348590413561, 30.524286922199202], [70.85356441147361, 30.52431459476435], [70.85363987589784, 30.524349727280054], [70.85371159048265, 30.524391990636605], [70.8537788834297, 30.524440988924937], [70.85384112436105, 30.52449626314539], [70.85389773022438, 30.524557295507464], [70.85394817075478, 30.5246235142803], [70.85399197344213, 30.52469429914847], [70.85517985316261, 30.52683940988941], [70.86040668429327, 30.52683940988941], [70.86049675354708, 30.52684413915665], [70.8605858322531, 30.526858274947678], [70.86067294075715, 30.526881661802367], [70.86075712107267, 30.52691404252088], [70.86083744741616, 30.52695506099224], [70.8609130363887, 30.527004266110712], [70.86098305669114, 30.527061116736895], [70.86370645622407, 30.529520117210293], [70.86757378865457, 30.530684075731298], [70.87592644535792, 30.5281701604893], [70.8760123270888, 30.528149060707555], [70.87609992153382, 30.528136891661084], [70.87618830254193, 30.5281337820153], [70.8762765356456, 30.52813976464902], [70.87636368794115, 30.52815477630683], [70.88176040949084, 30.52937297259836], [70.88576471387294, 30.526962606129988], [70.8858456420673, 30.52691959153743], [70.88593068800584, 30.526885432846747], [70.88601888594093, 30.526860517950375], [70.89175256942997, 30.52556625959392], [70.89184667008404, 30.525550444837357], [70.89194194348299, 30.525545151532953], [70.89734480000264, 30.525545151532953], [70.89996609631868, 30.523178341667528], [70.90003611662112, 30.523121491041344], [70.90011170559366, 30.523072285922872], [70.90019203193715, 30.52303126745151], [70.90027621225266, 30.522998886733], [70.90036332075672, 30.52297549987831], [70.90045239946274, 30.522961364087283], [70.90054246871655, 30.52295663482004], [70.90290245810269, 30.52295663482004], [70.90409033782316, 30.520811524079104], [70.9041327490339, 30.520742768243355], [70.90418142421485, 30.520678294973656], [70.90423593391883, 30.520618673099165], [70.90429579722236, 30.520564428646587], [70.9043604859687, 30.520516040199162], [70.90986531132421, 30.51678824484867], [70.9112030086587, 30.513164760663937], [70.91123503076535, 30.513089300703243], [70.91127409148689, 30.513017232117747], [70.91131983598125, 30.512949209605168], [70.91137184868852, 30.5128858511072], [70.91142965710598, 30.5128277321959], [70.9114927360806, 30.51277538084497], [70.91981524657484, 30.506513275647123], [70.9211837292771, 30.497863903050835], [70.9211837292771, 30.491460228432], [70.92118839916166, 30.491370724889144], [70.92120235810259, 30.491282193313005], [70.92122545451228, 30.491195595115194], [70.92125743757452, 30.49111187071173], [70.92398297946181, 30.48495953361424], [70.92267037563678, 30.481404021408167], [70.9226454666664, 30.481325034965522], [70.92262827057108, 30.481244018860746], [70.9226189468141, 30.481161724374402], [70.92261758185673, 30.481078914641774], [70.92262418835655, 30.48099635757613], [70.92263870504998, 30.48091481874772], [70.92266099732048, 30.480835054284434], [70.92269085844679, 30.480757803860083], [70.92543307237443, 30.474567833140867], [70.924081756084, 30.469687333812423], [70.92406447798687, 30.46961187544986], [70.92405405481881, 30.469535169161404], [70.92405057102162, 30.46945783637225], [70.92405057102162, 30.466869319659338], [70.92405539831138, 30.46677832436955], [70.92406982599161, 30.46668835055373], [70.92409369210336, 30.466600408219215], [70.92412672873593, 30.466515484568813], [70.92416856503431, 30.46643453291887], [70.92421873136222, 30.46635846199779], [70.92691741276614, 30.462703438871603], [70.92691741276614, 30.455220994451235], [70.9269222400559, 30.455129999161446], [70.92693666773613, 30.455040025345628], [70.92696053384788, 30.45495208301111], [70.92699357048045, 30.45486715936071], [70.92703540677883, 30.454786207710768], [70.92708557310674, 30.454710136789686], [70.92978425451066, 30.4510551136635], [70.92978425451066, 30.444866927599588], [70.92978817847295, 30.44478486524618], [70.92979991455388, 30.444703551706525], [70.9298193556625, 30.444623728961503], [70.9298463243999, 30.444546125388584], [70.92988057467808, 30.444471449115433], [70.92992179396542, 30.444400381558296], [70.92996960613856, 30.444333571204105], [70.93002357491444, 30.444271627693098], [70.93008320783144, 30.44421511625587], [70.93014796074297, 30.444164552555687], [70.93021724278283, 30.444120397983106], [70.93029042175681, 30.444083055445784], [70.93315726350133, 30.442788797089328], [70.9332189971929, 30.442763757756044], [70.94022724279311, 30.4402326154774], [70.94296872248648, 30.437757290141437], [70.94303874278893, 30.437700439515254], [70.94311433176146, 30.43765123439678], [70.94319465810496, 30.43761021592542], [70.94327883842047, 30.43757783520691], [70.94336594692453, 30.43755444835222], [70.94345502563054, 30.437540312561193], [70.94354509488436, 30.43753558329395], [70.94608110965949, 30.43753558329395], [70.94870240597552, 30.435168773428526], [70.94877073528116, 30.435113157607372], [70.94884439578708, 30.435064823939634], [70.94892261452951, 30.435024279619416], [70.94900457071238, 30.43499195010255], [70.94908940432038, 30.434968174642005], [70.95482308780942, 30.43367391628555], [70.95491718846348, 30.433658101528987], [70.95501246186244, 30.433652808224583], [70.95921686107656, 30.433652808224583], [70.96463725980996, 30.43242926730722], [70.9673368773149, 30.429991740002702], [70.96740587970648, 30.429935631922273], [70.96748030736293, 30.429886949577554], [70.96755936443557, 30.42984621352477], [70.9704262061801, 30.428551955168313], [70.97050153669782, 30.428522133529032], [70.97057933911236, 30.428499532613934], [70.97065892300456, 30.428484352983695], [70.97073958214642, 30.428476729342453], [70.97082060076818, 30.428476729342453], [70.97090125991004, 30.428484352983695], [70.97098084380224, 30.428499532613934], [70.97105864621678, 30.428522133529032], [70.9711339767345, 30.428551955168313], [70.973707370342, 30.429713734044775], [70.9776769870763, 30.428518990819036], [70.98482214859426, 30.425938399122117], [70.98489101830019, 30.425916747219013], [70.98496146124516, 30.42590094744663], [70.99212856560646, 30.424606689090176], [70.9922046791566, 30.424596428905947], [70.9922814045412, 30.42459299972939], [70.99658166715798, 30.42459299972939], [70.9966717364118, 30.424597728996634], [70.99676081511781, 30.42461186478766], [70.99684792362187, 30.42463525164235], [70.99693210393738, 30.424667632360862], [70.99701243028088, 30.424708650832223], [70.99708801925341, 30.424757855950695], [70.99715803955586, 30.42481470657688], [70.99977933587189, 30.427181516442303], [71.00198452367763, 30.427181516442303], [71.00460581999367, 30.42481470657688], [71.00466443723238, 30.424766306347713], [71.0047270992457, 30.42472327107216], [71.00479331650938, 30.424685936947725], [71.00486257172501, 30.424654595633726], [71.00493432386133, 30.424629491972826], [71.00923458647812, 30.42333523361637], [71.00932165359414, 30.42331390736656], [71.00941046754711, 30.42330175938803], [71.00950006352278, 30.423298921648136], [71.00958946821156, 30.423305424974156], [71.00967771038184, 30.42332119871839], [71.00976383143086, 30.423346071525632], [71.00984689579825, 30.423379773194657], [71.00992600112933, 30.423421937613515], [71.01402159974481, 30.425887258085847], [71.01641067724992, 30.425887258085847], [71.0205062758654, 30.423421937613515], [71.02058720405975, 30.423378923020955], [71.0206722499983, 30.423344764330274], [71.02076044793338, 30.423319849433902], [71.02649413142242, 30.422025591077446], [71.0265727255779, 30.422011647412806], [71.02665227395764, 30.422005050266417], [71.02673209135615, 30.42200585646409], [71.0268114902507, 30.422014059061482], [71.03534838134485, 30.423298741372935], [71.03782004548414, 30.423298741372935], [71.04044134180018, 30.42093193150751], [71.04050493638385, 30.42087980686816], [71.04057321808907, 30.420833993574963], [71.04064556277676, 30.420794910391102], [71.04072130916964, 30.42076291456221], [71.04079976489656, 30.420738298550894], [71.04088021282135, 30.420721287363456], [71.04096191759783, 30.42071203649317], [71.04104413239139, 30.420710630498984], [71.04112610570554, 30.420717082232603], [71.04120708825107, 30.42073133272099], [71.04665992398309, 30.421962195608003], [71.0492643541544, 30.420786405029578], [71.04933968467213, 30.420756583390297], [71.04941748708667, 30.4207339824752], [71.04949707097887, 30.42071880284496], [71.04957773012073, 30.420711179203717], [71.04965874874249, 30.420711179203717], [71.04973940788435, 30.42071880284496], [71.04981899177655, 30.4207339824752], [71.04989679419108, 30.420756583390297], [71.04997212470882, 30.420786405029578], [71.05840390692252, 30.42459299972939], [71.06098974300703, 30.42459299972939], [71.06662991584571, 30.423319849433902], [71.06671089839124, 30.423305598945515], [71.06679287170539, 30.423299147211896], [71.06687508649895, 30.423300553206083], [71.06695679127543, 30.423309804076368], [71.06703723920022, 30.423326815263806], [71.06711569492714, 30.423351431275123], [71.06719144132002, 30.423383427104014], [71.06726378600771, 30.423422510287875], [71.06733206771293, 30.423468323581073], [71.0673956622966, 30.423520448220422], [71.07011906182953, 30.42597944869382], [71.07401766453637, 30.42715281869037], [71.07953070369605, 30.425908366146814], [71.07962480435012, 30.425892551390252], [71.07972007774907, 30.425887258085847], [71.0825869194936, 30.425887258085847], [71.08267792847192, 30.425892086832174], [71.08276791551435, 30.425906518849374], [71.08285587016029, 30.425930392080947], [71.0829408047708, 30.4259634384554], [71.08580764651532, 30.427257696811857], [71.08588670358796, 30.427298432864642], [71.08596113124442, 30.42734711520936], [71.08603013363599, 30.42740322328979], [71.08875353316891, 30.429862223763188], [71.09240440050627, 30.43096103236647], [71.09480482959655, 30.428793647009307], [71.09606107569284, 30.426525078106277], [71.09606107569284, 30.420276018826925], [71.0960644349862, 30.420200077714114], [71.09607448662405, 30.420124729840598], [71.09609115208467, 30.420050563811383], [71.09611430118026, 30.41997815899911], [71.10041456379705, 30.408329833791008], [71.10044612665419, 30.408255328480784], [71.10048455164288, 30.408184119103257], [71.10052949865022, 30.408116835957273], [71.10330182511395, 30.404362069898735], [71.10469278598877, 30.399338387683457], [71.10471482641383, 30.399270025295817], [71.10609502179867, 30.39553142462743], [71.10609502179867, 30.382742526489704], [71.10609873285033, 30.382662716547973], [71.1061098339796, 30.382583595352123], [71.10612822938567, 30.382505845704284], [71.1061537603194, 30.382430138570363], [71.10618620645327, 30.382357127289723], [71.1062252877828, 30.382287441936988], [71.10627066704295, 30.382221683884605], [71.10632195261859, 30.382160420613104], [71.10637870192414, 30.382104180813833], [71.1090290888469, 30.379711104579908], [71.11035362148228, 30.372535455899552], [71.10906952255637, 30.370216589476527], [71.10903309678883, 30.37014265926566], [71.1090039146807, 30.370065581920198], [71.10898224420873, 30.36998606523475], [71.108968284371, 30.369904839404192], [71.10896216335952, 30.369822650318312], [71.10896393738298, 30.3697402527124], [71.1089735901507, 30.369658403236564], [71.10899103302212, 30.36957785350748], [71.10901610582088, 30.369499343206364], [71.10904857830563, 30.369423593286534], [71.10908815228433, 30.369351299352978], [71.10913446435255, 30.36928312527465], [71.10918708923057, 30.369219697088223], [71.10924554366866, 30.369161597249274], [71.11200588006368, 30.366669245899423], [71.11313906235799, 30.36462290949932], [71.11193636430089, 30.36245103933779], [71.11189993853336, 30.362377109126925], [71.11187075642522, 30.362300031781462], [71.11184908595325, 30.362220515096016], [71.11183512611552, 30.362139289265457], [71.11182900510404, 30.362057100179577], [71.1118307791275, 30.361974702573665], [71.11184043189522, 30.361892853097828], [71.11185787476664, 30.361812303368744], [71.1118829475654, 30.36173379306763], [71.11191542005015, 30.3616580431478], [71.11195499402885, 30.361585749214242], [71.11200130609707, 30.361517575135913], [71.1120539309751, 30.361454146949487], [71.11211238541318, 30.36139604711054], [71.11469554703223, 30.35906366966563], [71.11469554703223, 30.354268842647674], [71.11469925808389, 30.354189032705943], [71.11471035921316, 30.354109911510093], [71.11472875461924, 30.354032161862254], [71.11475428555296, 30.353956454728333], [71.11478673168683, 30.353883443447693], [71.11482581301637, 30.353813758094958], [71.11487119227651, 30.353748000042575], [71.11492247785215, 30.353686736771074], [71.1149792271577, 30.353630496971803], [71.1151857857093, 30.353443991991536], [71.1151857857093, 30.35344399199153], [71.11776590224613, 30.351114363999468], [71.12200638599867, 30.3447330310191], [71.12205811170668, 30.34466313348655], [71.12211663096541, 30.344598816223844], [71.13631593522558, 30.330495962410808], [71.13768350647581, 30.326791557334285], [71.1377160446035, 30.326715028287403], [71.13775582162073, 30.32664199943235], [71.13780246564896, 30.3265731535218], [71.13785554060942, 30.32650913420173], [71.1379145503, 30.326450539993928], [71.13797894303434, 30.326397918700383], [71.13804811679957, 30.326351762281817], [71.13812142488456, 30.326312502258318], [71.1381981819261, 30.32628050567501], [71.14479738534969, 30.32389709565435], [71.14479738534969, 30.319323867023364], [71.14480074464305, 30.319247925910553], [71.1448107962809, 30.319172578037037], [71.14482746174151, 30.319098412007822], [71.14485061083711, 30.31902600719555], [71.14628403170937, 30.315143232126182], [71.14631650076763, 30.315066845958235], [71.14635618178838, 30.31499394532045], [71.14640270520349, 30.314925209170976], [71.14645563771836, 30.314861277682127], [71.14651448634743, 30.314802746278126], [71.14904947893575, 30.31251386141222], [71.14768286412999, 30.301408418482144], [71.14628403170937, 30.297619334791428], [71.14626199128432, 30.297550972403787], [71.14553234801356, 30.294915746647902], [71.14425833531281, 30.292039931149304], [71.14233210051309, 30.290300703310297], [71.13244626881408, 30.28647524317168], [71.13237443102499, 30.286443603505397], [71.13230577718001, 30.286405545838694], [71.13224087917645, 30.28636138719789], [71.13218027762483, 30.28631149543138], [71.12812556043653, 30.2826504272095], [71.1255895456614, 30.2826504272095], [71.12549853668307, 30.282645598463173], [71.12540854964064, 30.282631166445974], [71.1253205949947, 30.2826072932144], [71.12523566038419, 30.282574246839946], [71.12236881863967, 30.28127998848349], [71.12229862086356, 30.28124434350563], [71.12223197672407, 30.281202428700507], [71.1221694446709, 30.28115459529645], [71.12211154869621, 30.281101244117163], [71.12205877394376, 30.281042822222958], [71.12201156264369, 30.2809798191646], [71.12197031040671, 30.28091276288107], [71.12067519398589, 30.278574000717544], [71.11823729904275, 30.277473393783676], [71.11555559955558, 30.277473393783676], [71.11546553030176, 30.277468664516434], [71.11537645159575, 30.277454528725407], [71.11528934309169, 30.277431141870718], [71.11520516277618, 30.277398761152206], [71.11512483643268, 30.277357742680845], [71.11504924746015, 30.277308537562373], [71.1149792271577, 30.27725168693619], [71.11235793084167, 30.274884877070765], [71.10695507432202, 30.274884877070765], [71.1068650050682, 30.274880147803522], [71.10677592636219, 30.274866012012495], [71.10668881785813, 30.274842625157806], [71.10660463754262, 30.274810244439294], [71.10652431119912, 30.274769225967933], [71.10644872222659, 30.27472002084946], [71.10637870192414, 30.274663170223278], [71.10232398473585, 30.271002102001397], [71.0969211282162, 30.271002102001397], [71.09683105896238, 30.270997372734154], [71.09674198025637, 30.270983236943128], [71.0966548717523, 30.27095985008844], [71.0965706914368, 30.270927469369926], [71.0964903650933, 30.270886450898566], [71.09641477612077, 30.270837245780093], [71.09634475581832, 30.27078039515391], [71.09229003863003, 30.26711932693203], [71.08832060298263, 30.26711932693203], [71.08823053372882, 30.267114597664786], [71.08814145502281, 30.26710046187376], [71.08805434651875, 30.26707707501907], [71.08797016620323, 30.26704469430056], [71.08788983985974, 30.267003675829198], [71.0878142508872, 30.266954470710726], [71.08774423058476, 30.266897620084542], [71.08504461307982, 30.264460092780023], [71.07962421434641, 30.26323655186266], [71.07398639426003, 30.26323655186266], [71.0738953852817, 30.263231723116334], [71.07380539823927, 30.263217291099135], [71.07371744359334, 30.263193417867562], [71.07363250898283, 30.263160371493107], [71.06529439532247, 30.25939606420177], [71.05984155959045, 30.260626927088783], [71.0597544072949, 30.260641938746595], [71.05966617419124, 30.260647921380315], [71.05957779318312, 30.26064481173453], [71.0594901987381, 30.26063264268806], [71.05940431700722, 30.260611542906314], [71.05510405439044, 30.25931728454986], [71.05503230225412, 30.25929218088896], [71.05496304703848, 30.25926083957496], [71.0548968297748, 30.259223505450525], [71.05483416776148, 30.25918047017497], [71.05477555052278, 30.259132069945807], [71.05190870877826, 30.256543553232895], [71.05184892486209, 30.256483995503544], [71.05179526542987, 30.256418865594195], [71.05174824707844, 30.256348790531685], [71.05170832246876, 30.25627444495146], [71.05167587596804, 30.25619654460262], [71.05165121994933, 30.25611583945719], [71.05163459178414, 30.256033106489884], [71.0516261515572, 30.255949142197906], [71.05162598052537, 30.25586475493284], [71.0516340803352, 30.255780757118355], [71.0516503730072, 30.25569795742876], [71.05167470168651, 30.25561715300363], [71.051706832153, 30.255539121773467], [71.05174645507621, 30.25546461497033], [71.05179318899337, 30.255394349895475], [71.0528871434724, 30.253912726716827], [71.048927, 30.253304], [71.04018178000007, 30.25167473600004], [71.037348, 30.245287], [71.044474, 30.235489], [71.04158706786183, 30.239458430408327], [71.03900792092792, 30.237129677886056], [71.038922707909, 30.237040872999593], [71.03462244529221, 30.23186383957377]], [[71.07543519055832, 30.358520280615796], [71.0769976106775, 30.358250124361607], [71.07700581277511, 30.358278313611763], [71.07543519055832, 30.358520280615796]], [[70.97488382940085, 30.190968873373304], [70.97504577312466, 30.194223565521426], [70.97462945943637, 30.193471211244542], [70.97488382940085, 30.190968873373304]], [[70.97056202748763, 30.366029156459245], [70.97157074204551, 30.365875782151612], [70.97467975530458, 30.367537371385055], [70.97056202748763, 30.366029156459245]]]}}]}