{"type":"FeatureCollection", "features": [
{"type":"Feature","geometry":{"type":"Polygon","coordinates":[[[72.5152,35.8987],[72.5673,36.2481],[72.8514,36.3753],[73.1423,36.7193],[73.8551,36.714],[73.6399,36.9027],[72.6564,36.8505],[71.6562,36.4783],[71.2006,36.0352],[71.5469,35.7206],[71.673,35.2159],[71.9487,35.5787],[72.2916,35.7648],[72.5152,35.8987]]]},"properties":{"na":"NA-1","dist":"Chitral","approx":false}},
{"type":"Feature","geometry":{"type":"Polygon","coordinates":[[[72.2916,35.7648],[72.369,35.4997],[72.2815,35.2614],[72.2889,35.2523],[72.6436,35.0795],[72.7237,35.1583],[72.8144,35.5787],[72.7321,35.8317],[72.5152,35.8987],[72.2916,35.7648]]]},"properties":{"na":"NA-2","dist":"Swat","approx":true}},
{"type":"Feature","geometry":{"type":"Polygon","coordinates":[[[72.5871,34.8641],[72.1827,34.8164],[72.1924,34.8022],[72.0933,34.6697],[72.216,34.5679],[72.5303,34.7058],[72.5808,34.7995],[72.5871,34.8641]]]},"properties":{"na":"NA-3","dist":"Swat","approx":true}},
{"type":"Feature","geometry":{"type":"Polygon","coordinates":[[[72.2889,35.2523],[72.3185,35.2159],[72.1286,34.8665],[72.1723,34.8317],[72.1827,34.8164],[72.5871,34.8641],[72.5909,34.9026],[72.6245,35.0606],[72.6436,35.0795],[72.2889,35.2523]]]},"properties":{"na":"NA-4","dist":"Swat","approx":true}},
{"type":"Feature","geometry":{"type":"Polygon","coordinates":[[[71.673,35.2159],[71.5553,35.0298],[71.9268,34.987],[71.9218,34.9502],[71.9184,34.9254],[72.1286,34.8665],[72.3185,35.2159],[72.2889,35.2523],[72.2815,35.2614],[72.369,35.4997],[72.2916,35.7648],[71.9487,35.5787],[71.673,35.2159]]]},"properties":{"na":"NA-5","dist":"Upper Dir","approx":false}},
{"type":"Feature","geometry":{"type":"Polygon","coordinates":[[[72.1827,34.8164],[72.1723,34.8317],[72.1286,34.8665],[71.9184,34.9254],[71.9218,34.9502],[71.7618,34.7655],[71.7604,34.6563],[72.0933,34.6697],[72.1924,34.8022],[72.1827,34.8164]]]},"properties":{"na":"NA-6","dist":"Lower Dir","approx":true}},
{"type":"Feature","geometry":{"type":"Polygon","coordinates":[[[71.5553,35.0298],[71.5099,34.9856],[71.7621,34.7862],[71.7618,34.7655],[71.9218,34.9502],[71.9268,34.987],[71.5553,35.0298]]]},"properties":{"na":"NA-7","dist":"Lower Dir","approx":true}},
{"type":"Feature","geometry":{"type":"Polygon","coordinates":[[[71.7618,34.7655],[71.7621,34.7862],[71.5099,34.9856],[71.172,34.7313],[71.525,34.6777],[71.641,34.5358],[71.7604,34.6563],[71.7618,34.7655]]]},"properties":{"na":"NA-8","dist":"Bajaur Agency","approx":false}},
{"type":"Feature","geometry":{"type":"Polygon","coordinates":[[[72.0933,34.6697],[71.7604,34.6563],[71.641,34.5358],[71.7066,34.4461],[71.8327,34.3645],[72.0899,34.493],[72.0979,34.4944],[72.2025,34.5131],[72.216,34.5679],[72.0933,34.6697]]]},"properties":{"na":"NA-9","dist":"Malakand","approx":false}},
{"type":"Feature","geometry":{"type":"Polygon","coordinates":[[[72.216,34.5679],[72.2025,34.5131],[72.4312,34.3805],[72.4674,34.3571],[72.485,34.3457],[72.4681,34.3203],[72.4657,34.3139],[72.4396,34.2466],[72.4143,34.1864],[72.4602,34.1732],[72.5404,34.1503],[72.7069,34.3015],[72.7422,34.3564],[72.7304,34.5372],[72.5303,34.7058],[72.216,34.5679]]]},"properties":{"na":"NA-10","dist":"Buner","approx":false}},
{"type":"Feature","geometry":{"type":"Polygon","coordinates":[[[72.6436,35.0795],[72.6245,35.0606],[72.5909,34.9026],[72.5871,34.8641],[72.5808,34.7995],[72.5303,34.7058],[72.7304,34.5372],[72.8766,34.7647],[72.8783,34.9187],[72.7237,35.1583],[72.6436,35.0795]]]},"properties":{"na":"NA-11","dist":"Shangla","approx":false}},
{"type":"Feature","geometry":{"type":"Polygon","coordinates":[[[72.7237,35.1583],[72.8783,34.9187],[73.4903,34.8959],[73.8181,35.003],[73.9593,35.1824],[73.7811,35.24],[73.8029,35.5024],[73.2952,35.6082],[73.1238,35.8371],[72.7321,35.8317],[72.8144,35.5787],[72.7237,35.1583]]]},"properties":{"na":"NA-12","dist":"Kohistan","approx":false}},
{"type":"Feature","geometry":{"type":"Polygon","coordinates":[[[72.8766,34.7647],[72.9052,34.5961],[73.3188,34.6576],[73.3738,34.7662],[73.386,34.7902],[73.4903,34.8959],[72.8783,34.9187],[72.8766,34.7647]]]},"properties":{"na":"NA-13","dist":"Batagram","approx":false}},
{"type":"Feature","geometry":{"type":"Polygon","coordinates":[[[73.4903,34.8959],[73.386,34.7902],[73.3738,34.7662],[73.4265,34.4882],[73.7609,34.7995],[73.9862,34.8705],[73.9593,35.1824],[73.8181,35.003],[73.4903,34.8959]]]},"properties":{"na":"NA-14","dist":"Mansehra","approx":true}},
{"type":"Feature","geometry":{"type":"Polygon","coordinates":[[[72.7422,34.3564],[72.9893,34.2105],[73.1961,34.2359],[73.3339,34.3302],[73.3978,34.3738],[73.4265,34.4882],[73.3738,34.7662],[73.3188,34.6576],[72.9052,34.5961],[72.8766,34.7647],[72.7304,34.5372],[72.7422,34.3564]]]},"properties":{"na":"NA-15","dist":"Mansehra / Tor Ghar","approx":true}},
{"type":"Feature","geometry":{"type":"Polygon","coordinates":[[[73.3339,34.3302],[73.132,33.8964],[73.1843,33.9012],[73.2095,33.8156],[73.2181,33.8184],[73.3003,33.845],[73.5121,34.0177],[73.3978,34.3738],[73.3339,34.3302]]]},"properties":{"na":"NA-16","dist":"Abbottabad","approx":true}},
{"type":"Feature","geometry":{"type":"Polygon","coordinates":[[[72.9893,34.2105],[73.0969,33.8932],[73.132,33.8964],[73.3339,34.3302],[73.1961,34.2359],[72.9893,34.2105]]]},"properties":{"na":"NA-17","dist":"Abbottabad","approx":true}},
{"type":"Feature","geometry":{"type":"Polygon","coordinates":[[[72.7069,34.3015],[72.5488,33.9936],[72.8212,33.829],[72.917,33.7299],[73.0202,33.761],[73.1255,33.7928],[73.1692,33.8049],[73.1728,33.8058],[73.2095,33.8156],[73.1843,33.9012],[73.132,33.8964],[73.0969,33.8932],[72.9893,34.2105],[72.7422,34.3564],[72.7069,34.3015]]]},"properties":{"na":"NA-18","dist":"Haripur","approx":false}},
{"type":"Feature","geometry":{"type":"MultiPolygon","coordinates":[[[[72.4602,34.1732],[72.453,33.9869],[72.49,34.0017],[72.5488,33.9936],[72.7069,34.3015],[72.5404,34.1503],[72.4602,34.1732]]],[[[72.4674,34.3571],[72.4657,34.3139],[72.4681,34.3203],[72.485,34.3457],[72.4674,34.3571]]]]},"properties":{"na":"NA-19","dist":"Swabi","approx":true}},
{"type":"Feature","geometry":{"type":"Polygon","coordinates":[[[72.4657,34.3139],[72.4674,34.3571],[72.4312,34.3805],[72.2059,34.2051],[72.2054,34.196],[72.1992,34.0914],[72.2345,33.8999],[72.453,33.9869],[72.4602,34.1732],[72.4143,34.1864],[72.4396,34.2466],[72.4657,34.3139]]]},"properties":{"na":"NA-20","dist":"Swabi","approx":true}},
{"type":"Feature","geometry":{"type":"Polygon","coordinates":[[[72.0979,34.4944],[72.0724,34.2848],[72.2054,34.196],[72.2059,34.2051],[72.4312,34.3805],[72.2025,34.5131],[72.0979,34.4944]]]},"properties":{"na":"NA-21","dist":"Mardan","approx":true}},
{"type":"Feature","geometry":{"type":"Polygon","coordinates":[[[72.2054,34.196],[72.0724,34.2848],[71.9081,34.2125],[71.9436,34.1409],[72.0115,34.0958],[72.0344,34.0806],[72.1992,34.0914],[72.2054,34.196]]]},"properties":{"na":"NA-22","dist":"Mardan","approx":true}},
{"type":"Feature","geometry":{"type":"Polygon","coordinates":[[[71.8327,34.3645],[71.8385,34.3527],[71.9081,34.2125],[72.0724,34.2848],[72.0979,34.4944],[72.0899,34.493],[71.8327,34.3645]]]},"properties":{"na":"NA-23","dist":"Mardan","approx":true}},
{"type":"Feature","geometry":{"type":"Polygon","coordinates":[[[71.7066,34.4461],[71.4897,34.2225],[71.625,34.1468],[71.8385,34.3527],[71.8327,34.3645],[71.7066,34.4461]]]},"properties":{"na":"NA-24","dist":"Charsadda","approx":true}},
{"type":"Feature","geometry":{"type":"Polygon","coordinates":[[[71.9081,34.2125],[71.8385,34.3527],[71.625,34.1468],[71.6411,34.1378],[71.6611,34.1266],[71.7217,34.0927],[71.9436,34.1409],[71.9081,34.2125]]]},"properties":{"na":"NA-25","dist":"Charsadda","approx":true}},
{"type":"Feature","geometry":{"type":"Polygon","coordinates":[[[71.172,34.7313],[71.0073,34.4608],[71.1686,34.3363],[71.4124,34.1663],[71.4897,34.2225],[71.7066,34.4461],[71.641,34.5358],[71.525,34.6777],[71.172,34.7313]]]},"properties":{"na":"NA-26","dist":"Mohmand Agency","approx":false}},
{"type":"Feature","geometry":{"type":"Polygon","coordinates":[[[71.1686,34.3363],[71.0762,34.0619],[70.4441,33.9521],[70.6088,33.7754],[71.209,33.8356],[71.3502,33.7647],[71.5032,33.7513],[71.5183,33.8089],[71.4356,33.8734],[71.4343,33.8745],[71.3704,34.0873],[71.3784,34.1023],[71.4124,34.1663],[71.1686,34.3363]]]},"properties":{"na":"NA-27","dist":"Khyber Agency","approx":false}},
{"type":"Feature","geometry":{"type":"Polygon","coordinates":[[[71.4897,34.2225],[71.4124,34.1663],[71.3784,34.1023],[71.5227,34.0442],[71.6411,34.1378],[71.625,34.1468],[71.4897,34.2225]]]},"properties":{"na":"NA-28","dist":"Peshawar","approx":true}},
{"type":"Feature","geometry":{"type":"Polygon","coordinates":[[[71.6611,34.1266],[71.6135,33.9325],[71.7383,33.8328],[71.752,33.8517],[71.7217,34.0927],[71.6611,34.1266]]]},"properties":{"na":"NA-29","dist":"Peshawar","approx":true}},
{"type":"Feature","geometry":{"type":"Polygon","coordinates":[[[71.5032,33.7513],[71.7383,33.8328],[71.6135,33.9325],[71.5226,33.9369],[71.4356,33.8734],[71.5183,33.8089],[71.5032,33.7513]]]},"properties":{"na":"NA-30","dist":"Peshawar","approx":true}},
{"type":"Feature","geometry":{"type":"Polygon","coordinates":[[[71.4356,33.8734],[71.5226,33.9369],[71.5227,34.0442],[71.3784,34.1023],[71.3704,34.0873],[71.4343,33.8745],[71.4356,33.8734]]]},"properties":{"na":"NA-31","dist":"Peshawar","approx":true}},
{"type":"Feature","geometry":{"type":"Polygon","coordinates":[[[71.6411,34.1378],[71.5227,34.0442],[71.5226,33.9369],[71.6135,33.9325],[71.6611,34.1266],[71.6411,34.1378]]]},"properties":{"na":"NA-32","dist":"Peshawar","approx":true}},
{"type":"Feature","geometry":{"type":"Polygon","coordinates":[[[72.1992,34.0914],[72.0344,34.0806],[72.0115,34.0958],[71.9298,33.7293],[71.947,33.7339],[72.0092,33.7152],[72.0357,33.7363],[72.0966,33.7848],[72.2345,33.8999],[72.1992,34.0914]]]},"properties":{"na":"NA-33","dist":"Nowshera","approx":true}},
{"type":"Feature","geometry":{"type":"Polygon","coordinates":[[[71.9436,34.1409],[71.7217,34.0927],[71.752,33.8517],[71.8125,33.6978],[71.9298,33.7293],[72.0115,34.0958],[71.9436,34.1409]]]},"properties":{"na":"NA-34","dist":"Nowshera","approx":true}},
{"type":"Feature","geometry":{"type":"Polygon","coordinates":[[[71.9298,33.7293],[71.8125,33.6978],[71.3956,33.6509],[71.1233,33.7366],[71.0627,33.3952],[71.4443,33.2399],[71.7184,33.0592],[71.7049,33.2854],[71.9672,33.5371],[72.0092,33.7152],[71.947,33.7339],[71.9298,33.7293]]]},"properties":{"na":"NA-35","dist":"Kohat","approx":false}},
{"type":"Feature","geometry":{"type":"Polygon","coordinates":[[[70.6088,33.7754],[70.7416,33.4836],[70.5416,33.3483],[70.6273,33.26],[70.7501,33.2171],[71.0627,33.3952],[71.1233,33.7366],[71.3956,33.6509],[71.3502,33.7647],[71.209,33.8356],[70.6088,33.7754]]]},"properties":{"na":"NA-36","dist":"Hangu / Orakzai Agency","approx":false}},
{"type":"Feature","geometry":{"type":"Polygon","coordinates":[[[70.4441,33.9521],[69.9129,34.0378],[69.8658,33.9267],[70.3247,33.3323],[70.5416,33.3483],[70.7416,33.4836],[70.6088,33.7754],[70.4441,33.9521]]]},"properties":{"na":"NA-37","dist":"Kurram Agency","approx":false}},
{"type":"Feature","geometry":{"type":"Polygon","coordinates":[[[71.0627,33.3952],[70.7501,33.2171],[70.7954,33.0953],[70.9551,32.8717],[71.1098,32.8102],[71.1653,32.9601],[71.4696,33.0511],[71.4443,33.2399],[71.0627,33.3952]]]},"properties":{"na":"NA-38","dist":"Karak","approx":false}},
{"type":"Feature","geometry":{"type":"Polygon","coordinates":[[[70.7954,33.0953],[70.5248,33.0552],[70.3853,32.766],[70.3718,32.7071],[70.4004,32.7285],[70.9551,32.8717],[70.7954,33.0953]]]},"properties":{"na":"NA-39","dist":"Bannu","approx":false}},
{"type":"Feature","geometry":{"type":"Polygon","coordinates":[[[70.5416,33.3483],[70.3247,33.3323],[69.8759,33.0953],[69.58,33.098],[69.4102,32.6067],[70.2608,32.7298],[70.4155,33.0578],[70.6273,33.26],[70.5416,33.3483]]]},"properties":{"na":"NA-40","dist":"North Waziristan Agency","approx":false}},
{"type":"Feature","geometry":{"type":"Polygon","coordinates":[[[70.9551,32.8717],[70.4004,32.7285],[70.6038,32.4755],[70.5971,32.4353],[70.6538,32.3928],[70.7114,32.3496],[70.9619,32.3563],[71.2325,32.5116],[71.1661,32.5954],[71.1636,32.5986],[71.1098,32.8102],[70.9551,32.8717]]]},"properties":{"na":"NA-41","dist":"Lakki Marwat","approx":false}},
{"type":"Feature","geometry":{"type":"Polygon","coordinates":[[[70.3853,32.766],[70.2608,32.7298],[69.4102,32.6067],[69.2404,32.4608],[69.3211,31.952],[69.6792,32.0725],[69.9566,31.8945],[70.2121,31.8155],[70.0961,32.2158],[70.1112,32.525],[70.3718,32.7071],[70.3853,32.766]]]},"properties":{"na":"NA-42","dist":"South Waziristan Agency","approx":false}},
{"type":"Feature","geometry":{"type":"Polygon","coordinates":[[[70.6538,32.3928],[70.6679,31.962],[70.9794,31.7702],[71.0611,31.8824],[71.1737,32.2051],[71.2325,32.5116],[70.9619,32.3563],[70.7114,32.3496],[70.6538,32.3928]]]},"properties":{"na":"NA-43","dist":"Dera Ismail Khan / Tank","approx":true}},
{"type":"Feature","geometry":{"type":"Polygon","coordinates":[[[70.6038,32.4755],[70.0961,32.2158],[70.2121,31.8155],[70.2058,31.7501],[70.6679,31.962],[70.6538,32.3928],[70.5971,32.4353],[70.6038,32.4755]]]},"properties":{"na":"NA-44","dist":"Dera Ismail Khan","approx":true}},
{"type":"Feature","geometry":{"type":"Polygon","coordinates":[[[70.6679,31.962],[70.2058,31.7501],[70.4222,31.2452],[70.7753,31.3054],[70.8358,31.3831],[70.8929,31.4379],[70.8838,31.6186],[70.8829,31.6374],[70.9794,31.7702],[70.6679,31.962]]]},"properties":{"na":"NA-45","dist":"Dera Ismail Khan","approx":true}},
{"type":"Feature","geometry":{"type":"Polygon","coordinates":[[[73.2724,33.7708],[73.1143,33.6238],[73.1994,33.4903],[73.2797,33.5721],[73.2952,33.588],[73.3524,33.7071],[73.2724,33.7708]]]},"properties":{"na":"NA-46","dist":"Islamabad","approx":true}},
{"type":"Feature","geometry":{"type":"Polygon","coordinates":[[[73.0202,33.761],[73.0574,33.6481],[73.0885,33.6643],[73.1006,33.6453],[73.1143,33.6238],[73.2724,33.7708],[73.2667,33.7754],[73.2258,33.7878],[73.172,33.804],[73.1692,33.8049],[73.1255,33.7928],[73.0202,33.761]]]},"properties":{"na":"NA-47","dist":"Islamabad","approx":true}},
{"type":"Feature","geometry":{"type":"Polygon","coordinates":[[[72.917,33.7299],[72.9136,33.5733],[72.935,33.5844],[73.0152,33.6261],[73.0574,33.6481],[73.0202,33.761],[72.917,33.7299]]]},"properties":{"na":"NA-48","dist":"Islamabad","approx":true}},
{"type":"Feature","geometry":{"type":"Polygon","coordinates":[[[72.5488,33.9936],[72.49,34.0017],[72.453,33.9869],[72.2345,33.8999],[72.0966,33.7848],[72.0357,33.7363],[72.7772,33.443],[72.9204,33.4862],[72.918,33.4882],[72.7438,33.6362],[72.8212,33.829],[72.5488,33.9936]]]},"properties":{"na":"NA-49","dist":"Attock","approx":true}},
{"type":"Feature","geometry":{"type":"Polygon","coordinates":[[[72.0092,33.7152],[71.9672,33.5371],[71.7049,33.2854],[71.7184,33.0592],[71.8041,33.0043],[72.5387,33.2131],[72.5982,33.1993],[72.6363,33.1904],[72.7741,33.4421],[72.7772,33.443],[72.0357,33.7363],[72.0092,33.7152]]]},"properties":{"na":"NA-50","dist":"Attock","approx":true}},
{"type":"Feature","geometry":{"type":"Polygon","coordinates":[[[73.2181,33.8184],[73.2258,33.7878],[73.2667,33.7754],[73.2724,33.7708],[73.3524,33.7071],[73.2952,33.588],[73.2797,33.5721],[73.3,33.4909],[73.5871,33.3982],[73.5121,34.0177],[73.3003,33.845],[73.2181,33.8184]]]},"properties":{"na":"NA-51","dist":"Rawalpindi","approx":true}},
{"type":"Feature","geometry":{"type":"Polygon","coordinates":[[[73.3,33.4909],[73.1183,33.3945],[73.0579,33.0862],[73.0868,33.1047],[73.2095,33.0926],[73.6231,33.2546],[73.5871,33.3982],[73.3,33.4909]]]},"properties":{"na":"NA-52","dist":"Rawalpindi","approx":true}},
{"type":"Feature","geometry":{"type":"Polygon","coordinates":[[[72.7772,33.443],[72.7741,33.4421],[72.6363,33.1904],[73.0263,33.0659],[73.0579,33.0862],[73.1183,33.3945],[73.1112,33.3998],[72.9219,33.4894],[72.918,33.4882],[72.9204,33.4862],[72.7772,33.443]]]},"properties":{"na":"NA-53","dist":"Rawalpindi","approx":true}},
{"type":"Feature","geometry":{"type":"MultiPolygon","coordinates":[[[[73.2095,33.8156],[73.1728,33.8058],[73.172,33.804],[73.2258,33.7878],[73.2181,33.8184],[73.2095,33.8156]]],[[[73.1143,33.6238],[73.1006,33.6453],[73.0729,33.5839],[73.1112,33.3998],[73.1183,33.3945],[73.3,33.4909],[73.2797,33.5721],[73.1994,33.4903],[73.1143,33.6238]]]]},"properties":{"na":"NA-54","dist":"Rawalpindi","approx":true}},
{"type":"Feature","geometry":{"type":"Polygon","coordinates":[[[72.935,33.5844],[72.9219,33.4894],[73.1112,33.3998],[73.0729,33.5839],[73.0152,33.6261],[72.935,33.5844]]]},"properties":{"na":"NA-55","dist":"Rawalpindi","approx":true}},
{"type":"Feature","geometry":{"type":"MultiPolygon","coordinates":[[[[73.1692,33.8049],[73.172,33.804],[73.1728,33.8058],[73.1692,33.8049]]],[[[73.0574,33.6481],[73.0152,33.6261],[73.0729,33.5839],[73.1006,33.6453],[73.0885,33.6643],[73.0574,33.6481]]]]},"properties":{"na":"NA-56","dist":"Rawalpindi","approx":true}},
{"type":"Feature","geometry":{"type":"Polygon","coordinates":[[[72.8212,33.829],[72.7438,33.6362],[72.918,33.4882],[72.9219,33.4894],[72.935,33.5844],[72.9136,33.5733],[72.917,33.7299],[72.8212,33.829]]]},"properties":{"na":"NA-57","dist":"Rawalpindi","approx":true}},
{"type":"Feature","geometry":{"type":"Polygon","coordinates":[[[72.5982,33.1993],[72.639,32.6056],[72.6531,32.5946],[73.07,32.6723],[73.1221,32.8236],[73.182,32.9286],[73.2146,32.9855],[73.2095,33.0926],[73.0868,33.1047],[73.0579,33.0862],[73.0263,33.0659],[72.6363,33.1904],[72.5982,33.1993]]]},"properties":{"na":"NA-58","dist":"Chakwal","approx":true}},
{"type":"Feature","geometry":{"type":"Polygon","coordinates":[[[71.8041,33.0043],[71.8932,32.6616],[71.9348,32.569],[71.9504,32.5344],[72.1639,32.7031],[72.5673,32.6616],[72.639,32.6056],[72.5982,33.1993],[72.5387,33.2131],[71.8041,33.0043]]]},"properties":{"na":"NA-59","dist":"Chakwal","approx":true}},
{"type":"Feature","geometry":{"type":"Polygon","coordinates":[[[73.2095,33.0926],[73.2146,32.9855],[73.182,32.9286],[73.4747,32.6641],[73.4919,32.6696],[73.5911,32.7472],[73.6122,32.795],[73.6331,32.8423],[73.8063,33.0083],[73.6231,33.2546],[73.2095,33.0926]]]},"properties":{"na":"NA-60","dist":"Jhelum","approx":true}},
{"type":"Feature","geometry":{"type":"Polygon","coordinates":[[[72.6531,32.5946],[72.6598,32.4246],[73.1944,32.5745],[73.4048,32.6417],[73.4747,32.6641],[73.182,32.9286],[73.1221,32.8236],[73.07,32.6723],[72.6531,32.5946]]]},"properties":{"na":"NA-61","dist":"Jhelum","approx":true}},
{"type":"Feature","geometry":{"type":"Polygon","coordinates":[[[74.0477,32.6879],[74.1682,32.5344],[74.2098,32.5531],[74.3358,32.5919],[74.41,32.6427],[74.4552,32.6736],[74.4418,32.7914],[74.1168,32.9052],[74.0412,32.7429],[74.0477,32.6879]]]},"properties":{"na":"NA-62","dist":"Gujrat","approx":true}},
{"type":"Feature","geometry":{"type":"Polygon","coordinates":[[[74.0477,32.6879],[73.8138,32.4929],[73.8971,32.3978],[74.0585,32.4848],[74.1682,32.5344],[74.0477,32.6879]]]},"properties":{"na":"NA-63","dist":"Gujrat","approx":true}},
{"type":"Feature","geometry":{"type":"Polygon","coordinates":[[[73.5911,32.7472],[73.8138,32.4929],[74.0477,32.6879],[74.0412,32.7429],[73.6122,32.795],[73.5911,32.7472]]]},"properties":{"na":"NA-64","dist":"Gujrat","approx":true}},
{"type":"Feature","geometry":{"type":"Polygon","coordinates":[[[73.6122,32.795],[74.0412,32.7429],[74.1168,32.9052],[73.8063,33.0083],[73.6331,32.8423],[73.6122,32.795]]]},"properties":{"na":"NA-65","dist":"Gujrat","approx":true}},
{"type":"Feature","geometry":{"type":"Polygon","coordinates":[[[74.1682,32.5344],[74.0585,32.4848],[73.8971,32.3978],[73.6769,32.3403],[73.7273,32.2091],[73.7981,32.1426],[73.9324,32.1593],[74.163,32.3911],[74.1982,32.4561],[74.198,32.4567],[74.2098,32.5531],[74.1682,32.5344]]]},"properties":{"na":"NA-66","dist":"Gujranwala","approx":true}},
{"type":"Feature","geometry":{"type":"Polygon","coordinates":[[[73.9324,32.1593],[74.0734,32.0906],[74.1562,32.1913],[74.163,32.3911],[73.9324,32.1593]]]},"properties":{"na":"NA-77","dist":"Gujranwala","approx":true}},
{"type":"Feature","geometry":{"type":"Polygon","coordinates":[[[74.163,32.3911],[74.1562,32.1913],[74.2628,32.108],[74.3729,32.1755],[74.3224,32.2466],[74.2568,32.2626],[74.2336,32.3393],[74.1982,32.4561],[74.163,32.3911]]]},"properties":{"na":"NA-78","dist":"Gujranwala","approx":true}},
{"type":"Feature","geometry":{"type":"Polygon","coordinates":[[[74.0734,32.0906],[74.1635,31.9742],[74.2628,32.108],[74.1562,32.1913],[74.0734,32.0906]]]},"properties":{"na":"NA-79","dist":"Gujranwala","approx":true}},
{"type":"Feature","geometry":{"type":"Polygon","coordinates":[[[74.2628,32.108],[74.1635,31.9742],[74.1714,31.8554],[74.2047,31.8851],[74.5594,32.0444],[74.3796,32.1662],[74.3729,32.1755],[74.2628,32.108]]]},"properties":{"na":"NA-80","dist":"Gujranwala","approx":true}},
{"type":"Feature","geometry":{"type":"Polygon","coordinates":[[[73.7981,32.1426],[73.8029,32.1381],[73.8063,31.9842],[73.866,31.8891],[73.8954,31.8422],[74.1341,31.8222],[74.1693,31.8535],[74.1714,31.8554],[74.1635,31.9742],[74.0734,32.0906],[73.9324,32.1593],[73.7981,32.1426]]]},"properties":{"na":"NA-81","dist":"Gujranwala","approx":true}},
{"type":"Feature","geometry":{"type":"Polygon","coordinates":[[[73.6769,32.3403],[73.5516,32.2827],[73.5138,32.2653],[73.3087,32.122],[73.1675,31.8918],[73.2297,31.7874],[73.2919,31.7659],[73.4852,31.8289],[73.8063,31.9842],[73.8029,32.1381],[73.7981,32.1426],[73.7273,32.2091],[73.6769,32.3403]]]},"properties":{"na":"NA-67","dist":"Hafizabad","approx":false}},
{"type":"Feature","geometry":{"type":"Polygon","coordinates":[[[73.4747,32.6641],[73.4048,32.6417],[73.5516,32.2827],[73.6769,32.3403],[73.8971,32.3978],[73.8138,32.4929],[73.5911,32.7472],[73.4919,32.6696],[73.4747,32.6641]]]},"properties":{"na":"NA-68","dist":"Mandi Bahauddin","approx":true}},
{"type":"Feature","geometry":{"type":"Polygon","coordinates":[[[73.1944,32.5745],[73.075,32.4541],[73.1368,32.2924],[73.1574,32.2385],[73.3087,32.122],[73.5138,32.2653],[73.5516,32.2827],[73.4048,32.6417],[73.1944,32.5745]]]},"properties":{"na":"NA-69","dist":"Mandi Bahauddin","approx":true}},
{"type":"Feature","geometry":{"type":"Polygon","coordinates":[[[74.41,32.6427],[74.4424,32.5889],[74.684,32.5013],[74.6502,32.7178],[74.4418,32.7914],[74.4552,32.6736],[74.41,32.6427]]]},"properties":{"na":"NA-70","dist":"Sialkot","approx":true}},
{"type":"Feature","geometry":{"type":"Polygon","coordinates":[[[74.4424,32.5889],[74.4662,32.3787],[74.5453,32.3399],[74.7061,32.4929],[74.684,32.5013],[74.4424,32.5889]]]},"properties":{"na":"NA-71","dist":"Sialkot","approx":true}},
{"type":"Feature","geometry":{"type":"Polygon","coordinates":[[[74.5453,32.3399],[74.6083,32.0727],[74.7544,32.1609],[74.8503,32.3028],[74.8615,32.3239],[74.936,32.4648],[74.7061,32.4929],[74.5453,32.3399]]]},"properties":{"na":"NA-72","dist":"Sialkot","approx":true}},
{"type":"Feature","geometry":{"type":"Polygon","coordinates":[[[74.3729,32.1755],[74.3796,32.1662],[74.5594,32.0444],[74.588,32.0605],[74.6083,32.0727],[74.5453,32.3399],[74.4662,32.3787],[74.2336,32.3393],[74.2568,32.2626],[74.3224,32.2466],[74.3729,32.1755]]]},"properties":{"na":"NA-73","dist":"Sialkot","approx":true}},
{"type":"Feature","geometry":{"type":"Polygon","coordinates":[[[74.2098,32.5531],[74.198,32.4567],[74.1982,32.4561],[74.2336,32.3393],[74.4662,32.3787],[74.4424,32.5889],[74.41,32.6427],[74.3358,32.5919],[74.2098,32.5531]]]},"properties":{"na":"NA-74","dist":"Sialkot","approx":true}},
{"type":"Feature","geometry":{"type":"Polygon","coordinates":[[[74.8615,32.3239],[75.1599,32.0679],[75.3748,32.2238],[75.0823,32.4795],[74.936,32.4648],[74.8615,32.3239]]]},"properties":{"na":"NA-75","dist":"Narowal","approx":true}},
{"type":"Feature","geometry":{"type":"Polygon","coordinates":[[[74.6083,32.0727],[74.588,32.0605],[74.6939,31.9186],[75.1599,32.0679],[74.8615,32.3239],[74.8503,32.3028],[74.7544,32.1609],[74.6083,32.0727]]]},"properties":{"na":"NA-76","dist":"Narowal","approx":true}},
{"type":"Feature","geometry":{"type":"Polygon","coordinates":[[[72.6598,32.4246],[72.6054,32.3912],[72.8374,32.167],[73.1368,32.2924],[73.075,32.4541],[73.1944,32.5745],[72.6598,32.4246]]]},"properties":{"na":"NA-82","dist":"Sargodha","approx":true}},
{"type":"Feature","geometry":{"type":"Polygon","coordinates":[[[73.3087,32.122],[73.1574,32.2385],[73.1368,32.2924],[72.8374,32.167],[72.8385,31.9435],[72.8757,31.8666],[72.8951,31.8744],[73.1675,31.8918],[73.3087,32.122]]]},"properties":{"na":"NA-83","dist":"Sargodha","approx":true}},
{"type":"Feature","geometry":{"type":"Polygon","coordinates":[[[72.6054,32.3912],[72.518,32.3375],[72.5633,32.007],[72.8385,31.9435],[72.8374,32.167],[72.6054,32.3912]]]},"properties":{"na":"NA-84","dist":"Sargodha","approx":true}},
{"type":"Feature","geometry":{"type":"Polygon","coordinates":[[[72.8385,31.9435],[72.5633,32.007],[72.2816,31.7375],[72.3589,31.7137],[72.2461,31.5979],[72.2429,31.5946],[72.2487,31.5837],[72.258,31.5665],[72.4345,31.6629],[72.6631,31.782],[72.8749,31.8663],[72.8757,31.8666],[72.8385,31.9435]]]},"properties":{"na":"NA-85","dist":"Sargodha","approx":true}},
{"type":"Feature","geometry":{"type":"Polygon","coordinates":[[[72.518,32.3375],[72.3437,32.2305],[72.3321,32.1135],[72.3269,32.0618],[72.2109,31.7592],[72.2168,31.7574],[72.2816,31.7375],[72.5633,32.007],[72.518,32.3375]]]},"properties":{"na":"NA-86","dist":"Sargodha","approx":true}},
{"type":"Feature","geometry":{"type":"Polygon","coordinates":[[[72.639,32.6056],[72.5673,32.6616],[72.1639,32.7031],[71.9504,32.5344],[71.8445,32.4059],[71.7602,32.3133],[72.3321,32.1135],[72.3437,32.2305],[72.518,32.3375],[72.6054,32.3912],[72.6598,32.4246],[72.6531,32.5946],[72.639,32.6056]]]},"properties":{"na":"NA-87","dist":"Khushab","approx":true}},
{"type":"Feature","geometry":{"type":"Polygon","coordinates":[[[72.3321,32.1135],[71.7602,32.3133],[71.7251,32.2747],[71.7285,32.1984],[71.715,31.8128],[71.7515,31.7027],[71.7537,31.6963],[71.989,31.5317],[72.2109,31.7592],[72.3269,32.0618],[72.3321,32.1135]]]},"properties":{"na":"NA-88","dist":"Khushab","approx":true}},
{"type":"Feature","geometry":{"type":"Polygon","coordinates":[[[71.4443,33.2399],[71.4696,33.0511],[71.1653,32.9601],[71.1098,32.8102],[71.1636,32.5986],[71.1661,32.5954],[71.9348,32.569],[71.8932,32.6616],[71.8041,33.0043],[71.7184,33.0592],[71.4443,33.2399]]]},"properties":{"na":"NA-89","dist":"Mianwali","approx":true}},
{"type":"Feature","geometry":{"type":"Polygon","coordinates":[[[71.2325,32.5116],[71.1737,32.2051],[71.7285,32.1984],[71.7251,32.2747],[71.7602,32.3133],[71.8445,32.4059],[71.9504,32.5344],[71.9348,32.569],[71.1661,32.5954],[71.2325,32.5116]]]},"properties":{"na":"NA-90","dist":"Mianwali","approx":true}},
{"type":"Feature","geometry":{"type":"Polygon","coordinates":[[[70.9794,31.7702],[70.8829,31.6374],[70.8838,31.6186],[71.7515,31.7027],[71.715,31.8128],[71.7285,32.1984],[71.1737,32.2051],[71.0611,31.8824],[70.9794,31.7702]]]},"properties":{"na":"NA-91","dist":"Bhakkar","approx":true}},
{"type":"Feature","geometry":{"type":"Polygon","coordinates":[[[70.8358,31.3831],[70.9984,31.3822],[71.093,31.3817],[71.3048,31.1501],[71.5385,31.2425],[71.7638,31.1568],[72.0243,31.3308],[71.989,31.5317],[71.7537,31.6963],[71.7515,31.7027],[70.8838,31.6186],[70.8929,31.4379],[70.8358,31.3831]]]},"properties":{"na":"NA-92","dist":"Bhakkar","approx":true}},
{"type":"Feature","geometry":{"type":"Polygon","coordinates":[[[72.4345,31.6629],[72.8111,31.375],[72.8193,31.3882],[72.8749,31.8663],[72.6631,31.782],[72.4345,31.6629]]]},"properties":{"na":"NA-93","dist":"Chiniot","approx":true}},
{"type":"Feature","geometry":{"type":"Polygon","coordinates":[[[73.1675,31.8918],[72.8951,31.8744],[72.8757,31.8666],[72.8749,31.8663],[72.8193,31.3882],[72.8851,31.4928],[73.0277,31.5746],[73.0532,31.5892],[73.111,31.6727],[73.1339,31.7057],[73.2297,31.7874],[73.1675,31.8918]]]},"properties":{"na":"NA-94","dist":"Chiniot","approx":true}},
{"type":"Feature","geometry":{"type":"Polygon","coordinates":[[[73.2297,31.7874],[73.1339,31.7057],[73.111,31.6727],[73.1885,31.5495],[73.3484,31.4327],[73.4781,31.5291],[73.4449,31.6321],[73.2919,31.7659],[73.2297,31.7874]]]},"properties":{"na":"NA-95","dist":"Faisalabad","approx":true}},
{"type":"Feature","geometry":{"type":"Polygon","coordinates":[[[73.3484,31.4327],[73.2899,31.2743],[73.4328,31.1248],[73.4516,31.1689],[73.6802,31.3871],[73.6608,31.4392],[73.6533,31.4594],[73.5104,31.4286],[73.4781,31.5291],[73.3484,31.4327]]]},"properties":{"na":"NA-96","dist":"Faisalabad","approx":true}},
{"type":"Feature","geometry":{"type":"Polygon","coordinates":[[[73.2899,31.2743],[73.2362,31.2693],[73.1591,31.2403],[73.0337,31.0461],[73.1499,30.8505],[73.1742,30.8984],[73.2683,30.9386],[73.3894,31.0229],[73.4328,31.1248],[73.2899,31.2743]]]},"properties":{"na":"NA-97","dist":"Faisalabad","approx":true}},
{"type":"Feature","geometry":{"type":"Polygon","coordinates":[[[73.0337,31.0461],[72.7688,31.1209],[72.7674,31.1006],[72.7691,30.9439],[72.75,30.9244],[72.7035,30.877],[72.7724,30.8395],[72.7396,30.7454],[72.7388,30.7431],[72.7842,30.6802],[72.9439,30.7565],[73.0422,30.793],[73.1389,30.8288],[73.1499,30.8505],[73.0337,31.0461]]]},"properties":{"na":"NA-98","dist":"Faisalabad","approx":true}},
{"type":"Feature","geometry":{"type":"Polygon","coordinates":[[[73.1591,31.2403],[73.0337,31.3271],[72.9803,31.342],[72.8128,31.3245],[72.8531,31.288],[72.7741,31.197],[72.7688,31.1209],[73.0337,31.0461],[73.1591,31.2403]]]},"properties":{"na":"NA-99","dist":"Faisalabad","approx":true}},
{"type":"Feature","geometry":{"type":"Polygon","coordinates":[[[72.8111,31.375],[72.8044,31.3322],[72.8128,31.3245],[72.9803,31.342],[73.0378,31.5079],[73.0277,31.5746],[72.8851,31.4928],[72.8193,31.3882],[72.8111,31.375]]]},"properties":{"na":"NA-100","dist":"Faisalabad","approx":true}},
{"type":"Feature","geometry":{"type":"Polygon","coordinates":[[[73.1885,31.5495],[73.1404,31.4292],[73.2362,31.2693],[73.2899,31.2743],[73.3484,31.4327],[73.1885,31.5495]]]},"properties":{"na":"NA-101","dist":"Faisalabad","approx":true}},
{"type":"Feature","geometry":{"type":"Polygon","coordinates":[[[73.0277,31.5746],[73.0378,31.5079],[73.0929,31.4334],[73.1404,31.4292],[73.1885,31.5495],[73.111,31.6727],[73.0532,31.5892],[73.0277,31.5746]]]},"properties":{"na":"NA-102","dist":"Faisalabad","approx":true}},
{"type":"Feature","geometry":{"type":"Polygon","coordinates":[[[73.2362,31.2693],[73.1404,31.4292],[73.0929,31.4334],[73.0337,31.3271],[73.1591,31.2403],[73.2362,31.2693]]]},"properties":{"na":"NA-103","dist":"Faisalabad","approx":true}},
{"type":"Feature","geometry":{"type":"Polygon","coordinates":[[[73.0337,31.3271],[73.0929,31.4334],[73.0378,31.5079],[72.9803,31.342],[73.0337,31.3271]]]},"properties":{"na":"NA-104","dist":"Faisalabad","approx":true}},
{"type":"Feature","geometry":{"type":"Polygon","coordinates":[[[72.7688,31.1209],[72.7741,31.197],[72.8531,31.288],[72.8128,31.3245],[72.8044,31.3322],[72.4833,31.126],[72.4543,31.0969],[72.75,30.9244],[72.7691,30.9439],[72.7674,31.1006],[72.7688,31.1209]]]},"properties":{"na":"NA-105","dist":"Toba Tek Singh","approx":true}},
{"type":"Feature","geometry":{"type":"Polygon","coordinates":[[[72.75,30.9244],[72.4543,31.0969],[72.4284,31.0711],[72.379,31.0216],[72.2446,30.8476],[72.2878,30.824],[72.7396,30.7454],[72.7724,30.8395],[72.7035,30.877],[72.75,30.9244]]]},"properties":{"na":"NA-106","dist":"Toba Tek Singh","approx":true}},
{"type":"Feature","geometry":{"type":"Polygon","coordinates":[[[72.7396,30.7454],[72.2878,30.824],[72.3404,30.7953],[72.2277,30.7164],[72.1682,30.6035],[72.1521,30.5731],[72.1682,30.5692],[72.3051,30.5356],[72.4967,30.5785],[72.7153,30.5785],[72.7375,30.6113],[72.7842,30.6802],[72.7388,30.7431],[72.7396,30.7454]]]},"properties":{"na":"NA-107","dist":"Toba Tek Singh","approx":true}},
{"type":"Feature","geometry":{"type":"Polygon","coordinates":[[[72.2461,31.5979],[72.2168,31.7574],[72.2109,31.7592],[71.989,31.5317],[72.0243,31.3308],[71.7638,31.1568],[71.8159,31.0551],[71.799,31.0192],[72.3283,31.1503],[72.2487,31.5837],[72.2429,31.5946],[72.2461,31.5979]]]},"properties":{"na":"NA-108","dist":"Jhang","approx":true}},
{"type":"Feature","geometry":{"type":"MultiPolygon","coordinates":[[[[72.2487,31.5837],[72.3283,31.1503],[72.4284,31.0711],[72.4543,31.0969],[72.4833,31.126],[72.8044,31.3322],[72.8111,31.375],[72.4345,31.6629],[72.258,31.5665],[72.2487,31.5837]]],[[[72.2816,31.7375],[72.2168,31.7574],[72.2461,31.5979],[72.3589,31.7137],[72.2816,31.7375]]]]},"properties":{"na":"NA-109","dist":"Jhang","approx":true}},
{"type":"Feature","geometry":{"type":"Polygon","coordinates":[[[72.4284,31.0711],[72.3283,31.1503],[71.799,31.0192],[71.7755,30.9694],[71.6562,30.62],[71.7268,30.5785],[72.0529,30.719],[72.0931,30.7184],[72.1681,30.7173],[72.2277,30.7164],[72.3404,30.7953],[72.2878,30.824],[72.2446,30.8476],[72.379,31.0216],[72.4284,31.0711]]]},"properties":{"na":"NA-110","dist":"Jhang","approx":true}},
{"type":"Feature","geometry":{"type":"Polygon","coordinates":[[[73.2919,31.7659],[73.4449,31.6321],[73.4781,31.5291],[73.5104,31.4286],[73.6533,31.4594],[73.6608,31.4392],[73.9168,31.5677],[73.8277,31.5836],[73.6685,31.612],[73.4852,31.8289],[73.2919,31.7659]]]},"properties":{"na":"NA-111","dist":"Nankana Sahib","approx":true}},
{"type":"Feature","geometry":{"type":"Polygon","coordinates":[[[73.4328,31.1248],[73.3894,31.0229],[73.6533,31.1381],[74.0349,31.3121],[74.0181,31.3723],[73.9912,31.5544],[73.9319,31.565],[73.9168,31.5677],[73.6608,31.4392],[73.6802,31.3871],[73.4516,31.1689],[73.4328,31.1248]]]},"properties":{"na":"NA-112","dist":"Nankana Sahib","approx":true}},
{"type":"Feature","geometry":{"type":"Polygon","coordinates":[[[74.1714,31.8554],[74.1693,31.8535],[74.1864,31.7808],[74.2881,31.6597],[74.2921,31.6682],[74.3432,31.6567],[74.3651,31.6517],[74.4048,31.6428],[74.4131,31.648],[74.5208,31.7164],[74.6939,31.9186],[74.588,32.0605],[74.5594,32.0444],[74.2047,31.8851],[74.1714,31.8554]]]},"properties":{"na":"NA-113","dist":"Sheikhupura","approx":true}},
{"type":"Feature","geometry":{"type":"Polygon","coordinates":[[[74.0181,31.3723],[74.0719,31.3723],[74.1421,31.4521],[74.2104,31.5298],[74.2451,31.5691],[74.2529,31.5856],[74.2607,31.602],[74.2881,31.6597],[74.1864,31.7808],[73.9319,31.565],[73.9912,31.5544],[74.0181,31.3723]]]},"properties":{"na":"NA-114","dist":"Sheikhupura","approx":true}},
{"type":"Feature","geometry":{"type":"Polygon","coordinates":[[[73.866,31.8891],[73.8277,31.5836],[73.9168,31.5677],[73.9319,31.565],[74.1864,31.7808],[74.1693,31.8535],[74.1341,31.8222],[73.8954,31.8422],[73.866,31.8891]]]},"properties":{"na":"NA-115","dist":"Sheikhupura","approx":true}},
{"type":"Feature","geometry":{"type":"Polygon","coordinates":[[[73.8063,31.9842],[73.4852,31.8289],[73.6685,31.612],[73.8277,31.5836],[73.866,31.8891],[73.8063,31.9842]]]},"properties":{"na":"NA-116","dist":"Sheikhupura","approx":true}},
{"type":"Feature","geometry":{"type":"Polygon","coordinates":[[[74.2881,31.6597],[74.2607,31.602],[74.3122,31.603],[74.3432,31.6567],[74.2921,31.6682],[74.2881,31.6597]]]},"properties":{"na":"NA-117","dist":"Lahore","approx":true}},
{"type":"Feature","geometry":{"type":"Polygon","coordinates":[[[74.3432,31.6567],[74.3122,31.603],[74.3315,31.5582],[74.3514,31.5539],[74.3614,31.5667],[74.3651,31.6517],[74.3432,31.6567]]]},"properties":{"na":"NA-118","dist":"Lahore","approx":true}},
{"type":"Feature","geometry":{"type":"Polygon","coordinates":[[[74.2529,31.5856],[74.3013,31.543],[74.3315,31.5582],[74.3122,31.603],[74.2607,31.602],[74.2529,31.5856]]]},"properties":{"na":"NA-119","dist":"Lahore","approx":true}},
{"type":"Feature","geometry":{"type":"Polygon","coordinates":[[[74.2104,31.5298],[74.2809,31.5015],[74.3013,31.543],[74.2529,31.5856],[74.2451,31.5691],[74.2104,31.5298]]]},"properties":{"na":"NA-120","dist":"Lahore","approx":true}},
{"type":"Feature","geometry":{"type":"Polygon","coordinates":[[[74.3651,31.6517],[74.3614,31.5667],[74.4396,31.595],[74.4131,31.648],[74.4048,31.6428],[74.3651,31.6517]]]},"properties":{"na":"NA-121","dist":"Lahore","approx":true}},
{"type":"Feature","geometry":{"type":"Polygon","coordinates":[[[74.4131,31.648],[74.4396,31.595],[74.4913,31.5492],[74.5937,31.5647],[74.5208,31.7164],[74.4131,31.648]]]},"properties":{"na":"NA-122","dist":"Lahore","approx":true}},
{"type":"Feature","geometry":{"type":"Polygon","coordinates":[[[74.3514,31.5539],[74.3639,31.5316],[74.4624,31.5198],[74.4913,31.5492],[74.4396,31.595],[74.3614,31.5667],[74.3514,31.5539]]]},"properties":{"na":"NA-123","dist":"Lahore","approx":true}},
{"type":"Feature","geometry":{"type":"Polygon","coordinates":[[[74.3315,31.5582],[74.3013,31.543],[74.2809,31.5015],[74.2826,31.4977],[74.3517,31.4857],[74.3639,31.5316],[74.3514,31.5539],[74.3315,31.5582]]]},"properties":{"na":"NA-124","dist":"Lahore","approx":true}},
{"type":"Feature","geometry":{"type":"Polygon","coordinates":[[[74.3639,31.5316],[74.3517,31.4857],[74.3723,31.4404],[74.4213,31.4171],[74.4624,31.5198],[74.3639,31.5316]]]},"properties":{"na":"NA-125","dist":"Lahore","approx":true}},
{"type":"Feature","geometry":{"type":"Polygon","coordinates":[[[74.4913,31.5492],[74.4624,31.5198],[74.4213,31.4171],[74.4501,31.3459],[74.4518,31.3509],[74.5712,31.3442],[74.5937,31.5647],[74.4913,31.5492]]]},"properties":{"na":"NA-126","dist":"Lahore","approx":true}},
{"type":"Feature","geometry":{"type":"Polygon","coordinates":[[[74.2826,31.4977],[74.2662,31.4101],[74.3723,31.4404],[74.3517,31.4857],[74.2826,31.4977]]]},"properties":{"na":"NA-127","dist":"Lahore","approx":true}},
{"type":"Feature","geometry":{"type":"Polygon","coordinates":[[[74.3723,31.4404],[74.2662,31.4101],[74.2495,31.392],[74.2717,31.285],[74.3404,31.2886],[74.4317,31.2934],[74.4501,31.3459],[74.4213,31.4171],[74.3723,31.4404]]]},"properties":{"na":"NA-128","dist":"Lahore","approx":true}},
{"type":"Feature","geometry":{"type":"Polygon","coordinates":[[[74.1421,31.4521],[74.2495,31.392],[74.2662,31.4101],[74.2826,31.4977],[74.2809,31.5015],[74.2104,31.5298],[74.1421,31.4521]]]},"properties":{"na":"NA-129","dist":"Lahore","approx":true}},
{"type":"Feature","geometry":{"type":"Polygon","coordinates":[[[74.0349,31.3121],[74.0736,31.2746],[74.083,31.2751],[74.2717,31.285],[74.2495,31.392],[74.1421,31.4521],[74.0719,31.3723],[74.0181,31.3723],[74.0349,31.3121]]]},"properties":{"na":"NA-130","dist":"Lahore","approx":true}},
{"type":"Feature","geometry":{"type":"Polygon","coordinates":[[[74.4501,31.3459],[74.4317,31.2934],[74.3404,31.2886],[74.414,30.92],[74.5712,31.3442],[74.4518,31.3509],[74.4501,31.3459]]]},"properties":{"na":"NA-131","dist":"Kasur","approx":true}},
{"type":"Feature","geometry":{"type":"Polygon","coordinates":[[[74.2717,31.285],[74.083,31.2751],[74.0643,31.1082],[74.3158,30.8339],[74.414,30.92],[74.3404,31.2886],[74.2717,31.285]]]},"properties":{"na":"NA-132","dist":"Kasur","approx":true}},
{"type":"Feature","geometry":{"type":"Polygon","coordinates":[[[74.0643,31.1082],[73.825,30.9076],[73.8584,30.8623],[73.9442,30.8543],[73.9977,30.8277],[74.0686,30.7927],[74.161,30.6414],[74.3158,30.8339],[74.0643,31.1082]]]},"properties":{"na":"NA-133","dist":"Kasur","approx":true}},
{"type":"Feature","geometry":{"type":"Polygon","coordinates":[[[73.6533,31.1381],[73.7626,30.9921],[73.7726,30.9786],[73.825,30.9076],[74.0643,31.1082],[74.083,31.2751],[74.0736,31.2746],[74.0349,31.3121],[73.6533,31.1381]]]},"properties":{"na":"NA-134","dist":"Kasur","approx":true}},
{"type":"Feature","geometry":{"type":"Polygon","coordinates":[[[73.2683,30.9386],[73.2748,30.8951],[73.5606,30.7925],[73.7726,30.9786],[73.7626,30.9921],[73.6533,31.1381],[73.3894,31.0229],[73.2683,30.9386]]]},"properties":{"na":"NA-135","dist":"Okara","approx":true}},
{"type":"Feature","geometry":{"type":"Polygon","coordinates":[[[73.2748,30.8951],[73.2919,30.7806],[73.3053,30.541],[73.4667,30.5504],[73.5832,30.4998],[73.5606,30.7925],[73.2748,30.8951]]]},"properties":{"na":"NA-136","dist":"Okara","approx":true}},
{"type":"Feature","geometry":{"type":"Polygon","coordinates":[[[73.825,30.9076],[73.7726,30.9786],[73.5606,30.7925],[73.5832,30.4998],[73.616,30.4856],[73.9977,30.8277],[73.9442,30.8543],[73.8584,30.8623],[73.825,30.9076]]]},"properties":{"na":"NA-137","dist":"Okara","approx":true}},
{"type":"Feature","geometry":{"type":"Polygon","coordinates":[[[73.9977,30.8277],[73.616,30.4856],[73.6365,30.4767],[73.6247,30.2786],[73.924,30.3295],[74.161,30.6414],[74.0686,30.7927],[73.9977,30.8277]]]},"properties":{"na":"NA-138","dist":"Okara","approx":true}},
{"type":"Feature","geometry":{"type":"Polygon","coordinates":[[[73.3053,30.541],[73.2381,30.5423],[73.1779,30.505],[73.1574,30.4923],[73.3376,30.1025],[73.3524,30.1045],[73.6247,30.2786],[73.6365,30.4767],[73.616,30.4856],[73.5832,30.4998],[73.4667,30.5504],[73.3053,30.541]]]},"properties":{"na":"NA-139","dist":"Pakpattan","approx":true}},
{"type":"Feature","geometry":{"type":"Polygon","coordinates":[[[73.1574,30.4923],[73.0111,30.4018],[72.8447,30.3736],[72.9708,29.9626],[73.1624,30.0778],[73.2145,30.0851],[73.3376,30.1025],[73.1574,30.4923]]]},"properties":{"na":"NA-140","dist":"Pakpattan","approx":true}},
{"type":"Feature","geometry":{"type":"Polygon","coordinates":[[[73.1499,30.8505],[73.1389,30.8288],[73.0422,30.793],[73.1779,30.505],[73.2381,30.5423],[73.3053,30.541],[73.2919,30.7806],[73.2748,30.8951],[73.2683,30.9386],[73.1742,30.8984],[73.1499,30.8505]]]},"properties":{"na":"NA-141","dist":"Sahiwal","approx":true}},
{"type":"Feature","geometry":{"type":"Polygon","coordinates":[[[72.7842,30.6802],[72.7375,30.6113],[72.8447,30.3736],[73.0111,30.4018],[73.1574,30.4923],[73.1779,30.505],[73.0422,30.793],[72.9439,30.7565],[72.7842,30.6802]]]},"properties":{"na":"NA-142","dist":"Sahiwal","approx":true}},
{"type":"Feature","geometry":{"type":"Polygon","coordinates":[[[72.4967,30.5785],[72.3992,30.2183],[72.4325,30.1883],[72.4614,30.1621],[72.5043,30.2197],[72.5421,30.2706],[72.6648,30.3094],[72.8447,30.3736],[72.7375,30.6113],[72.7153,30.5785],[72.4967,30.5785]]]},"properties":{"na":"NA-143","dist":"Sahiwal","approx":true}},
{"type":"Feature","geometry":{"type":"Polygon","coordinates":[[[71.7268,30.5785],[71.5301,30.4339],[71.6108,30.4125],[71.6278,30.3808],[71.6511,30.3375],[71.7772,30.3027],[71.7806,30.2996],[71.8422,30.3179],[72.0931,30.7184],[72.0529,30.719],[71.7268,30.5785]]]},"properties":{"na":"NA-144","dist":"Khanewal","approx":true}},
{"type":"Feature","geometry":{"type":"Polygon","coordinates":[[[72.1682,30.6035],[72.1681,30.7173],[72.0931,30.7184],[71.8422,30.3179],[72.1683,30.252],[72.1682,30.5692],[72.1521,30.5731],[72.1682,30.6035]]]},"properties":{"na":"NA-145","dist":"Khanewal","approx":true}},
{"type":"Feature","geometry":{"type":"MultiPolygon","coordinates":[[[[72.1682,30.5692],[72.1683,30.252],[72.2251,30.1752],[72.3219,30.2157],[72.3992,30.2183],[72.4967,30.5785],[72.3051,30.5356],[72.1682,30.5692]]],[[[72.2277,30.7164],[72.1681,30.7173],[72.1682,30.6035],[72.2277,30.7164]]]]},"properties":{"na":"NA-146","dist":"Khanewal","approx":true}},
{"type":"Feature","geometry":{"type":"Polygon","coordinates":[[[71.7806,30.2996],[71.8344,30.2518],[71.7167,30.0497],[71.6184,29.9836],[71.5872,29.9626],[71.611,29.9349],[71.6343,29.9078],[71.7318,29.9519],[71.9907,30.0912],[72.0245,30.0838],[72.1017,30.0671],[72.1874,30.1594],[72.2251,30.1752],[72.1683,30.252],[71.8422,30.3179],[71.7806,30.2996]]]},"properties":{"na":"NA-147","dist":"Khanewal","approx":true}},
{"type":"Feature","geometry":{"type":"Polygon","coordinates":[[[71.4705,30.2067],[71.4879,30.4013],[71.4141,30.3442],[71.2964,30.1688],[71.2899,30.1153],[71.4705,30.2067]]]},"properties":{"na":"NA-148","dist":"Multan","approx":true}},
{"type":"Feature","geometry":{"type":"Polygon","coordinates":[[[71.5301,30.4339],[71.4879,30.4013],[71.4705,30.2067],[71.5649,30.1599],[71.6278,30.3808],[71.6108,30.4125],[71.5301,30.4339]]]},"properties":{"na":"NA-149","dist":"Multan","approx":true}},
{"type":"Feature","geometry":{"type":"Polygon","coordinates":[[[71.2899,30.1153],[71.2886,30.1049],[71.5753,30.0284],[71.5649,30.1599],[71.4705,30.2067],[71.2899,30.1153]]]},"properties":{"na":"NA-150","dist":"Multan","approx":true}},
{"type":"Feature","geometry":{"type":"Polygon","coordinates":[[[71.6278,30.3808],[71.5649,30.1599],[71.5753,30.0284],[71.6184,29.9836],[71.7167,30.0497],[71.8344,30.2518],[71.7806,30.2996],[71.7772,30.3027],[71.6511,30.3375],[71.6278,30.3808]]]},"properties":{"na":"NA-151","dist":"Multan","approx":true}},
{"type":"Feature","geometry":{"type":"Polygon","coordinates":[[[71.6184,29.9836],[71.5753,30.0284],[71.2886,30.1049],[71.2838,30.065],[71.2762,30.0028],[71.172,29.8783],[71.1721,29.8764],[71.4263,29.7412],[71.4292,29.8087],[71.5872,29.9626],[71.6184,29.9836]]]},"properties":{"na":"NA-152","dist":"Multan","approx":true}},
{"type":"Feature","geometry":{"type":"Polygon","coordinates":[[[71.1721,29.8764],[71.1804,29.7016],[71.0875,29.678],[71.0644,29.6721],[71.0611,29.4432],[71.172,29.4668],[71.2308,29.4794],[71.3552,29.4231],[71.4208,29.6146],[71.4263,29.7412],[71.1721,29.8764]]]},"properties":{"na":"NA-153","dist":"Multan","approx":true}},
{"type":"Feature","geometry":{"type":"Polygon","coordinates":[[[71.611,29.9349],[71.7429,29.509],[71.8192,29.5342],[72.0156,29.5518],[72.0731,29.557],[72.0933,29.6012],[71.8848,29.9064],[71.7318,29.9519],[71.6343,29.9078],[71.611,29.9349]]]},"properties":{"na":"NA-154","dist":"Lodhran","approx":true}},
{"type":"Feature","geometry":{"type":"Polygon","coordinates":[[[71.5872,29.9626],[71.4292,29.8087],[71.4263,29.7412],[71.4208,29.6146],[71.3552,29.4231],[71.478,29.3977],[71.5159,29.4161],[71.6293,29.4713],[71.7429,29.509],[71.611,29.9349],[71.5872,29.9626]]]},"properties":{"na":"NA-155","dist":"Lodhran","approx":true}},
{"type":"Feature","geometry":{"type":"Polygon","coordinates":[[[72.8447,30.3736],[72.6648,30.3094],[72.5421,30.2706],[72.5043,30.2197],[72.8735,29.9766],[72.8867,29.9961],[72.9708,29.9626],[72.8447,30.3736]]]},"properties":{"na":"NA-156","dist":"Vehari","approx":true}},
{"type":"Feature","geometry":{"type":"Polygon","coordinates":[[[72.4325,30.1883],[72.4272,29.8532],[72.5623,29.8087],[72.7791,29.9787],[72.8135,29.9653],[72.8548,29.9493],[72.8735,29.9766],[72.5043,30.2197],[72.4614,30.1621],[72.4325,30.1883]]]},"properties":{"na":"NA-157","dist":"Vehari","approx":true}},
{"type":"Feature","geometry":{"type":"Polygon","coordinates":[[[72.3992,30.2183],[72.3219,30.2157],[72.2251,30.1752],[72.1874,30.1594],[72.1017,30.0671],[72.0245,30.0838],[72.2491,29.7815],[72.3959,29.8636],[72.4272,29.8532],[72.4325,30.1883],[72.3992,30.2183]]]},"properties":{"na":"NA-158","dist":"Vehari","approx":true}},
{"type":"Feature","geometry":{"type":"Polygon","coordinates":[[[71.7318,29.9519],[71.8848,29.9064],[72.0933,29.6012],[72.2093,29.7592],[72.2491,29.7815],[72.0245,30.0838],[71.9907,30.0912],[71.7318,29.9519]]]},"properties":{"na":"NA-159","dist":"Vehari","approx":true}},
{"type":"Feature","geometry":{"type":"Polygon","coordinates":[[[73.6247,30.2786],[73.3524,30.1045],[73.3376,30.1025],[73.2145,30.0851],[73.376,29.875],[73.966,30.1916],[73.924,30.3295],[73.6247,30.2786]]]},"properties":{"na":"NA-160","dist":"Bahawalnagar","approx":true}},
{"type":"Feature","geometry":{"type":"Polygon","coordinates":[[[72.9708,29.9626],[72.8867,29.9961],[72.8735,29.9766],[72.8548,29.9493],[72.8135,29.9653],[73.1755,29.3881],[73.376,29.875],[73.2145,30.0851],[73.1624,30.0778],[72.9708,29.9626]]]},"properties":{"na":"NA-161","dist":"Bahawalnagar","approx":true}},
{"type":"Feature","geometry":{"type":"Polygon","coordinates":[[[72.5623,29.8087],[72.727,29.466],[72.6581,29.4223],[73.1674,29.3745],[73.1755,29.3881],[72.8135,29.9653],[72.7791,29.9787],[72.5623,29.8087]]]},"properties":{"na":"NA-162","dist":"Bahawalnagar","approx":true}},
{"type":"Feature","geometry":{"type":"Polygon","coordinates":[[[72.6581,29.4223],[72.6363,29.4084],[72.6127,29.2411],[72.2799,29.2196],[72.4261,28.9867],[72.4748,28.855],[72.49,28.814],[72.9439,29.0335],[73.1674,29.3745],[72.6581,29.4223]]]},"properties":{"na":"NA-163","dist":"Bahawalnagar","approx":true}},
{"type":"Feature","geometry":{"type":"Polygon","coordinates":[[[71.7429,29.509],[71.6293,29.4713],[71.5159,29.4161],[71.6474,29.0583],[72.1485,29.0845],[72.0156,29.5518],[71.8192,29.5342],[71.7429,29.509]]]},"properties":{"na":"NA-164","dist":"Bahawalpur","approx":true}},
{"type":"Feature","geometry":{"type":"Polygon","coordinates":[[[72.0156,29.5518],[72.1485,29.0845],[72.4748,28.855],[72.4261,28.9867],[72.2799,29.2196],[72.6127,29.2411],[72.6363,29.4084],[72.6581,29.4223],[72.727,29.466],[72.5623,29.8087],[72.4272,29.8532],[72.3959,29.8636],[72.2491,29.7815],[72.2093,29.7592],[72.0933,29.6012],[72.0731,29.557],[72.0156,29.5518]]]},"properties":{"na":"NA-165","dist":"Bahawalpur","approx":true}},
{"type":"Feature","geometry":{"type":"Polygon","coordinates":[[[72.4748,28.855],[72.1485,29.0845],[71.6474,29.0583],[71.3626,28.9045],[70.9599,28.4213],[70.9669,28.2879],[71.1064,27.7925],[71.8999,27.9639],[72.184,28.3575],[72.3017,28.6654],[72.49,28.814],[72.4748,28.855]]]},"properties":{"na":"NA-166","dist":"Bahawalpur","approx":true}},
{"type":"Feature","geometry":{"type":"Polygon","coordinates":[[[71.172,29.4668],[71.3626,28.9045],[71.6474,29.0583],[71.5159,29.4161],[71.478,29.3977],[71.3552,29.4231],[71.2308,29.4794],[71.172,29.4668]]]},"properties":{"na":"NA-167","dist":"Bahawalpur","approx":true}},
{"type":"Feature","geometry":{"type":"Polygon","coordinates":[[[71.0611,29.4432],[71.0533,29.4246],[71.0375,29.387],[70.9148,29.2411],[71.0459,28.8193],[70.973,28.6316],[70.9518,28.577],[70.9599,28.4213],[71.3626,28.9045],[71.172,29.4668],[71.0611,29.4432]]]},"properties":{"na":"NA-168","dist":"Bahawalpur","approx":true}},
{"type":"Feature","geometry":{"type":"Polygon","coordinates":[[[70.9148,29.2411],[70.7501,29.1594],[70.5692,29.0332],[70.8316,28.6454],[70.973,28.6316],[71.0459,28.8193],[70.9148,29.2411]]]},"properties":{"na":"NA-169","dist":"Rahim Yar Khan","approx":true}},
{"type":"Feature","geometry":{"type":"Polygon","coordinates":[[[70.9599,28.4213],[70.9518,28.577],[70.973,28.6316],[70.8316,28.6454],[70.6177,28.5297],[70.4853,28.0153],[70.7585,27.7176],[71.1064,27.7925],[70.9669,28.2879],[70.9599,28.4213]]]},"properties":{"na":"NA-170","dist":"Rahim Yar Khan","approx":true}},
{"type":"Feature","geometry":{"type":"Polygon","coordinates":[[[70.5692,29.0332],[70.5466,29.0175],[70.4549,28.9155],[70.4105,28.8662],[70.2877,28.814],[70.239,28.7275],[70.3583,28.5973],[70.6177,28.5297],[70.8316,28.6454],[70.5692,29.0332]]]},"properties":{"na":"NA-171","dist":"Rahim Yar Khan","approx":true}},
{"type":"Feature","geometry":{"type":"Polygon","coordinates":[[[70.239,28.7275],[70.2071,28.6707],[69.8675,28.4565],[69.8401,28.4439],[70.1799,28.2833],[70.3583,28.5973],[70.239,28.7275]]]},"properties":{"na":"NA-172","dist":"Rahim Yar Khan","approx":true}},
{"type":"Feature","geometry":{"type":"Polygon","coordinates":[[[70.6177,28.5297],[70.3583,28.5973],[70.1799,28.2833],[70.3444,27.9898],[70.4853,28.0153],[70.6177,28.5297]]]},"properties":{"na":"NA-173","dist":"Rahim Yar Khan","approx":true}},
{"type":"Feature","geometry":{"type":"MultiPolygon","coordinates":[[[[69.8401,28.4439],[69.7515,28.403],[69.8439,28.1352],[70.1802,27.8554],[70.3444,27.9898],[70.1799,28.2833],[69.8401,28.4439]]],[[[69.5968,28.245],[69.6607,28.3374],[69.6506,28.3454],[69.6506,28.3468],[69.5968,28.245]]]]},"properties":{"na":"NA-174","dist":"Rahim Yar Khan","approx":true}},
{"type":"Feature","geometry":{"type":"Polygon","coordinates":[[[71.0989,30.3586],[71.3461,30.7139],[71.3132,30.7445],[71.2334,30.7566],[71.172,30.7659],[70.7954,30.6534],[70.7944,30.6048],[70.7921,30.4914],[70.8211,30.4231],[71.0989,30.3586]]]},"properties":{"na":"NA-175","dist":"Muzaffargarh","approx":true}},
{"type":"Feature","geometry":{"type":"Polygon","coordinates":[[[71.6562,30.62],[71.4242,30.6414],[71.3461,30.7139],[71.0989,30.3586],[71.2202,30.0996],[71.2838,30.065],[71.2886,30.1049],[71.2899,30.1153],[71.2964,30.1688],[71.4141,30.3442],[71.4879,30.4013],[71.5301,30.4339],[71.7268,30.5785],[71.6562,30.62]]]},"properties":{"na":"NA-176","dist":"Muzaffargarh","approx":true}},
{"type":"Feature","geometry":{"type":"Polygon","coordinates":[[[70.8211,30.4231],[70.8324,30.3964],[70.8038,30.2384],[70.8311,30.1779],[70.8862,30.055],[70.8665,30.0144],[71.2202,30.0996],[71.0989,30.3586],[70.8211,30.4231]]]},"properties":{"na":"NA-177","dist":"Muzaffargarh","approx":true}},
{"type":"Feature","geometry":{"type":"Polygon","coordinates":[[[71.2838,30.065],[71.2202,30.0996],[70.8665,30.0144],[70.866,30.0135],[70.8677,30.0082],[70.8429,29.8445],[71.0875,29.678],[71.1804,29.7016],[71.1721,29.8764],[71.172,29.8783],[71.2762,30.0028],[71.2838,30.065]]]},"properties":{"na":"NA-178","dist":"Muzaffargarh","approx":true}},
{"type":"Feature","geometry":{"type":"Polygon","coordinates":[[[71.0875,29.678],[70.8429,29.8445],[70.8425,29.8422],[70.7215,29.6668],[70.6755,29.5389],[71.0533,29.4246],[71.0611,29.4432],[71.0644,29.6721],[71.0875,29.678]]]},"properties":{"na":"NA-179","dist":"Muzaffargarh","approx":true}},
{"type":"Feature","geometry":{"type":"Polygon","coordinates":[[[71.0533,29.4246],[70.6755,29.5389],[70.6323,29.4187],[70.6223,29.391],[70.5466,29.0175],[70.5692,29.0332],[70.7501,29.1594],[70.9148,29.2411],[71.0375,29.387],[71.0533,29.4246]]]},"properties":{"na":"NA-180","dist":"Muzaffargarh","approx":true}},
{"type":"Feature","geometry":{"type":"Polygon","coordinates":[[[70.9984,31.3822],[71.2334,30.7566],[71.3132,30.7445],[71.3461,30.7139],[71.4242,30.6414],[71.6562,30.62],[71.7755,30.9694],[71.799,31.0192],[71.8159,31.0551],[71.7638,31.1568],[71.5385,31.2425],[71.3048,31.1501],[71.093,31.3817],[70.9984,31.3822]]]},"properties":{"na":"NA-181","dist":"Layyah","approx":true}},
{"type":"Feature","geometry":{"type":"Polygon","coordinates":[[[70.7753,31.3054],[70.7954,30.6534],[71.172,30.7659],[71.2334,30.7566],[70.9984,31.3822],[70.8358,31.3831],[70.7753,31.3054]]]},"properties":{"na":"NA-182","dist":"Layyah","approx":true}},
{"type":"Feature","geometry":{"type":"Polygon","coordinates":[[[70.4222,31.2452],[70.2877,31.1648],[70.2155,30.79],[70.0894,30.6976],[70.0889,30.6815],[70.7944,30.6048],[70.7954,30.6534],[70.7753,31.3054],[70.4222,31.2452]]]},"properties":{"na":"NA-183","dist":"Dera Ghazi Khan","approx":true}},
{"type":"Feature","geometry":{"type":"Polygon","coordinates":[[[70.7944,30.6048],[70.0889,30.6815],[70.086,30.5932],[69.9986,30.4459],[69.9909,30.4203],[70.5102,30.0933],[70.8311,30.1779],[70.8038,30.2384],[70.8324,30.3964],[70.8211,30.4231],[70.7921,30.4914],[70.7944,30.6048]]]},"properties":{"na":"NA-184","dist":"Dera Ghazi Khan","approx":true}},
{"type":"Feature","geometry":{"type":"Polygon","coordinates":[[[69.9909,30.4203],[69.9616,30.3228],[70.0759,30.2625],[69.8776,29.8984],[70.1617,29.7525],[70.3186,29.7366],[70.5102,30.0933],[69.9909,30.4203]]]},"properties":{"na":"NA-185","dist":"Dera Ghazi Khan","approx":true}},
{"type":"Feature","geometry":{"type":"Polygon","coordinates":[[[70.8311,30.1779],[70.5102,30.0933],[70.3186,29.7366],[70.3466,29.7337],[70.7215,29.6668],[70.8425,29.8422],[70.8429,29.8445],[70.8677,30.0082],[70.866,30.0135],[70.8665,30.0144],[70.8862,30.055],[70.8311,30.1779]]]},"properties":{"na":"NA-186","dist":"Dera Ghazi Khan","approx":true}},
{"type":"Feature","geometry":{"type":"Polygon","coordinates":[[[70.7215,29.6668],[70.3466,29.7337],[70.3186,29.7366],[70.1617,29.7525],[69.8776,29.8984],[69.6456,29.6855],[69.5918,29.6266],[69.5812,29.5645],[70.6323,29.4187],[70.6755,29.5389],[70.7215,29.6668]]]},"properties":{"na":"NA-187","dist":"Rajanpur","approx":true}},
{"type":"Feature","geometry":{"type":"Polygon","coordinates":[[[70.5466,29.0175],[70.6223,29.391],[70.6323,29.4187],[69.5812,29.5645],[69.5632,29.4593],[69.7447,29.237],[69.7283,29.1745],[70.4549,28.9155],[70.5466,29.0175]]]},"properties":{"na":"NA-188","dist":"Rajanpur","approx":true}},
{"type":"Feature","geometry":{"type":"Polygon","coordinates":[[[70.4549,28.9155],[69.7283,29.1745],[69.7061,29.0898],[69.3631,28.4458],[69.3955,28.4538],[69.5212,28.4847],[69.7481,28.4057],[69.7498,28.4043],[69.7515,28.403],[69.8401,28.4439],[69.8675,28.4565],[70.2071,28.6707],[70.239,28.7275],[70.2877,28.814],[70.4105,28.8662],[70.4549,28.9155]]]},"properties":{"na":"NA-189","dist":"Rajanpur","approx":true}},
{"type":"Feature","geometry":{"type":"Polygon","coordinates":[[[68.6812,28.1349],[68.6533,28.4302],[68.5175,28.4311],[67.9123,27.9947],[68.1208,27.9344],[68.2087,27.9269],[68.6812,28.1349]]]},"properties":{"na":"NA-190","dist":"Jacobabad","approx":true}},
{"type":"Feature","geometry":{"type":"Polygon","coordinates":[[[69.3631,28.4458],[69.1278,28.4405],[68.7092,28.4298],[68.6533,28.4302],[68.6812,28.1349],[68.7333,28.0913],[69.3955,28.4538],[69.3631,28.4458]]]},"properties":{"na":"NA-191","dist":"Jacobabad / Kashmore","approx":true}},
{"type":"Feature","geometry":{"type":"Polygon","coordinates":[[[69.6506,28.3454],[69.6516,28.3458],[69.6573,28.3481],[69.6657,28.3481],[69.6741,28.3521],[69.6943,28.3829],[69.7498,28.4043],[69.7481,28.4057],[69.5212,28.4847],[69.3955,28.4538],[68.7333,28.0913],[68.8506,27.8662],[68.8588,27.8822],[69.1866,27.9933],[69.227,28.0924],[69.4196,28.1773],[69.4791,28.2035],[69.5968,28.245],[69.6506,28.3468],[69.6506,28.3454]]]},"properties":{"na":"NA-192","dist":"Kashmore / Shikarpur","approx":true}},
{"type":"Feature","geometry":{"type":"Polygon","coordinates":[[[68.2087,27.9269],[68.2452,27.9237],[68.4621,27.6854],[68.621,27.7492],[68.689,27.7765],[68.8151,27.7965],[68.8506,27.8662],[68.7333,28.0913],[68.6812,28.1349],[68.2087,27.9269]]]},"properties":{"na":"NA-193","dist":"Shikarpur","approx":true}},
{"type":"Feature","geometry":{"type":"Polygon","coordinates":[[[68.1208,27.9344],[68.1948,27.7229],[68.1239,27.6074],[68.3092,27.5113],[68.336,27.5248],[68.4621,27.6854],[68.2452,27.9237],[68.2087,27.9269],[68.1208,27.9344]]]},"properties":{"na":"NA-194","dist":"Larkana","approx":true}},
{"type":"Feature","geometry":{"type":"Polygon","coordinates":[[[68.1239,27.6074],[68.0256,27.4471],[68.0166,27.4324],[67.9947,27.2918],[68.0485,27.1285],[68.188,27.2289],[68.2721,27.4926],[68.3092,27.5113],[68.1239,27.6074]]]},"properties":{"na":"NA-195","dist":"Larkana","approx":true}},
{"type":"Feature","geometry":{"type":"Polygon","coordinates":[[[67.9123,27.9947],[67.3946,27.9103],[67.3864,27.8839],[68.0256,27.4471],[68.1239,27.6074],[68.1948,27.7229],[68.1208,27.9344],[67.9123,27.9947]]]},"properties":{"na":"NA-196","dist":"Kambar-Shahdadkot","approx":true}},
{"type":"Feature","geometry":{"type":"Polygon","coordinates":[[[68.0256,27.4471],[67.3864,27.8839],[67.3374,27.7256],[67.1743,27.4471],[67.3139,27.3668],[67.9947,27.2918],[68.0166,27.4324],[68.0256,27.4471]]]},"properties":{"na":"NA-197","dist":"Kambar-Shahdadkot","approx":true}},
{"type":"Feature","geometry":{"type":"Polygon","coordinates":[[[69.7515,28.403],[69.7498,28.4043],[69.6943,28.3829],[69.6741,28.3521],[69.6657,28.3481],[69.6573,28.3481],[69.6516,28.3458],[69.6506,28.3454],[69.6607,28.3374],[69.5968,28.245],[69.4791,28.2035],[69.4196,28.1773],[69.9247,27.4899],[70.1802,27.8554],[69.8439,28.1352],[69.7515,28.403]]]},"properties":{"na":"NA-198","dist":"Ghotki","approx":true}},
{"type":"Feature","geometry":{"type":"Polygon","coordinates":[[[69.1866,27.9933],[69.1833,27.9144],[69.2494,27.7679],[69.2757,27.7095],[69.3396,27.5395],[69.77,27.3293],[69.9247,27.4899],[69.4196,28.1773],[69.227,28.0924],[69.1866,27.9933]]]},"properties":{"na":"NA-199","dist":"Ghotki","approx":true}},
{"type":"Feature","geometry":{"type":"Polygon","coordinates":[[[69.2494,27.7679],[68.8419,27.4647],[68.8924,27.4137],[69.1059,27.2088],[69.1429,27.2001],[69.3278,27.1566],[69.5363,27.0656],[69.77,27.3293],[69.3396,27.5395],[69.2757,27.7095],[69.2494,27.7679]]]},"properties":{"na":"NA-200","dist":"Sukkur","approx":true}},
{"type":"Feature","geometry":{"type":"Polygon","coordinates":[[[68.8506,27.8662],[68.8151,27.7965],[68.689,27.7765],[68.7983,27.5087],[68.8419,27.4647],[69.2494,27.7679],[69.1833,27.9144],[69.1866,27.9933],[68.8588,27.8822],[68.8506,27.8662]]]},"properties":{"na":"NA-201","dist":"Sukkur","approx":true}},
{"type":"Feature","geometry":{"type":"Polygon","coordinates":[[[68.621,27.7492],[68.48,26.7436],[69.1429,27.2001],[69.1059,27.2088],[68.8924,27.4137],[68.8419,27.4647],[68.7983,27.5087],[68.689,27.7765],[68.621,27.7492]]]},"properties":{"na":"NA-202","dist":"Khairpur","approx":true}},
{"type":"Feature","geometry":{"type":"Polygon","coordinates":[[[69.1429,27.2001],[68.48,26.7436],[68.3625,26.6298],[68.7579,26.5863],[68.847,26.4364],[69.2354,26.2382],[69.3022,26.2307],[69.5699,26.2008],[70.1264,26.1405],[70.1684,26.5502],[69.8557,26.5823],[69.5228,26.7363],[69.5363,27.0656],[69.3278,27.1566],[69.1429,27.2001]]]},"properties":{"na":"NA-203","dist":"Khairpur","approx":true}},
{"type":"Feature","geometry":{"type":"Polygon","coordinates":[[[68.4621,27.6854],[68.336,27.5248],[68.3092,27.5113],[68.2721,27.4926],[68.188,27.2289],[68.4453,27.0361],[68.3276,26.8741],[68.3117,26.7848],[68.2889,26.6559],[68.3562,26.6305],[68.3625,26.6298],[68.48,26.7436],[68.621,27.7492],[68.4621,27.6854]]]},"properties":{"na":"NA-204","dist":"Khairpur","approx":true}},
{"type":"Feature","geometry":{"type":"Polygon","coordinates":[[[68.0485,27.1285],[67.9107,27.0428],[67.9135,27.0088],[68.3117,26.7848],[68.3276,26.8741],[68.4453,27.0361],[68.188,27.2289],[68.0485,27.1285]]]},"properties":{"na":"NA-205","dist":"Naushehro Feroze","approx":true}},
{"type":"Feature","geometry":{"type":"Polygon","coordinates":[[[68.3117,26.7848],[67.9135,27.0088],[67.9207,26.9223],[67.8515,26.8693],[67.8333,26.8554],[67.8081,26.597],[67.9107,26.5488],[68.1527,26.5984],[68.2612,26.6155],[68.3562,26.6305],[68.2889,26.6559],[68.3117,26.7848]]]},"properties":{"na":"NA-206","dist":"Naushehro Feroze","approx":true}},
{"type":"Feature","geometry":{"type":"Polygon","coordinates":[[[68.3625,26.6298],[68.3562,26.6305],[68.2612,26.6155],[68.3919,26.0662],[68.4335,26.0709],[68.647,26.1686],[68.847,26.4364],[68.7579,26.5863],[68.3625,26.6298]]]},"properties":{"na":"NA-207","dist":"Shaheed Benazirabad","approx":true}},
{"type":"Feature","geometry":{"type":"Polygon","coordinates":[[[67.9107,26.5488],[67.8821,26.273],[68.2771,25.9932],[68.3377,26.0602],[68.3919,26.0662],[68.2612,26.6155],[68.1527,26.5984],[67.9107,26.5488]]]},"properties":{"na":"NA-208","dist":"Shaheed Benazirabad","approx":true}},
{"type":"Feature","geometry":{"type":"Polygon","coordinates":[[[68.847,26.4364],[68.647,26.1686],[68.4335,26.0709],[68.4436,25.9089],[68.6672,25.6693],[68.8807,25.7027],[69.2337,25.8018],[69.236,25.8004],[69.3022,26.2307],[69.2354,26.2382],[68.847,26.4364]]]},"properties":{"na":"NA-209","dist":"Sanghar","approx":true}},
{"type":"Feature","geometry":{"type":"Polygon","coordinates":[[[69.3022,26.2307],[69.236,25.8004],[69.3043,25.7603],[69.3228,25.6157],[69.2944,25.5467],[69.2942,25.5461],[69.2993,25.5474],[69.6254,25.4899],[69.9229,25.7509],[70.2323,25.7831],[70.1264,26.1405],[69.5699,26.2008],[69.3022,26.2307]]]},"properties":{"na":"NA-210","dist":"Sanghar","approx":true}},
{"type":"Feature","geometry":{"type":"Polygon","coordinates":[[[68.8807,25.7027],[68.9664,25.2984],[68.9676,25.2782],[69.2488,25.4105],[69.1833,25.4564],[69.2909,25.5461],[69.2944,25.5467],[69.3228,25.6157],[69.3043,25.7603],[69.236,25.8004],[69.2337,25.8018],[68.8807,25.7027]]]},"properties":{"na":"NA-211","dist":"Mirpurkhas","approx":true}},
{"type":"Feature","geometry":{"type":"Polygon","coordinates":[[[68.9676,25.2782],[68.9748,25.1512],[69.3245,24.8004],[69.4791,24.8821],[69.3093,25.368],[69.2488,25.4105],[68.9676,25.2782]]]},"properties":{"na":"NA-212","dist":"Mirpurkhas","approx":true}},
{"type":"Feature","geometry":{"type":"Polygon","coordinates":[[[69.2944,25.5467],[69.2909,25.5461],[69.1833,25.4564],[69.2488,25.4105],[69.3093,25.368],[69.4791,24.8821],[69.7279,25.1619],[69.9936,25.198],[70.0376,25.2025],[70.2693,25.2261],[70.2659,25.7242],[70.2323,25.7831],[69.9229,25.7509],[69.6254,25.4899],[69.2993,25.5474],[69.2942,25.5461],[69.2944,25.5467]]]},"properties":{"na":"NA-213","dist":"Umerkot","approx":false}},
{"type":"Feature","geometry":{"type":"Polygon","coordinates":[[[70.0376,25.2025],[70.4108,24.3725],[70.8055,24.2221],[70.9804,24.364],[71.0863,24.6933],[70.8812,25.1458],[70.666,25.3962],[70.6408,25.7148],[70.2659,25.7242],[70.2693,25.2261],[70.0376,25.2025]]]},"properties":{"na":"NA-214","dist":"Tharparkar","approx":true}},
{"type":"Feature","geometry":{"type":"Polygon","coordinates":[[[69.3245,24.8004],[69.2471,24.7482],[69.205,24.5997],[69.1883,24.5407],[69.0706,24.2596],[69.5901,24.2863],[70.0238,24.1699],[70.4108,24.3725],[70.0376,25.2025],[69.9936,25.198],[69.7279,25.1619],[69.4791,24.8821],[69.3245,24.8004]]]},"properties":{"na":"NA-215","dist":"Tharparkar","approx":true}},
{"type":"Feature","geometry":{"type":"Polygon","coordinates":[[[68.3919,26.0662],[68.3377,26.0602],[68.2771,25.9932],[68.3797,25.5528],[68.4911,25.49],[68.5865,25.4363],[68.6672,25.6693],[68.4436,25.9089],[68.4335,26.0709],[68.3919,26.0662]]]},"properties":{"na":"NA-216","dist":"Matiari","approx":false}},
{"type":"Feature","geometry":{"type":"Polygon","coordinates":[[[68.6672,25.6693],[68.5865,25.4363],[68.6167,25.2917],[68.7327,25.2569],[68.9664,25.2984],[68.8807,25.7027],[68.6672,25.6693]]]},"properties":{"na":"NA-217","dist":"Tando Allah Yar","approx":false}},
{"type":"Feature","geometry":{"type":"Polygon","coordinates":[[[68.4911,25.49],[68.4049,25.3492],[68.589,25.1788],[68.5915,25.1793],[68.6167,25.2917],[68.5865,25.4363],[68.4911,25.49]]]},"properties":{"na":"NA-218","dist":"Hyderabad","approx":true}},
{"type":"Feature","geometry":{"type":"Polygon","coordinates":[[[68.4049,25.3492],[68.3277,25.333],[68.3293,25.3252],[68.3427,25.2944],[68.3444,25.2194],[68.4873,25.1592],[68.589,25.1788],[68.4049,25.3492]]]},"properties":{"na":"NA-219","dist":"Hyderabad","approx":true}},
{"type":"Feature","geometry":{"type":"Polygon","coordinates":[[[68.3797,25.5528],[68.3057,25.4444],[68.3277,25.333],[68.4049,25.3492],[68.4911,25.49],[68.3797,25.5528]]]},"properties":{"na":"NA-220","dist":"Hyderabad","approx":true}},
{"type":"Feature","geometry":{"type":"Polygon","coordinates":[[[68.6167,25.2917],[68.5915,25.1793],[68.589,25.1788],[68.4873,25.1592],[68.3444,25.2194],[68.2587,24.9892],[68.3545,24.7576],[68.5797,24.8674],[68.6094,24.8823],[68.6857,24.9209],[68.7059,24.8365],[68.7075,24.8299],[68.7194,24.8302],[68.8201,24.8325],[68.5713,25.0829],[68.7327,25.2569],[68.6167,25.2917]]]},"properties":{"na":"NA-221","dist":"Tando Muhammad Khan","approx":false}},
{"type":"Feature","geometry":{"type":"MultiPolygon","coordinates":[[[[68.9664,25.2984],[68.7327,25.2569],[68.5713,25.0829],[68.8201,24.8325],[68.7194,24.8302],[69.205,24.5997],[69.2471,24.7482],[69.3245,24.8004],[68.9748,25.1512],[68.9676,25.2782],[68.9664,25.2984]]],[[[68.6094,24.8823],[68.7059,24.8365],[68.6857,24.9209],[68.6094,24.8823]]]]},"properties":{"na":"NA-222","dist":"Badin","approx":true}},
{"type":"Feature","geometry":{"type":"Polygon","coordinates":[[[69.205,24.5997],[68.7194,24.8302],[68.7075,24.8299],[68.7059,24.8365],[68.6094,24.8823],[68.5797,24.8674],[68.3545,24.7576],[68.4066,24.4443],[68.7647,24.2837],[69.0706,24.2596],[69.1883,24.5407],[69.205,24.5997]]]},"properties":{"na":"NA-223","dist":"Badin","approx":true}},
{"type":"Feature","geometry":{"type":"Polygon","coordinates":[[[68.2587,24.9892],[67.9628,24.6706],[67.9645,24.4189],[67.4853,23.9731],[67.6518,23.795],[67.9964,23.787],[68.3343,23.965],[68.7495,23.9624],[68.7647,24.2837],[68.4066,24.4443],[68.3545,24.7576],[68.2587,24.9892]]]},"properties":{"na":"NA-224","dist":"Sajawal","approx":false}},
{"type":"Feature","geometry":{"type":"Polygon","coordinates":[[[68.3427,25.2944],[67.9964,25.4444],[67.7123,25.0052],[67.5173,24.9852],[67.5381,24.9092],[67.5711,24.7884],[67.4433,24.7817],[67.3004,24.285],[67.4853,23.9731],[67.9645,24.4189],[67.9628,24.6706],[68.2587,24.9892],[68.3444,25.2194],[68.3427,25.2944]]]},"properties":{"na":"NA-225","dist":"Thatta","approx":false}},
{"type":"Feature","geometry":{"type":"Polygon","coordinates":[[[67.8081,26.597],[67.6316,26.5555],[67.4131,26.087],[67.3206,25.6398],[67.4131,25.4551],[67.4112,25.45],[67.3593,25.3091],[67.3487,25.2939],[67.2735,25.186],[67.3506,25.1507],[67.4635,25.099],[67.4912,25.0403],[67.5173,24.9852],[67.7123,25.0052],[67.9964,25.4444],[68.3427,25.2944],[68.3293,25.3252],[68.3277,25.333],[68.3057,25.4444],[68.3797,25.5528],[68.2771,25.9932],[67.8821,26.273],[67.9107,26.5488],[67.8081,26.597]]]},"properties":{"na":"NA-226","dist":"Jamshoro","approx":false}},
{"type":"Feature","geometry":{"type":"Polygon","coordinates":[[[67.9947,27.2918],[67.3139,27.3668],[67.1743,27.4471],[67.1609,27.0656],[67.1386,26.9101],[67.8515,26.8693],[67.9207,26.9223],[67.9135,27.0088],[67.9107,27.0428],[68.0485,27.1285],[67.9947,27.2918]]]},"properties":{"na":"NA-227","dist":"Dadu","approx":true}},
{"type":"Feature","geometry":{"type":"Polygon","coordinates":[[[67.8515,26.8693],[67.1386,26.9101],[67.134,26.8782],[67.1239,26.6533],[67.4131,26.087],[67.6316,26.5555],[67.8081,26.597],[67.8333,26.8554],[67.8515,26.8693]]]},"properties":{"na":"NA-228","dist":"Dadu","approx":true}},
{"type":"Feature","geometry":{"type":"Polygon","coordinates":[[[67.3206,25.6398],[67.2433,25.5233],[67.2231,25.5056],[67.4112,25.45],[67.4131,25.4551],[67.3206,25.6398]]]},"properties":{"na":"NA-229","dist":"Karachi","approx":true}},
{"type":"Feature","geometry":{"type":"Polygon","coordinates":[[[67.4112,25.45],[67.2231,25.5056],[67.1626,25.4524],[67.1626,25.4244],[67.2798,25.302],[67.3487,25.2939],[67.3593,25.3091],[67.4112,25.45]]]},"properties":{"na":"NA-230","dist":"Karachi","approx":true}},
{"type":"Feature","geometry":{"type":"Polygon","coordinates":[[[67.1626,25.4244],[67.1626,25.3948],[67.0965,25.2541],[67.18,25.2035],[67.2798,25.302],[67.1626,25.4244]]]},"properties":{"na":"NA-231","dist":"Karachi","approx":true}},
{"type":"Feature","geometry":{"type":"Polygon","coordinates":[[[67.3487,25.2939],[67.2798,25.302],[67.18,25.2035],[67.1895,25.1617],[67.3062,25.1094],[67.3506,25.1507],[67.2735,25.186],[67.3487,25.2939]]]},"properties":{"na":"NA-232","dist":"Karachi","approx":true}},
{"type":"Feature","geometry":{"type":"Polygon","coordinates":[[[67.0965,25.2541],[67.0903,25.2409],[67.0079,25.1619],[67.0079,25.1287],[67.1309,25.0857],[67.1895,25.1617],[67.18,25.2035],[67.0965,25.2541]]]},"properties":{"na":"NA-233","dist":"Karachi","approx":true}},
{"type":"Feature","geometry":{"type":"Polygon","coordinates":[[[67.1895,25.1617],[67.1309,25.0857],[67.1425,25.0277],[67.1522,25.0178],[67.2566,25.0004],[67.3028,25.0442],[67.3062,25.1094],[67.1895,25.1617]]]},"properties":{"na":"NA-234","dist":"Karachi","approx":true}},
{"type":"Feature","geometry":{"type":"Polygon","coordinates":[[[67.3506,25.1507],[67.3062,25.1094],[67.3028,25.0442],[67.3966,24.9896],[67.4912,25.0403],[67.4635,25.099],[67.3506,25.1507]]]},"properties":{"na":"NA-235","dist":"Karachi","approx":true}},
{"type":"Feature","geometry":{"type":"Polygon","coordinates":[[[67.0079,25.1287],[67.0079,25.1003],[66.9843,25.078],[67.0446,24.9889],[67.1425,25.0277],[67.1309,25.0857],[67.0079,25.1287]]]},"properties":{"na":"NA-236","dist":"Karachi","approx":true}},
{"type":"Feature","geometry":{"type":"Polygon","coordinates":[[[66.9843,25.078],[66.924,25.0213],[66.9663,24.9485],[67.0307,24.9504],[67.0446,24.9889],[66.9843,25.078]]]},"properties":{"na":"NA-237","dist":"Karachi","approx":true}},
{"type":"Feature","geometry":{"type":"Polygon","coordinates":[[[67.1425,25.0277],[67.0446,24.9889],[67.0307,24.9504],[67.055,24.9057],[67.1064,24.8912],[67.135,24.9028],[67.1522,25.0178],[67.1425,25.0277]]]},"properties":{"na":"NA-238","dist":"Karachi","approx":true}},
{"type":"Feature","geometry":{"type":"Polygon","coordinates":[[[66.924,25.0213],[66.9154,25.0133],[66.8439,24.9882],[66.9223,24.8837],[66.9663,24.9485],[66.924,25.0213]]]},"properties":{"na":"NA-239","dist":"Karachi","approx":true}},
{"type":"Feature","geometry":{"type":"Polygon","coordinates":[[[67.2566,25.0004],[67.262,24.923],[67.3341,24.8813],[67.3925,24.9111],[67.3966,24.9896],[67.3028,25.0442],[67.2566,25.0004]]]},"properties":{"na":"NA-240","dist":"Karachi","approx":true}},
{"type":"Feature","geometry":{"type":"Polygon","coordinates":[[[67.5173,24.9852],[67.4912,25.0403],[67.3966,24.9896],[67.3925,24.9111],[67.4441,24.8784],[67.5381,24.9092],[67.5173,24.9852]]]},"properties":{"na":"NA-241","dist":"Karachi","approx":true}},
{"type":"Feature","geometry":{"type":"Polygon","coordinates":[[[67.1522,25.0178],[67.135,24.9028],[67.2028,24.8734],[67.262,24.923],[67.2566,25.0004],[67.1522,25.0178]]]},"properties":{"na":"NA-242","dist":"Karachi","approx":true}},
{"type":"Feature","geometry":{"type":"Polygon","coordinates":[[[66.8439,24.9882],[66.7894,24.9691],[66.78,24.9608],[66.8193,24.8469],[66.9205,24.8572],[66.9223,24.8837],[66.8439,24.9882]]]},"properties":{"na":"NA-243","dist":"Karachi","approx":true}},
{"type":"Feature","geometry":{"type":"Polygon","coordinates":[[[66.9663,24.9485],[66.9223,24.8837],[66.9205,24.8572],[66.9793,24.8191],[67.055,24.9057],[67.0307,24.9504],[66.9663,24.9485]]]},"properties":{"na":"NA-244","dist":"Karachi","approx":true}},
{"type":"Feature","geometry":{"type":"Polygon","coordinates":[[[66.78,24.9608],[66.7036,24.8928],[66.8193,24.8469],[66.78,24.9608]]]},"properties":{"na":"NA-245","dist":"Karachi","approx":true}},
{"type":"Feature","geometry":{"type":"Polygon","coordinates":[[[67.262,24.923],[67.2028,24.8734],[67.2141,24.7808],[67.3224,24.7812],[67.3341,24.8813],[67.262,24.923]]]},"properties":{"na":"NA-246","dist":"Karachi","approx":true}},
{"type":"Feature","geometry":{"type":"Polygon","coordinates":[[[67.055,24.9057],[66.9793,24.8191],[67.0971,24.7808],[67.1064,24.8912],[67.055,24.9057]]]},"properties":{"na":"NA-247","dist":"Karachi","approx":true}},
{"type":"Feature","geometry":{"type":"Polygon","coordinates":[[[67.3341,24.8813],[67.3224,24.7812],[67.4418,24.7817],[67.4441,24.8784],[67.3925,24.9111],[67.3341,24.8813]]]},"properties":{"na":"NA-248","dist":"Karachi","approx":true}},
{"type":"Feature","geometry":{"type":"Polygon","coordinates":[[[67.1064,24.8912],[67.0971,24.7808],[67.2141,24.7808],[67.2028,24.8734],[67.135,24.9028],[67.1064,24.8912]]]},"properties":{"na":"NA-249","dist":"Karachi","approx":true}},
{"type":"Feature","geometry":{"type":"Polygon","coordinates":[[[67.5381,24.9092],[67.4441,24.8784],[67.4418,24.7817],[67.4433,24.7817],[67.5711,24.7884],[67.5381,24.9092]]]},"properties":{"na":"NA-250","dist":"Karachi","approx":true}},
{"type":"Feature","geometry":{"type":"Polygon","coordinates":[[[69.3211,31.952],[69.1177,31.703],[68.805,31.6106],[68.7025,31.77],[68.178,31.8141],[67.7005,31.5196],[67.445,31.2331],[67.8148,31.118],[67.5728,30.8984],[67.6988,30.6186],[68.6436,30.5745],[68.768,30.5102],[69.1412,30.6909],[69.5279,30.5383],[69.5312,30.7485],[69.7179,30.9854],[69.7195,31.2733],[70.0524,31.3978],[69.9398,31.545],[69.9566,31.8945],[69.6792,32.0725],[69.3211,31.952]]]},"properties":{"na":"NA-251","dist":"Killa Saifullah / Sherani / Zhob","approx":false}},
{"type":"Feature","geometry":{"type":"Polygon","coordinates":[[[70.2877,31.1648],[70.0524,31.3978],[69.7195,31.2733],[69.7179,30.9854],[69.5312,30.7485],[69.5279,30.5383],[69.1412,30.6909],[68.768,30.5102],[68.6436,30.5745],[67.6988,30.6186],[67.7005,30.5932],[68.0334,30.5423],[68.5663,30.292],[68.5562,29.9158],[68.9445,30.0282],[69.4775,30.0041],[69.0605,29.727],[69.2555,29.6119],[69.6456,29.6855],[69.8776,29.8984],[70.0759,30.2625],[69.9616,30.3228],[69.9909,30.4203],[69.9986,30.4459],[70.086,30.5932],[70.0889,30.6815],[70.0894,30.6976],[70.2155,30.79],[70.2877,31.1648]]]},"properties":{"na":"NA-252","dist":"Barkhan / Loralai / Musakhail","approx":false}},
{"type":"Feature","geometry":{"type":"Polygon","coordinates":[[[69.6456,29.6855],[69.2555,29.6119],[69.0605,29.727],[69.4775,30.0041],[68.9445,30.0282],[68.5562,29.9158],[68.5663,30.292],[68.0334,30.5423],[67.7005,30.5932],[67.218,30.4433],[67.3761,29.9211],[67.5089,29.715],[67.7795,29.5972],[67.9846,29.3749],[68.3427,29.2638],[68.3831,29.0496],[68.4688,28.6467],[68.7781,28.4833],[69.1278,28.4405],[69.3631,28.4458],[69.7061,29.0898],[69.7283,29.1745],[69.7447,29.237],[69.5632,29.4593],[69.5812,29.5645],[69.5918,29.6266],[69.6456,29.6855]]]},"properties":{"na":"NA-253","dist":"Dera Bugti / Harnai / Kohlu / Sibi / Ziarat","approx":false}},
{"type":"Feature","geometry":{"type":"Polygon","coordinates":[[[67.3761,29.9211],[67.2382,29.9774],[67.2009,29.9664],[67.1239,29.9439],[67.4433,29.3789],[67.4652,29.2129],[67.2752,28.8568],[67.2096,28.4954],[67.3929,28.229],[67.3938,28.0582],[67.8678,28.6091],[67.6501,28.9064],[67.9594,29.0898],[67.9846,29.3749],[67.7795,29.5972],[67.5089,29.715],[67.3761,29.9211]]]},"properties":{"na":"NA-254","dist":"Jhal Magsi / Kachhi / Nasirabad","approx":true}},
{"type":"Feature","geometry":{"type":"Polygon","coordinates":[[[68.6533,28.4302],[68.7092,28.4298],[69.1278,28.4405],[68.7781,28.4833],[68.4688,28.6467],[68.3831,29.0496],[67.9386,28.6915],[67.8701,28.6118],[67.8678,28.6091],[67.3938,28.0582],[67.3946,27.9103],[67.9123,27.9947],[68.5175,28.4311],[68.6533,28.4302]]]},"properties":{"na":"NA-255","dist":"Jaffarabad / Nasirabad / Sohbatpur","approx":true}},
{"type":"Feature","geometry":{"type":"Polygon","coordinates":[[[67.3946,27.9103],[67.3938,28.0582],[67.3929,28.229],[67.2096,28.4954],[67.2752,28.8568],[66.7742,28.8153],[66.4296,28.4284],[66.5002,28.1674],[65.9606,27.9385],[65.5924,27.4177],[66.0514,27.0991],[65.9337,26.5421],[66.7541,26.4672],[66.9978,25.7349],[67.0936,25.7456],[67.1474,26.2744],[66.9861,26.506],[67.1239,26.6533],[67.134,26.8782],[67.1386,26.9101],[67.1609,27.0656],[67.1743,27.4471],[67.3374,27.7256],[67.3864,27.8839],[67.3946,27.9103]]]},"properties":{"na":"NA-256","dist":"Khuzdar","approx":false}},
{"type":"Feature","geometry":{"type":"Polygon","coordinates":[[[67.4131,26.087],[67.1239,26.6533],[66.9861,26.506],[67.1474,26.2744],[67.0936,25.7456],[66.9978,25.7349],[66.7541,26.4672],[65.9337,26.5421],[66.0514,27.0991],[65.5924,27.4177],[65.3369,26.8956],[64.9149,26.4511],[64.4459,26.3654],[64.3753,26.0026],[64.1399,25.4671],[65.1721,25.6023],[65.2377,25.344],[66.5591,25.5314],[66.7373,25.1967],[66.7036,24.8928],[66.78,24.9608],[66.7894,24.9691],[66.8439,24.9882],[66.9154,25.0133],[66.924,25.0213],[66.9843,25.078],[67.0079,25.1003],[67.0079,25.1287],[67.0079,25.1619],[67.0903,25.2409],[67.0965,25.2541],[67.1626,25.3948],[67.1626,25.4244],[67.1626,25.4524],[67.2231,25.5056],[67.2433,25.5233],[67.3206,25.6398],[67.4131,26.087]]]},"properties":{"na":"NA-257","dist":"Awaran / Lasbela","approx":false}},
{"type":"Feature","geometry":{"type":"Polygon","coordinates":[[[65.3369,26.8956],[65.0141,27.1821],[64.693,27.004],[64.4257,27.2878],[64.1248,27.0709],[63.8256,27.2557],[63.249,27.2088],[63.2759,26.8648],[63.1699,26.6479],[62.6664,26.6078],[64.1279,25.3245],[64.6056,25.2302],[64.7502,25.3212],[65.2377,25.344],[65.1721,25.6023],[64.1399,25.4671],[64.3753,26.0026],[64.4459,26.3654],[64.9149,26.4511],[65.3369,26.8956]]]},"properties":{"na":"NA-258","dist":"Kech / Panjgur","approx":true}},
{"type":"Feature","geometry":{"type":"Polygon","coordinates":[[[62.6664,26.6078],[62.3143,26.5287],[61.8704,26.2463],[61.6889,25.7991],[61.6553,25.2971],[61.8755,25.103],[62.4941,25.2529],[63.4826,25.198],[63.6743,25.3828],[64.1279,25.3245],[62.6664,26.6078]]]},"properties":{"na":"NA-259","dist":"Gwadar / Kech","approx":true}},
{"type":"Feature","geometry":{"type":"Polygon","coordinates":[[[65.9606,27.9385],[65.89,28.3575],[66.085,28.6346],[66.1068,29.1768],[66.3119,29.632],[66.2581,29.8609],[65.0662,29.5356],[64.6325,29.5811],[64.0324,29.4178],[63.5902,29.4901],[62.4555,29.3883],[60.8786,29.8622],[61.3728,29.3482],[61.504,29.0081],[61.8049,28.64],[62.4403,28.407],[62.7682,28.0322],[62.8556,27.4645],[62.7816,27.2517],[63.249,27.2088],[63.8256,27.2557],[64.1248,27.0709],[64.4257,27.2878],[64.693,27.004],[65.0141,27.1821],[65.3369,26.8956],[65.5924,27.4177],[65.9606,27.9385]]]},"properties":{"na":"NA-260","dist":"Chaghi / Kharan / Nushki / Washuk","approx":false}},
{"type":"Feature","geometry":{"type":"Polygon","coordinates":[[[67.1239,29.9439],[66.8348,30.0697],[66.8257,30.0766],[66.7305,30.1487],[66.5053,29.81],[66.2682,29.8729],[66.2581,29.8609],[66.3119,29.632],[66.1068,29.1768],[66.085,28.6346],[65.89,28.3575],[65.9606,27.9385],[66.5002,28.1674],[66.4296,28.4284],[66.7742,28.8153],[67.2752,28.8568],[67.4652,29.2129],[67.4433,29.3789],[67.1239,29.9439]]]},"properties":{"na":"NA-261","dist":"Kalat / Mastung","approx":false}},
{"type":"Feature","geometry":{"type":"Polygon","coordinates":[[[66.8257,30.0766],[66.7691,30.3079],[66.7019,30.1889],[66.5238,30.2224],[66.2396,30.0858],[66.2682,29.8729],[66.5053,29.81],[66.7305,30.1487],[66.8257,30.0766]]]},"properties":{"na":"NA-262","dist":"Quetta","approx":true}},
{"type":"Feature","geometry":{"type":"Polygon","coordinates":[[[67.2009,29.9664],[66.8779,30.4704],[66.86,30.4687],[66.7691,30.3079],[66.8257,30.0766],[66.8348,30.0697],[67.1239,29.9439],[67.2009,29.9664]]]},"properties":{"na":"NA-263","dist":"Quetta","approx":true}},
{"type":"Feature","geometry":{"type":"Polygon","coordinates":[[[67.218,30.4433],[66.9171,30.474],[66.8779,30.4704],[67.2009,29.9664],[67.2382,29.9774],[67.3761,29.9211],[67.218,30.4433]]]},"properties":{"na":"NA-264","dist":"Quetta","approx":true}},
{"type":"Feature","geometry":{"type":"Polygon","coordinates":[[[67.445,31.2331],[67.2618,31.2063],[66.5624,30.5825],[66.5238,30.2224],[66.7019,30.1889],[66.7691,30.3079],[66.86,30.4687],[66.8779,30.4704],[66.9171,30.474],[67.218,30.4433],[67.7005,30.5932],[67.6988,30.6186],[67.5728,30.8984],[67.8148,31.118],[67.445,31.2331]]]},"properties":{"na":"NA-265","dist":"Pishin","approx":false}},
{"type":"Feature","geometry":{"type":"Polygon","coordinates":[[[66.5238,30.2224],[66.5624,30.5825],[67.2618,31.2063],[66.9692,31.3121],[66.3859,30.9346],[66.2817,30.5691],[66.354,30.4272],[66.2396,30.0858],[66.5238,30.2224]]]},"properties":{"na":"NA-266","dist":"Killa Abdullah","approx":false}}
]}