{"type": "FeatureCollection", "features": [{"type": "Feature", "properties": {"na": "NA-264", "district": "Quetta", "delim": "2018", "src": "ECP 2018 revenue map (Balochistan/s15.jpg), UTM 42N grid georeference", "grid_px_per_km": 21.73}, "geometry": {"type": "Polygon", "coordinates": [[[66.93790112545427, 30.455624992092712], [66.92889736000082, 30.450919927001056], [66.92182772951492, 30.445415565425623], [66.91469710498538, 30.442813199291283], [66.91000550725198, 30.438175742878492], [66.9043211849498, 30.43518123109402], [66.89761726771253, 30.435073377543148], [66.89087768059268, 30.436623639680406], [66.87968454867875, 30.444737360662653], [66.87776898370333, 30.44470621014397], [66.87401886830177, 30.440912335506574], [66.87086503617445, 30.43173625594841], [66.86709761685569, 30.42877142996348], [66.86735925402003, 30.416747758084835], [66.86507383985504, 30.411733309969346], [66.8603046847788, 30.410825704954746], [66.85894094372135, 30.407485291105512], [66.84951236302545, 30.40069421707555], [66.85018181242924, 30.39199536642488], [66.84501709414482, 30.38734791989197], [66.84366326690198, 30.383592770360195], [66.84380896032762, 30.376959079429817], [66.8311903251555, 30.363063249438984], [66.83125438797572, 30.360161025391413], [66.8347132708279, 30.35524132053267], [66.83484113915307, 30.349436850523677], [66.83254962999058, 30.344836545489965], [66.8282990760511, 30.34227744979995], [66.82414965120275, 30.335157592577985], [66.82040562210794, 30.33136242024209], [66.82047910670052, 30.328045600349533], [66.81678147262508, 30.322177329780434], [66.81694700970806, 30.314714489993612], [66.81508006946099, 30.31260953184493], [66.8137650741458, 30.307195730026585], [66.8067213618147, 30.30127122909825], [66.8016650677701, 30.29206174326107], [66.80083836864908, 30.28624127747745], [66.79656333051356, 30.28492509044111], [66.78864050827991, 30.27566684479756], [66.78341936598603, 30.27391950298567], [66.7767269693217, 30.27380598455487], [66.77502066569465, 30.264652428681703], [66.77628502542484, 30.25098705054958], [66.78395033100327, 30.250287501170067], [66.78927242083738, 30.24747417828879], [66.78893381962625, 30.241247122370947], [66.7722270842053, 30.240134477122478], [66.76757970147555, 30.23424879113198], [66.75911985234858, 30.227883035984295], [66.75313478178165, 30.217826462159945], [66.74560432417005, 30.212720085470565], [66.74518335001056, 30.210224332470286], [66.74236444308607, 30.20810203902927], [66.74240231450537, 30.206443685929685], [66.74432253486293, 30.206062000900463], [66.74445494531597, 30.20025775337494], [66.73983942051362, 30.193127462699668], [66.738529759354, 30.187713101508212], [66.73283659624265, 30.18595576179202], [66.7263694712608, 30.17630450031647], [66.71369620706365, 30.166544904822914], [66.70034588235933, 30.165481992026514], [66.69848414793069, 30.163375597026594], [66.68941230246898, 30.163216089096295], [66.67946332143536, 30.159722478919324], [66.67564378040878, 30.159654847756514], [66.66952483996772, 30.15581357852907], [66.66188612630677, 30.15567764255284], [66.6488581520999, 30.161251140466646], [66.64834133550818, 30.162900835506605], [66.64306968520295, 30.163635683617116], [66.64152872306296, 30.168170109946104], [66.62664771357325, 30.17121952852578], [66.62123604320189, 30.17775723684726], [66.61832110303389, 30.179777992803167], [66.61496848343731, 30.180131780640494], [66.61442100766482, 30.183024958510856], [66.61095816252308, 30.18793869992708], [66.59947676278777, 30.18855841008771], [66.59752627420261, 30.190181600712286], [66.59370578470097, 30.190111521118617], [66.59326856707527, 30.18844457215363], [66.58228492328993, 30.18824244767849], [66.57644265187932, 30.192696567852654], [66.56975673843226, 30.192572771566898], [66.56734853111448, 30.19335755036223], [66.56680977395831, 30.195835906922547], [66.5620339999768, 30.195747156649258], [66.55999072706135, 30.20110055669136], [66.55667825252638, 30.19979466608845], [66.54711613289574, 30.200030763268714], [66.5460992223836, 30.20250006155078], [66.54275600499477, 30.20243741418621], [66.53885264284783, 30.205681933679045], [66.53645423521073, 30.206051584727064], [66.53470915691979, 30.199383230888003], [66.52899888081335, 30.198446245851734], [66.52916458990371, 30.19181384452795], [66.53300563914705, 30.191056754722204], [66.53268318207833, 30.184829866076587], [66.53079382169044, 30.18396484892188], [66.52852017480924, 30.179360072492152], [66.53054389559638, 30.174836270748667], [66.5307713734944, 30.165716673513828], [66.52808276590771, 30.158615749259496], [66.52814483705927, 30.156128586268707], [66.53059370920602, 30.153686378446608], [66.53073835420024, 30.14788298111397], [66.5288703696082, 30.14618891574338], [66.51931352410851, 30.14642327093198], [66.5187843011243, 30.148486868435445], [66.50968375752454, 30.149558580550778], [66.50835599298492, 30.145386171661688], [66.49084244378162, 30.13924633173479], [66.48225146946625, 30.139081755236386], [66.47503958007984, 30.14101673661926], [66.47212303416269, 30.143034144507517], [66.46115604918784, 30.142407656672024], [66.45730589015687, 30.143577227205842], [66.45162110020523, 30.1418080795723], [66.44303016523969, 30.14164092379795], [66.44156624795824, 30.142856511482595], [66.4301224017867, 30.142218131265587], [66.4204583595475, 30.146590231284318], [66.41652117920228, 30.15107450352608], [66.40317838375786, 30.149981619900938], [66.3988500688567, 30.151139964428275], [66.38805438692437, 30.162122324950264], [66.37757469486051, 30.16108377933321], [66.37414538299197, 30.164332734735343], [66.37211494758056, 30.16885372285353], [66.3697170558644, 30.16922033830925], [66.36880636758939, 30.167543282315556], [66.36500948808617, 30.166637645182945], [66.36463141689804, 30.162897787864402], [66.36278827150372, 30.160372561529137], [66.3616102266289, 30.150810870958384], [66.35782511340575, 30.149490593113864], [66.35650386880981, 30.145317022103743], [66.35418398766835, 30.142782082936566], [66.3523193084564, 30.141085683447944], [66.34136520165498, 30.140034762776445], [66.33439633021163, 30.132843589715204], [66.3339971609013, 30.129932635610917], [66.33031368560535, 30.124881445625114], [66.32697365160234, 30.124813454764755], [66.32655237085312, 30.122731417299526], [66.32273528451003, 30.122653602214687], [66.32133746341698, 30.1213810074291], [66.31974251004951, 30.109737112597564], [66.31070065705804, 30.108722804915285], [66.30701912286996, 30.10367106637912], [66.3022487597625, 30.10357312648188], [66.30095289537667, 30.098570236268955], [66.29765895500346, 30.096843731567134], [66.29398980117458, 30.091377232260996], [66.29325048107567, 30.083482936831377], [66.29000239539288, 30.080098459342462], [66.28285999308096, 30.07953621097136], [66.28298466818315, 30.07497724401268], [66.27936244668223, 30.067852614660136], [66.25650801361962, 30.066133288978534], [66.25213628299612, 30.068944691758375], [66.24401839120266, 30.06918931889463], [66.23821562471264, 30.071970204733937], [66.23106278227043, 30.071819625996813], [66.23266644627091, 30.06563325426629], [66.2682040332362, 30.03983719309846], [66.37204195404264, 29.97311320892706], [66.3717401871542, 29.96647188201469], [66.36566726408068, 29.96178873886187], [66.3620533567981, 29.954251684388655], [66.35825357837456, 29.9537608038545], [66.35735574272577, 29.951669264709633], [66.3521381082485, 29.95073504769754], [66.34249926258337, 29.93685569679134], [66.34216631813065, 29.931457838367624], [66.33281876829876, 29.92463369049269], [66.33249739332702, 29.918821354734888], [66.31992983406762, 29.907784136357886], [66.31516878226243, 29.90768723788304], [66.30728698695648, 29.899647171650905], [66.29653912743916, 29.891962637113856], [66.29274216838509, 29.891470027361464], [66.29182377033547, 29.890207075767247], [66.29005434932262, 29.885194361122025], [66.29493739326891, 29.880732953142342], [66.294730086745, 29.870775951202493], [66.29291599283032, 29.86742114777893], [66.29352622540071, 29.8624572915344], [66.29448917580297, 29.86206234545943], [66.29467934623769, 29.855016367207785], [66.29844144316006, 29.85675225037264], [66.30605516163216, 29.8569079319438], [66.30898820191805, 29.85406487862558], [66.31231913614413, 29.854132771644647], [66.3147538861191, 29.85210883263191], [66.31776414621655, 29.846364214697395], [66.3206854703588, 29.843935336278204], [66.33595533553019, 29.842585638779983], [66.33699497100534, 29.839288965608926], [66.33889812402627, 29.839327350992153], [66.3402265810711, 29.84308649553709], [66.34925600247705, 29.843682870803843], [66.35771148138309, 29.84799953248844], [66.36484906336935, 29.848142254688483], [66.3692077491937, 29.84532623611597], [66.3711979751501, 29.842048195127386], [66.37841103888273, 29.839288671691424], [66.3950427810698, 29.840447402125104], [66.40188670188022, 29.83353209404208], [66.40438356525756, 29.829019307491134], [66.40628662677172, 29.829056710198998], [66.4128405116592, 29.833332511413058], [66.41884450416595, 29.840500299965008], [66.43264351646422, 29.840769432569196], [66.43556208375661, 29.83833782983497], [66.44032030278535, 29.838430188457544], [66.44515243128147, 29.835620729818203], [66.45086218507355, 29.835731115955884], [66.4584017363538, 29.83877959024475], [66.46696673670732, 29.83894423367682], [66.4899636335081, 29.814084835866012], [66.51854382541046, 29.79388800978552], [66.52428216222697, 29.792751441306795], [66.52800570632378, 29.796139086293955], [66.5394519317018, 29.795108533552316], [66.54839838686075, 29.799007542848283], [66.55882302198295, 29.8008595686088], [66.56070564963964, 29.80172383586059], [66.56525161741763, 29.810517366655684], [66.56992875193724, 29.81392147434209], [66.5726830806499, 29.818119591891755], [66.57263297330954, 29.82019240337102], [66.57117553578975, 29.821409843519273], [66.57238235814141, 29.830556449855898], [66.57989575427433, 29.834841858646627], [66.58869795128787, 29.844956879070022], [66.58856838005892, 29.85034622939878], [66.59175057444013, 29.856625552121756], [66.59737274209199, 29.86046077373174], [66.60197390565297, 29.867180456471225], [66.607140821361, 29.870177517708107], [66.6069923046919, 29.876396058958054], [66.59556684664396, 29.87618828316293], [66.58888209628384, 29.876895751812576], [66.58885216206224, 29.87813944263064], [66.58554968646091, 29.876834794385204], [66.57792276509629, 29.877109707877473], [66.57778242016671, 29.8829135489012], [66.58104492147139, 29.8858766391899], [66.58282923358414, 29.890886289934546], [66.59163625428238, 29.901001326809812], [66.59239909621122, 29.908895417392362], [66.59906609316117, 29.909017019988326], [66.60242941022433, 29.90783399769474], [66.6126092866459, 29.920461190592107], [66.61325505221352, 29.93333005012713], [66.62111595529718, 29.943426164946473], [66.6219897875773, 29.94675992332874], [66.63697978455438, 29.95781318252138], [66.63873856410838, 29.96406596913753], [66.63251469571648, 29.965198455288835], [66.63227866274094, 29.975148158629313], [66.63362963372376, 29.978490431459534], [66.63643988135247, 29.980614660503797], [66.63677895004804, 29.986427217572412], [66.63814983797576, 29.988940312409124], [66.63745713368282, 29.998052321416854], [66.64065633986627, 30.003916187931488], [66.64047965936923, 30.011378467061103], [66.6422589925189, 30.01680208132278], [66.64457409744224, 30.019746789089996], [66.64543941098913, 30.023495006492197], [66.64964235707298, 30.02730291299787], [66.65284311993636, 30.033166548206673], [66.65889562764538, 30.039495672510796], [66.66172756423316, 30.040790314278937], [66.66205832857618, 30.04701742265022], [66.66673979481286, 30.050833338617252], [66.66899808149262, 30.05626514136496], [66.67418629304447, 30.05884555091938], [66.67506266646183, 30.062179052618006], [66.67784705060139, 30.065546279999417], [66.67768240861572, 30.0725941100002], [66.6823656502434, 30.07640955101553], [66.68414822314173, 30.081832732170263], [66.69213325152336, 30.08736501640231], [66.69280815398044, 30.099404631914158], [66.69750282367501, 30.102805034097162], [66.69736818597853, 30.10860917780239], [66.70055491876462, 30.115301034124588], [66.7008400022556, 30.123601029305636], [66.70817944804577, 30.136586652943024], [66.71533004193056, 30.137126093570316], [66.72252836094943, 30.135592213164493], [66.755521723309, 30.133672123811234], [66.75891935467988, 30.131241642222605], [66.75906924838455, 30.124608073770727], [66.7688670634154, 30.113576466306053], [66.8062490388587, 30.107155404270642], [66.81673907590032, 30.10774500947686], [66.82154786781122, 30.106165806965468], [66.82186170688831, 30.070086118403964], [66.83237513866789, 30.0694304231366], [66.83775806271787, 30.063297522672492], [66.84357236808198, 30.059245320179805], [66.84835148946516, 30.058908869402384], [66.85556929913784, 30.056123402843458], [66.85570336311717, 30.049903958347485], [66.85339006236867, 30.046548001709066], [66.83861350947306, 30.04589112716758], [66.82949950998832, 30.026246654623037], [66.82975246515004, 30.014637166696623], [66.84511764396234, 30.00991243966931], [66.85562465953254, 30.009254557789568], [66.86081583126243, 30.01182773557653], [66.86546829131457, 30.017295427803923], [66.87205522086963, 30.021549940269928], [66.88328799192662, 30.03168591567477], [66.88707675633079, 30.0329911856086], [66.8884371085181, 30.03633128234928], [66.89367444830266, 30.036830059729823], [66.89402855277116, 30.042642669958198], [66.90317436672657, 30.06145402711788], [66.90977455052636, 30.065292197532358], [66.9125237628941, 30.070728063045994], [66.92005312255151, 30.075824849419703], [66.92001841236407, 30.07748343100004], [66.91324290205121, 30.08193859569788], [66.91312097614278, 30.08774359863995], [66.91683401615303, 30.092779911427918], [66.91471626665397, 30.10270104957172], [66.92598827069236, 30.11158997067936], [66.92633559807317, 30.11781717899176], [66.93397275645256, 30.117937585572967], [66.93438965376795, 30.120847621605716], [66.93626450546786, 30.122536237768383], [66.94127435150288, 30.134228816195034], [66.9421000673195, 30.140463500599232], [66.9549994222786, 30.140250368326246], [66.9592707593834, 30.14156121373156], [66.95911707979234, 30.149024937038433], [66.96137652621002, 30.15528182232593], [66.96213535785988, 30.164833635728023], [66.96498366867704, 30.165707425114125], [66.96488993221122, 30.170268589909128], [66.97233598717952, 30.17992395494616], [66.97318086250792, 30.18532920631376], [66.97691737159775, 30.18953475411639], [66.98599335327418, 30.18967449384698], [66.98939613470287, 30.186823224419722], [66.99322592702121, 30.1864671129375], [66.99406357882948, 30.19228693640179], [66.9973403265821, 30.19565532357552], [66.99957795280893, 30.20315564112679], [67.00626652576848, 30.20325755401318], [67.00917480693832, 30.20122782427826], [67.02545971660469, 30.19940020926895], [67.02936428641446, 30.195311067640933], [67.03050134589056, 30.18620276333566], [67.03625821826802, 30.185044737597387], [67.03728758744023, 30.181327023955447], [67.04354635542433, 30.178931799190426], [67.04349717600084, 30.181419821996705], [67.04999652303455, 30.191056879199223], [67.05086207409022, 30.195632472608043], [67.05791409096034, 30.20154424534938], [67.06123404762654, 30.202837774474123], [67.0679228470226, 30.202936541243105], [67.0717935445688, 30.2005047699554], [67.07376112678351, 30.197630130981995], [67.07899220995654, 30.198951282202987], [67.07745414608421, 30.204321077224183], [67.0653392550394, 30.21285348549553], [67.06522561687659, 30.218658915714364], [67.06897547800308, 30.222447373615022], [67.08037988746979, 30.22593331475015], [67.08033960047277, 30.228006697564627], [67.07405418931009, 30.231647590565178], [67.06782511062376, 30.232385448351465], [67.05145338585916, 30.238364805626826], [67.04977383956368, 30.2507835066513], [67.04684019992298, 30.25405809590683], [67.04481311989318, 30.25983488412568], [67.04090645326428, 30.263924363804936], [67.02939164718191, 30.265825473163996], [67.01170333181588, 30.26555801064117], [67.00838203699868, 30.2642631721992], [66.98446270489933, 30.26472665264737], [66.96766280776232, 30.267785143592224], [66.96476879821762, 30.26898451369905], [66.96464042667607, 30.275204184158618], [66.9730159222603, 30.286533180182417], [66.97373347818723, 30.298158071885013], [66.97218788916098, 30.303526226416064], [66.96635493215754, 30.307998210755958], [66.96385220436417, 30.313351356115263], [66.95952193511982, 30.31452819154447], [66.95948755581352, 30.31618675399107], [66.95757439898053, 30.316156888809964], [66.95475635766286, 30.313624202198625], [66.95189533284814, 30.313164654823776], [66.95153783640247, 30.30735222011583], [66.94727686132447, 30.30521155026123], [66.94494626602665, 30.302271540544222], [66.93776433974249, 30.30257328708903], [66.93794733549088, 30.316678429145465], [66.93978236954624, 30.320440299402648], [66.9397129267372, 30.323757379773088], [66.94206984555143, 30.325453583854507], [66.9428357713787, 30.33459061569711], [66.94568003902263, 30.335879658248817], [66.94840328600284, 30.342973548589686], [66.9594069115586, 30.343145799742118], [66.96317415666168, 30.346107974314158], [66.96544620383017, 30.35195019252516], [66.9647444846318, 30.362723365377057], [66.96611136823576, 30.366062832835585], [66.97083676403116, 30.369039722937767], [66.97360541380696, 30.374059977507102], [66.97742548211313, 30.374533954342333], [66.97975866722442, 30.377473476544665], [66.97971601146799, 30.379546685622955], [66.9782545871282, 30.38076839350438], [66.96659624687368, 30.388882849542806], [66.96128809407826, 30.39087394383963], [66.96051641696972, 30.404964083099518], [66.95131680089322, 30.409797263475575], [66.94844434708212, 30.409752150977106], [66.94061033811334, 30.417924131919726], [66.94074065327754, 30.434516835296332], [66.9416722400077, 30.43577583248118], [66.94039189932408, 30.45110193919843], [66.94174155106903, 30.455270892152726], [66.93790112545427, 30.455624992092712]]]}}, {"type": "Feature", "properties": {"na": "NA-265", "district": "Quetta", "delim": "2018", "src": "ECP 2018 revenue map (Balochistan/s15.jpg), UTM 42N grid georeference", "grid_px_per_km": 21.73}, "geometry": {"type": "Polygon", "coordinates": [[[66.99168122274841, 30.21547842061604], [66.99079303177797, 30.21214653031337], [66.99366822009995, 30.211775796905645], [66.99377761334262, 30.206385267291846], [66.99760815969844, 30.206029062378725], [66.9978264368804, 30.19524796286376], [66.99549667931662, 30.19230885674126], [66.99216961182273, 30.19142837131125], [66.99177608212777, 30.187274485683933], [66.99034305780394, 30.187252527988818], [66.99042726564859, 30.18310596013], [66.98854193184903, 30.181832694270227], [66.9885756399402, 30.180174067933468], [66.99098909060174, 30.178966707978752], [66.99071344121639, 30.169007608193144], [66.98641516875288, 30.16894168933152], [66.98660062849186, 30.15981923287621], [66.98431416885231, 30.15480668004215], [66.985336651681, 30.151504089830727], [66.98772415733133, 30.1515407293226], [66.98903884162354, 30.157367909781563], [66.99091532555805, 30.159055810617645], [67.00189876224668, 30.159223564058568], [67.00719345016972, 30.157230155570506], [67.02436827210012, 30.158319507537517], [67.03489897766106, 30.157233295709727], [67.04203755111271, 30.158584412226812], [67.04151900941301, 30.16065064026957], [67.037649236306, 30.163081567398216], [67.0271261818825, 30.163753305370538], [67.0274137791354, 30.173297833260936], [67.03787210638727, 30.175943473774833], [67.04022744049705, 30.17763786316905], [67.04019460100601, 30.1792965421829], [67.03681815295128, 30.180905204739023], [67.03484165632028, 30.18419393127694], [67.03005668384628, 30.18453691997557], [67.0288948245327, 30.194889219437318], [67.0264400266908, 30.19817060381444], [67.01347454128, 30.201293060379953], [67.00821931233125, 30.20121330823707], [67.0057887694228, 30.20325028582596], [67.00387774578387, 30.203221195685202], [67.00094415138489, 30.206494774182527], [67.00078482920007, 30.214373273382094], [66.99168122274841, 30.21547842061604]]]}}, {"type": "Feature", "properties": {"na": "NA-266", "district": "Quetta", "delim": "2018", "src": "ECP 2018 revenue map (Balochistan/s15.jpg), UTM 42N grid georeference", "grid_px_per_km": 21.73}, "geometry": {"type": "Polygon", "coordinates": [[[67.20188995231003, 30.430495969488167], [67.20149475124275, 30.425927753848924], [67.19718472900239, 30.42586828784081], [67.1967439848007, 30.42378821428839], [67.1929129469222, 30.423735226575445], [67.19199343260244, 30.42164850941382], [67.17394328827034, 30.413516124016798], [67.16437459984685, 30.4129671275733], [67.16195718899837, 30.414177493093987], [67.14661138477287, 30.41520488848144], [67.14001010122448, 30.409718707993516], [67.1376161209553, 30.40968457757368], [67.13717670596856, 30.40760435289108], [67.12488687406736, 30.399132615323843], [67.11532005884017, 30.398580090744197], [67.11350875752963, 30.393161676977964], [67.10636015423678, 30.391399058240385], [67.10644815261035, 30.38683765984687], [67.10366421326961, 30.382234593785245], [67.09895798301399, 30.378018299681123], [67.09573622150592, 30.371334762453053], [67.07598446313109, 30.353209546086244], [67.06212428723461, 30.352175187625036], [67.06209158677825, 30.353833844066656], [67.04583084579669, 30.3531769217341], [67.03179679986044, 30.3608471623722], [67.03168050541451, 30.366652345050074], [67.01779408308892, 30.366857181030255], [67.01737410617564, 30.363947354246697], [67.0159384903952, 30.36392556199497], [67.01550182736013, 30.361845034983787], [67.00258163299968, 30.36164816480045], [66.9996598460549, 30.364092129973983], [66.99002132756766, 30.367262415218438], [66.98466374331639, 30.37174240405837], [66.9750667879709, 30.372838318589693], [66.96665855574194, 30.362753166844566], [66.96691590406017, 30.350313970400514], [66.96462663318626, 30.345301054253273], [66.96038955454958, 30.341916817044183], [66.94937741305039, 30.342159291161757], [66.9494465811336, 30.338842199971655], [66.94713249103914, 30.335072931155036], [66.94334882268186, 30.332939601643215], [66.94399182803991, 30.3250690481141], [66.94164355551456, 30.32295824202506], [66.93986047889787, 30.316708581801308], [66.93958178539988, 30.30716442696563], [66.93181739708945, 30.289621458226645], [66.9318783096869, 30.28671901232672], [66.93046130975105, 30.28586706336769], [66.93056577865175, 30.28089144238378], [66.93247821851335, 30.280921670822895], [66.94208562693142, 30.30181179505899], [66.94676404810971, 30.306862595992406], [66.94961622694034, 30.307736885095974], [66.95186082698012, 30.314823209706173], [66.96284416817818, 30.31582430937201], [66.96625215777541, 30.312973922881042], [66.96777257329295, 30.308849796935196], [66.97407522925532, 30.304799802023705], [66.97566334639525, 30.29735839315434], [66.97493704235791, 30.28614814705789], [66.97123134696717, 30.28028385425428], [66.96420513950406, 30.273123526224257], [66.96425649962741, 30.270635658692726], [66.97197385589007, 30.267437226183155], [66.98250811174448, 30.266770446190197], [66.98636643114246, 30.265170730329913], [67.02938336296381, 30.266240134677762], [67.04040368132888, 30.26516120198386], [67.04478846705602, 30.2610788812388], [67.05072983745676, 30.25079774090035], [67.05135518457453, 30.243340828594487], [67.05045657363367, 30.240423924147045], [67.06682870031293, 30.234444710867194], [67.07496152454958, 30.234149688872364], [67.07498577091498, 30.23290566436883], [67.07837961493723, 30.230466728967528], [67.07802272018162, 30.224239578532295], [67.06946954827949, 30.22162506717145], [67.06525808830227, 30.21700022193079], [67.06580084687643, 30.21368988646555], [67.0740289054902, 30.2084187408711], [67.07367228520317, 30.20219157418575], [67.06314512978332, 30.202866028338455], [67.05463500679791, 30.198177275627952], [67.0513561440861, 30.194810232040062], [67.05093560524638, 30.191900429689127], [67.04772252006403, 30.185215936608817], [67.04491377956455, 30.182270536639738], [67.0440321992679, 30.1785242539436], [67.03880272893042, 30.177201771535373], [67.03694150696018, 30.174685170231328], [67.02929123602176, 30.174985223945303], [67.02877232508006, 30.17705138102216], [67.02639241207062, 30.176600794411797], [67.02553638616484, 30.171610418138567], [67.02557772925483, 30.169537085157433], [67.02701879009344, 30.16914397944363], [67.02677251751008, 30.157526108967676], [67.01387063945195, 30.157746205425003], [67.01384569889439, 30.15899019871271], [67.00903692036542, 30.16057646303374], [66.99994673138106, 30.161267759518235], [66.99561520626324, 30.162860796644935], [66.99067978401644, 30.170666239534448], [66.98989907661559, 30.185586578963196], [66.98502953899859, 30.19007446907382], [66.97979193078932, 30.189164296427723], [66.97602138319668, 30.18661743772203], [66.97472415860662, 30.179960862234584], [66.97144020563266, 30.17700661340856], [66.96404559148502, 30.164863300224653], [66.96025124562318, 30.140332104454732], [66.9473690304275, 30.13971645617124], [66.94638839687026, 30.140945462108203], [66.94400120773844, 30.14090808258415], [66.9422893904494, 30.13134125627133], [66.93495329294613, 30.116708664965046], [66.92731622436912, 30.116588319828683], [66.92743746168965, 30.110783289954455], [66.91476851643037, 30.100213194983045], [66.91480334598656, 30.098554624687726], [66.9177101716958, 30.096526837118255], [66.91784056410118, 30.090307181009678], [66.91363298032759, 30.086092606038992], [66.9136852223613, 30.083604746880393], [66.91949788542321, 30.079549102742792], [66.9191509719237, 30.073321869043248], [66.91397243683436, 30.069921503189487], [66.9130791895526, 30.06700384461277], [66.909809414496, 30.0636336237125], [66.90462297011628, 30.060647566487198], [66.89593635548728, 30.042673213921237], [66.89557337364973, 30.03727524489877], [66.90225034268032, 30.037381932227028], [66.90316926110656, 30.03905571905947], [66.91644541904404, 30.042999815720595], [66.92455374606932, 30.043128056228497], [66.9294786351431, 30.03573955487306], [66.9372126009756, 30.03088365187415], [66.94198168126704, 30.03095836773117], [66.94716784668562, 30.033942942803392], [66.96621109685076, 30.035897994063703], [66.98343143922872, 30.03367443161021], [67.00204032906558, 30.033543667373966], [67.00732816376481, 30.031549913222108], [67.02115099630099, 30.032173421239836], [67.02155377531062, 30.03591266460895], [67.03006516082644, 30.039773630218164], [67.02982710001292, 30.05179922185682], [67.02260566526517, 30.055009178539944], [67.02016265595927, 30.05787598472803], [67.0213710862406, 30.069093686139734], [67.02512211434986, 30.072468480322872], [67.02554159103188, 30.07537835889416], [67.03121807757148, 30.077952313334183], [67.03115235759907, 30.0812697033295], [67.03255925735569, 30.082535168919684], [67.03827727659086, 30.083035467683203], [67.04058961652329, 30.086803153035223], [67.04345285302429, 30.086845826444698], [67.04578179014793, 30.089784077874395], [67.06198314456192, 30.091268492273564], [67.06194269081256, 30.093341895145237], [67.05903061389311, 30.095787694635185], [67.05899009117908, 30.097861092448497], [67.05611839372992, 30.098233422333728], [67.05073010332649, 30.105205132377975], [67.04845400400329, 30.123837195311918], [67.04872745035173, 30.134211166580318], [67.05390600744099, 30.13802122153813], [67.05961925576356, 30.13893540989244], [67.06479039759911, 30.143159739660618], [67.07047985105916, 30.145317508744533], [67.0704475602143, 30.1469762257798], [67.07418701350993, 30.151179143358128], [67.07455172703825, 30.156991668199158], [67.07687509464081, 30.16034413091168], [67.08403063701027, 30.160863633186217], [67.08828879506052, 30.162999752090766], [67.09688536294038, 30.163124752212365], [67.09971907358846, 30.164825034837328], [67.10688305600938, 30.164928622325917], [67.11597326365082, 30.164229893939382], [67.12032675008926, 30.16138872808838], [67.1293930960595, 30.16193312696619], [67.13951601994192, 30.15709941965283], [67.17501713367406, 30.148887048716418], [67.18326457543309, 30.141949702092546], [67.1833025717573, 30.139876170117297], [67.18616757512086, 30.139915797117276], [67.19683854453591, 30.130936945338927], [67.21318435584794, 30.124938228645888], [67.21533278866379, 30.111693323548437], [67.21509400781781, 30.0984159261492], [67.21653338310134, 30.09802065973614], [67.2189332789842, 30.07067517769041], [67.22865414921293, 30.060850850860025], [67.22869846092847, 30.058362519704943], [67.23108406447525, 30.0583946424645], [67.23302201663235, 30.056761417700386], [67.23404249946479, 30.05304172983413], [67.23691242837593, 30.052665425352973], [67.23695651905386, 30.05017707999192], [67.23934193703647, 30.050209045084657], [67.24662243250292, 30.04325432762393], [67.26624672592432, 30.039781091654916], [67.26771393219997, 30.037726292038318], [67.27582348771558, 30.037832860408255], [67.28397597631417, 30.035450516014084], [67.29305369037449, 30.034738985318274], [67.30598982278202, 30.031587587646012], [67.30696499887486, 30.030355648578933], [67.31940219567632, 30.02844097931275], [67.32039116565267, 30.026379444632568], [67.32802302708338, 30.02647666867408], [67.33378857360631, 30.02406081478398], [67.34287196221327, 30.02293104146696], [67.34433736429169, 30.020875311456315], [67.34912081293157, 30.020105749418295], [67.37773909709387, 30.020461742732895], [67.40865668221379, 30.026232296068237], [67.44249234786676, 30.028711478510147], [67.45801604310772, 30.04299915767191], [67.45674022100387, 30.06372647735432], [67.44980723644046, 30.079823815688997], [67.44739493760615, 30.081454709619614], [67.44357017330378, 30.08182430613361], [67.44256360447088, 30.085131120422858], [67.41118777405856, 30.10674193060862], [67.40149960846746, 30.11533594906875], [67.39713570142897, 30.11943111546356], [67.39709550375288, 30.12191963976929], [67.39470817024213, 30.12189047336787], [67.3913188380871, 30.12475283650657], [67.39127848594731, 30.12724135168534], [67.38889103124052, 30.127212074880596], [67.38695409398169, 30.128847628271796], [67.38691362573212, 30.13133613654651], [67.38452607763419, 30.131306776788474], [67.37580187906111, 30.13908094938791], [67.36990768954774, 30.148963840089575], [67.36984629437583, 30.15269655912679], [67.36745141981962, 30.153081616004712], [67.36500178354166, 30.156784590720388], [67.36302960421794, 30.160493471416654], [67.36329928083302, 30.201979721727792], [67.3608894372609, 30.203194093922964], [67.35212228057037, 30.21304000320319], [67.35160289114636, 30.215522426056776], [67.34871466325103, 30.216730542098574], [67.3336266935934, 30.23271766694004], [67.33358471329343, 30.235206069237645], [67.3302317166615, 30.235578196866644], [67.32634447384102, 30.23926198746052], [67.32631635791722, 30.240920914608264], [67.32391919887925, 30.241305084417178], [67.31614349710976, 30.248672121337744], [67.31558051299467, 30.253642719679743], [67.30678290445107, 30.26472936116604], [67.30666899632428, 30.271364974441365], [67.30900294477254, 30.274713686719263], [67.3088606834707, 30.28300819907726], [67.31073093855174, 30.285521256471164], [67.31063852992882, 30.29091268668016], [67.30868277357364, 30.293376323879958], [67.30861158370033, 30.297523568932977], [67.30615594020747, 30.30122514606437], [67.30035180819601, 30.304883209613603], [67.29459034085174, 30.30605267278459], [67.28537208289363, 30.313398812957484], [67.28485759493496, 30.315466132110064], [67.28100163098601, 30.317074760452506], [67.26664292791622, 30.317300063752533], [67.25567697361602, 30.31508022280616], [67.24705902293528, 30.31537981500106], [67.2454834883961, 30.32324004825036], [67.23962396670531, 30.32979821921377], [67.23937161077735, 30.34389824843098], [67.23554359894247, 30.34384663388638], [67.23260551264275, 30.347540191311694], [67.21492303715506, 30.346055491401856], [67.20808035759187, 30.353843112251106], [67.20278607216771, 30.355429621841566], [67.20267990045573, 30.36123538100462], [67.20403983656568, 30.365402091258606], [67.2072840811269, 30.371253861410768], [67.21058914488327, 30.3737879792725], [67.21872604968752, 30.37389917729832], [67.22498589060888, 30.371910363516804], [67.22784273794073, 30.372778752899528], [67.22912910589383, 30.381092260535706], [67.2271694588079, 30.38355449530737], [67.22751337520678, 30.39102560718657], [67.22986962375451, 30.39313157708981], [67.22972748294849, 30.401010891279462], [67.23680482103275, 30.406913886682528], [67.2444286638396, 30.40909063911789], [67.24343388567671, 30.411151272998026], [67.23432119512785, 30.41185794527311], [67.23189713009053, 30.413484342643574], [67.231725115033, 30.42302243925556], [67.22453433474199, 30.423339619912543], [67.21975301930141, 30.422859691096235], [67.21930426949176, 30.42119437117211], [67.21164231159905, 30.421089615457984], [67.21057101550832, 30.427296909848224], [67.20865541218541, 30.427270630175776], [67.20620018915619, 30.430555288269403], [67.20188995231003, 30.430495969488167]]]}}]}